esm_event_id;event_time;ingv_event_id;ev_latitude;ev_longitude;ev_depth_km;ev_hyp_ref;fm_type_code;fm_ref;ml;ml_ref;mw;mw_ref;network_code;station_code;location_code;channel_code;sensor_depth_m;proximity;housing;installation;st_latitude;st_longitude;st_elevation;reference_site;preferred_estimation_method_vs30_ec8;preferred_ec8_code;preferred_vs30_m_s;epi_dist;epi_az;jb_dist;rup_dist;late_triggered_event_01;u_channel_code;v_channel_code;w_channel_code;processing_type;u_un_pga;v_un_pga;w_un_pga;u_hp;v_hp;w_hp;u_lp;v_lp;w_lp;u_pga;v_pga;w_pga;u_pgv;v_pgv;w_pgv;u_t90;v_t90;w_t90;u_ia;v_ia;w_ia;u_t0_050;u_t0_100;u_t0_200;u_t0_300;u_t0_500;u_t1_000;u_t2_000;u_t3_000;u_t5_000;v_t0_050;v_t0_100;v_t0_200;v_t0_300;v_t0_500;v_t1_000;v_t2_000;v_t3_000;v_t5_000;w_t0_050;w_t0_100;w_t0_200;w_t0_300;w_t0_500;w_t1_000;w_t2_000;w_t3_000;w_t5_000;original_data_mediator
IT-2009-0007;2009-04-05T20:48:54;1894909;42.325;13.382;9.5;INGV-CNT_Seismic_Bulletin;NF;;4.3;EMSC-CSEM;4.2;Pondrelli_et_al_2002_dataset;IT;AQK;00;HN;0;Close to structure;Tunnel;Building basement;42.344967;13.400949;726;NO;vs_profile;B;705;2.7125731694;35.1435753096756;;;0;E;N;Z;manual (Paolucci et al 2011);31.488522;-45.728336;-26.020472;0.2;0.2;0.5;40;40;40;30.554437;-43.872913;-20.927732;0.500375;0.611017;0.323189;4.265;4.11;6.51;0.228402164574;0.359556915856;0.200277114636;109.461;49.5791;25.6323;23.8362;5.21507;1.84078;0.892967;0.27965;0.109819;177.548;64.8675;29.9862;17.832;9.09951;1.70299;0.707831;0.255728;0.097798;83.6684;30.6945;20.2886;20.1391;8.70331;1.63156;0.271596;0.117588;0.057512;brevi manu (DPC)
IT-2009-0008;2009-04-05T22:39:41;1895159;42.329;13.385;10;INGV-CNT_Seismic_Bulletin;NF;;3.9;EMSC-CSEM;3.5;INGV-CNT_Seismic_Bulletin;IT;AQK;00;HN;0;Close to structure;Tunnel;Building basement;42.344967;13.400949;726;NO;vs_profile;B;705;2.2075608716;36.5361176502809;;;0;E;N;Z;manual (Paolucci et al 2011);-16.891701;-18.072094;-19.397266;0.25;0.25;0.3;40;40;40;-14.376812;-17.588216;13.858008;-0.200078;0.374098;-0.187068;4.47;5.175;5.77;0.0883665024035;0.122572507978;0.0768628453527;45.518;28.3574;10.8704;14.1237;3.01833;0.771171;0.219846;0.066984;0.032194;89.5466;34.8183;16.9881;10.7744;3.41541;1.3035;0.311672;0.150647;0.066601;44.2342;20.3441;10.836;11.9883;3.2812;1.04138;0.110977;0.070438;0.024076;brevi manu (DPC)
IT-2009-0009;2009-04-06T01:32:40;1895389;42.342;13.38;8.3;INGV-CNT_Seismic_Bulletin;NF;Ameri_2009;;;6.1;INGV-CNT_Seismic_Bulletin;IT;AQK;00;HN;0;Close to structure;Tunnel;Building basement;42.344967;13.400949;726;NO;vs_profile;B;705;1.75745430831;79.1843109050387;0;4.44153892964866;0;E;N;Z;manual (Paolucci et al 2011);323.82019;-353.417908;366.284607;0.1;0.1;0.1;40;40;40;323.731938;-346.784278;355.459612;-32.217881;-35.797611;-20.070084;11.75;11.305;10.415;100.585266411;121.762937353;113.922623544;479.951;607.239;476.677;595.629;383.314;404.492;229.371;57.0871;17.5329;893.147;687.755;551.892;621.91;438.934;350.385;224.416;85.7349;26.16;978.451;594.068;763.671;412.943;400.86;423.252;52.4786;39.5366;15.8686;brevi manu (DPC)
IT-2009-0028;2009-04-06T02:27:46;1895799;42.366;13.319;8.3;INGV-CNT_Seismic_Bulletin;;;3.9;INGV-CNT_Seismic_Bulletin;;;IT;AQK;00;HN;0;Close to structure;Tunnel;Building basement;42.344967;13.400949;726;NO;vs_profile;B;705;7.14442865278;109.060209642252;;;0;E;N;Z;manual (Paolucci et al 2011);-16.371178;-27.571558;-19.186111;0.2;0.2;0.2;40;40;40;-15.241456;-26.675356;-15.603441;-0.393921;-0.377673;0.314822;5.585;4.615;7.095;0.124212559059;0.20631997406;0.145152579964;40.7292;37.363;19.5644;11.211;7.63208;2.62932;1.12555;0.378693;0.136295;94.1526;43.6894;26.5998;13.6468;8.2387;4.15302;0.608331;0.265112;0.095959;54.557;26.3134;39.8468;9.41324;8.13054;4.92336;0.374579;0.167858;0.055163;brevi manu (DPC)
IT-2009-0032;2009-04-06T02:37:04;1895879;42.36;13.328;8.7;INGV-CNT_Seismic_Bulletin;NF;None;4.6;INGV-CNT_Seismic_Bulletin;5.1;RCMT-INGV;IT;AQK;00;HN;0;Close to structure;Tunnel;Building basement;42.344967;13.400949;726;NO;vs_profile;B;705;6.23806806339;105.502271706489;4.00873916282;7.56242262450918;0;E;N;Z;manual (Paolucci et al 2011);52.998409;-78.205772;52.941311;0.08;0.08;0.08;40;40;40;48.937067;-78.811111;49.368257;2.408375;-1.878857;1.279233;8.695;5.69;11.315;1.82185194413;3.09484678683;1.45760450138;133.068;152.003;69.6311;57.72;35.0638;21.0343;7.31271;2.16976;0.583187;224.4;264.087;61.307;66.5419;40.2018;21.3169;5.31499;1.2035;0.582881;112.494;145.575;58.9558;32.1021;44.2938;24.6532;2.78852;0.7884;0.389453;brevi manu (DPC)
IT-2009-0047;2009-04-06T03:56:45;1896349;42.335;13.386;9.3;INGV-CNT_Seismic_Bulletin;NF;None;4.1;INGV-CNT_Seismic_Bulletin;4.5;Pondrelli_et_al_2002_dataset;IT;AQK;00;HN;0;Close to structure;Tunnel;Building basement;42.344967;13.400949;726;NO;vs_profile;B;705;1.65631347768;48.0487898472272;0.62831355656;7.68649345408137;0;E;N;Z;manual (Paolucci et al 2011);-48.856781;70.613899;-35.812874;0.15;0.15;0.15;40;40;40;-47.530687;69.298345;32.888569;1.069355;1.220634;-0.67292;3.84;3.91;5.08;1.06787017244;1.70043760082;0.737740508627;134.44;163.502;62.8679;34.1837;12.2997;7.00834;4.97823;1.07615;0.325714;249.977;219.893;68.5881;32.6908;12.225;8.27345;1.58962;0.655116;0.256886;78.5445;100.848;53.19;24.857;10.2436;6.69508;1.03892;0.749959;0.239339;brevi manu (DPC)
IT-2009-0051;2009-04-06T04:47:53;1896699;42.356;13.356;9.1;INGV-CNT_Seismic_Bulletin;NF;;3.9;EMSC-CSEM;3.8;INGV-CNT_Seismic_Bulletin;IT;AQK;00;HN;0;Close to structure;Tunnel;Building basement;42.344967;13.400949;726;NO;vs_profile;B;705;3.90106041673;108.294807863113;;;0;E;N;Z;manual (Paolucci et al 2011);24.184614;19.719435;-17.840143;0.1;0.1;0.1;40;40;40;22.846238;19.387208;-14.080109;0.586962;-0.354545;0.267227;4.155;4.975;6.675;0.134817489199;0.158838617601;0.0988290791027;108.879;44.5413;12.1539;14.5727;10.6716;3.6005;1.4055;0.440528;0.157198;85.2498;46.4631;11.6761;8.92774;6.64518;2.23321;0.466285;0.14689;0.062029;33.3529;30.2453;9.25548;13.0857;8.74405;3.68297;0.38634;0.169935;0.059458;brevi manu (DPC)
IT-2009-0067;2009-04-06T10:12:35;1898779;42.317;13.384;9.7;INGV-CNT_Seismic_Bulletin;NF;;3.4;EMSC-CSEM;3.6;INGV-CNT_Seismic_Bulletin;IT;AQK;00;HN;0;Close to structure;Tunnel;Building basement;42.344967;13.400949;726;NO;vs_profile;B;705;3.40619844373;24.2064269585488;;;0;E;N;Z;manual (Paolucci et al 2011);-10.481754;-14.739047;-11.868175;0.15;0.15;0.15;40;40;40;8.643364;13.203633;-6.441329;0.23408;0.353028;-0.142375;6.94;5.145;9.46;0.0362764378069;0.072909840144;0.0272129808102;41.457;18.0263;5.70521;5.87033;4.46243;1.85468;0.566749;0.15566;0.061088;65.0629;34.6117;8.17511;8.66748;5.4537;2.14863;0.503678;0.235269;0.088141;16.9848;13.828;6.52336;7.56237;5.42783;2.21452;0.139613;0.073783;0.029135;brevi manu (DPC)
IT-2009-0068;2009-04-06T10:36:18;1898919;42.338;13.402;9.9;INGV-CNT_Seismic_Bulletin;;;3.5;INGV-CNT_Seismic_Bulletin;;;IT;AQK;00;HN;0;Close to structure;Tunnel;Building basement;42.344967;13.400949;726;NO;vs_profile;B;705;0.77872506839;353.614762069549;;;0;E;N;Z;manual (Paolucci et al 2011);-18.556152;32.365971;-20.416096;0.2;0.2;0.2;40;40;40;17.042204;31.126457;-13.822693;-0.380784;-0.359275;0.220278;2.605;3.125;4.35;0.112518772123;0.189799399453;0.0869937896904;65.7556;47.0663;9.22095;4.8413;3.99415;1.40766;0.424052;0.17312;0.063619;128.601;39.6242;7.65684;7.25282;8.6169;2.31212;0.46544;0.151945;0.052172;40.0181;31.9738;8.30954;5.015;6.62243;1.40494;0.170569;0.093584;0.03514;brevi manu (DPC)
IT-2009-0077;2009-04-06T16:38:09;1901099;42.363;13.339;10;INGV-CNT_Seismic_Bulletin;NF;;4.5;EMSC-CSEM;4.3;INGV-CNT_Seismic_Bulletin;IT;AQK;00;HN;0;Close to structure;Tunnel;Building basement;42.344967;13.400949;726;NO;vs_profile;B;705;5.48297662786;111.407165040047;;;0;E;N;Z;manual (Paolucci et al 2011);-27.10552;-33.976662;22.080549;0.1;0.1;0.1;40;40;40;-25.942117;-31.685793;21.171836;0.611007;0.529388;-0.452174;4.91;4.4;7.795;0.358124735795;0.643288472878;0.328428267531;95.4982;76.2221;31.4282;13.2256;12.4096;4.75288;1.92262;0.596105;0.189101;128.459;116.515;30.6361;15.2;13.8631;3.50734;1.00137;0.306203;0.120159;74.6175;60.9894;54.4471;18.7554;13.2331;5.84725;0.694642;0.23402;0.11293;brevi manu (DPC)
IT-2009-0081;2009-04-06T21:56:53;1903209;42.384;13.342;10;INGV-CNT_Seismic_Bulletin;NF;;;;3.7;INGV-CNT_Seismic_Bulletin;IT;AQK;00;HN;0;Close to structure;Tunnel;Building basement;42.344967;13.400949;726;NO;vs_profile;B;705;6.5099836516;131.741001156284;;;0;E;N;Z;manual (Paolucci et al 2011);-11.884309;-18.831902;-16.129858;0.15;0.15;0.15;40;40;40;-10.154773;-18.071114;-11.298879;-0.376146;-0.415231;0.298976;7.135;6.235;11.185;0.0939715734923;0.170837398792;0.0736813821644;27.17;32.0442;17.7427;19.3424;14.2969;3.00361;0.645782;0.25148;0.082356;46.4601;47.6066;24.6996;19.6476;23.042;4.54393;1.04461;0.225526;0.099919;16.4806;25.5043;18.3423;17.7817;9.69946;3.06557;0.361127;0.142991;0.051722;brevi manu (DPC)
IT-2009-0083;2009-04-06T22:47:14;1903619;42.326;13.303;10.2;INGV-CNT_Seismic_Bulletin;NF;;4.1;USGS-webservice;3.6;INGV-CNT_Seismic_Bulletin;IT;AQK;00;HN;0;Close to structure;Tunnel;Building basement;42.344967;13.400949;726;NO;vs_profile;B;705;8.34279309292;75.3394264991279;;;0;E;N;Z;manual (Paolucci et al 2011);-10.093584;-11.654201;-11.576346;0.2;0.2;0.2;40;40;40;-8.581806;-10.807946;-6.838077;0.316072;0.27606;0.158123;6.615;6.25;8.29;0.0382720380765;0.0429203791863;0.0291315196779;17.6083;26.6965;14.3429;10.6159;8.35114;2.16374;0.33848;0.140703;0.060829;23.9317;17.3432;12.3833;9.10456;7.65187;1.3004;0.368866;0.165627;0.066079;15.9177;21.1743;14.6371;6.48306;6.33659;1.79529;0.178114;0.078008;0.031351;brevi manu (DPC)
IT-2009-0084;2009-04-06T23:15:36;1903809;42.463;13.385;9.7;INGV-CNT_Seismic_Bulletin;NF;None;5;INGV-CNT_Seismic_Bulletin;5.1;Pondrelli_et_al_2002_dataset;IT;AQK;00;HN;0;Close to structure;Tunnel;Building basement;42.344967;13.400949;726;NO;vs_profile;B;705;13.17681896343;174.275928579624;11.23388933696;15.2657603328108;0;E;N;Z;manual (Paolucci et al 2011);35.09972;-40.627369;-29.626751;0.1;0.1;0.1;40;40;40;34.262397;-40.294299;-29.781915;-1.657697;2.371247;1.447706;14.395;11.495;12.91;0.773593476724;1.4402852209;1.00693875517;88.3203;62.7678;76.3396;44.3512;28.6514;25.5374;9.01128;2.21163;0.713345;120.451;63.6085;59.4741;91.3105;55.105;44.5296;13.0566;3.19135;0.875585;66.0538;65.326;58.2255;35.204;30.0681;39.244;2.94715;1.32344;0.476729;brevi manu (DPC)
IT-2009-0094;2009-04-07T09:24:56;1906349;42.343;13.391;9.5;INGV-CNT_Seismic_Bulletin;;;3.7;INGV-CNT_Seismic_Bulletin;;;IT;AQK;00;HN;0;Close to structure;Tunnel;Building basement;42.344967;13.400949;726;NO;vs_profile;B;705;0.84844430048;75.0734868122371;;;0;E;N;Z;manual (Paolucci et al 2011);-23.186131;-27.14978;-18.813843;0.1;0.1;0.1;40;40;40;19.666985;-23.86145;13.093284;0.303003;0.259237;-0.18134;3.43;3.38;4.32;0.17622613886;0.307601005023;0.11510999391;76.8656;44.7479;15.6404;5.29953;2.43094;1.01978;0.643505;0.200031;0.065583;149.939;45.8982;7.71372;5.52284;3.13432;0.971757;0.332728;0.132562;0.053758;43.5576;31.1688;10.4892;5.67467;1.99379;1.77487;0.2132;0.146233;0.05516;brevi manu (DPC)
IT-2009-0095;2009-04-07T09:26:28;1906339;42.336;13.387;9.6;INGV-CNT_Seismic_Bulletin;NF;None;4.8;INGV-CNT_Seismic_Bulletin;5.1;Pondrelli_et_al_2002_dataset;IT;AQK;00;HN;0;Close to structure;Tunnel;Building basement;42.344967;13.400949;726;NO;vs_profile;B;705;1.52101345068;49.086138374433;0;7.3428530951968;0;E;N;Z;manual (Paolucci et al 2011);51.378201;65.568916;67.624092;0.07;0.07;0.07;40;40;40;47.332812;63.26246;63.0625;-1.730435;2.924781;-1.624715;6.825;6.57;7.55;1.82280348227;2.33328587304;1.82459313636;120.022;159.605;105.417;65.937;31.8238;18.7402;9.5982;2.02081;0.565748;201.296;133.625;81.3197;79.3257;34.519;12.1867;15.3133;4.94927;1.32447;169.795;89.6665;97.555;61.6629;42.3189;16.97;3.99771;2.31338;1.05244;brevi manu (DPC)
IT-2009-0097;2009-04-07T09:30:56;1906359;42.339;13.384;9;Chiaraluce_et_al_2011;NF;;3.8;INGV-CNT_Seismic_Bulletin;;;IT;AQK;00;HN;0;Close to structure;Tunnel;Building basement;42.344967;13.400949;726;NO;vs_profile;B;705;1.54598691346;64.6071808750015;;;0;E;N;Z;manual (Paolucci et al 2011);-14.811718;-19.307716;-11.568395;0.2;0.2;0.2;40;40;40;-11.432309;-17.378806;8.91762;0.348939;-0.287785;0.137007;4.22;4.685;7.545;0.0495675480602;0.0735752822208;0.0361794153203;31.0563;29.9972;9.87302;6.19588;4.00184;1.71294;0.716124;0.193835;0.066241;67.0527;25.1016;12.456;7.12957;2.94611;1.1768;0.231437;0.118867;0.053492;19.1109;24.374;6.67145;4.2837;4.05302;1.91772;0.136215;0.068809;0.032841;brevi manu (DPC)
IT-2009-0102;2009-04-07T17:47:37;1908319;42.303;13.486;17.1;INGV-CNT_Seismic_Bulletin;NF;Gallovic_et_al_2014;5.4;INGV-CNT_Seismic_Bulletin;5.5;Pondrelli_et_al_2002_dataset;IT;AQK;00;HN;0;Close to structure;Tunnel;Building basement;42.344967;13.400949;726;NO;vs_profile;B;705;8.41907940766;303.650110246602;4.96550218994;14.6279186033286;0;E;N;Z;manual (Paolucci et al 2011);89.064407;81.118111;-54.520779;0.1;0.1;0.1;40;40;40;88.424151;80.373222;-54.002797;-6.952264;-4.744255;-4.523577;13.59;12.22;13.125;5.82036852496;6.88799677687;4.89824897903;102.221;165.267;169.427;136.218;144.078;67.2251;47.8426;12.1357;3.83524;129.485;215.711;227.472;204.52;123.445;78.6914;17.4691;6.17203;1.66366;98.7821;120.022;124.162;184.998;121.299;92.7957;8.23279;4.08461;1.36557;brevi manu (DPC)
IT-2009-0105;2009-04-07T21:34:29;1909629;42.372;13.374;7.2;Chiaraluce_et_al_2011;NF;None;4.3;INGV-CNT_Seismic_Bulletin;4.5;Pondrelli_et_al_2002_dataset;IT;AQK;00;HN;0;Close to structure;Tunnel;Building basement;42.344967;13.400949;726;NO;vs_profile;B;705;3.73445513298;143.513236775841;2.74585890828;7.18020845177853;0;E;N;Z;manual (Paolucci et al 2011);-104.629501;148.974899;81.279823;0.1;0.1;0.1;40;40;40;-99.485052;150.052859;79.500279;-2.172617;-6.218974;1.64763;4.055;4.34;7.095;2.25557433212;4.29954131092;2.20232402906;267.61;210.226;108.86;64.6425;43.6325;18.8494;4.36555;1.29749;0.45791;360.846;229.358;285.684;199.514;107.788;29.4294;9.00776;3.764;1.28994;197.842;133.11;115.898;55.5939;67.0896;15.8952;1.86486;0.964246;0.440556;brevi manu (DPC)
IT-2009-0119;2009-04-08T22:56:50;1916229;42.497;13.367;10.8;INGV-CNT_Seismic_Bulletin;NF;;4.1;EMSC-CSEM;4.1;Pondrelli_et_al_2002_dataset;IT;AQK;00;HN;0;Close to structure;Tunnel;Building basement;42.344967;13.400949;726;NO;vs_profile;B;705;17.11762462771;170.594203572382;;;0;E;N;Z;manual (Paolucci et al 2011);8.050143;-7.413694;-6.405448;0.15;0.15;0.15;40;40;40;7.801871;-7.214823;-6.279353;0.212082;0.26927;0.235025;7.735;8.945;11.33;0.0352736412561;0.0578767020865;0.0428386181041;18.6035;15.2801;14.6963;10.4694;7.20396;3.2886;0.565579;0.151367;0.05797;17.9252;20.5028;13.0578;19.8539;7.46141;2.01953;0.487613;0.167362;0.055376;10.3246;16.5812;16.8252;14.5821;10.3991;2.61925;0.24292;0.128522;0.050359;brevi manu (DPC)
IT-2009-0121;2009-04-09T00:52:59;1916789;42.489;13.351;11;INGV-CNT_Seismic_Bulletin;NF;None;5.1;INGV-CNT_Seismic_Bulletin;5.4;Pondrelli_et_al_2002_dataset;IT;AQK;00;HN;0;Close to structure;Tunnel;Building basement;42.344967;13.400949;726;NO;vs_profile;B;705;16.51914486977;165.572260397958;13.51337228737;17.8362150642965;0;E;N;Z;manual (Paolucci et al 2011);-40.27866;-49.295441;33.02916;0.06;0.06;0.06;40;40;40;-39.916168;-48.805924;32.819447;-3.382769;4.139116;2.180552;16.335;14.55;13.465;1.95265141022;2.48139131156;1.92426031531;109.517;112.787;71.423;86.3581;43.5406;44.1875;30.5245;6.09903;1.95568;135.338;99.2514;69.8332;69.4957;68.8005;51.5048;30.6731;6.76262;2.52333;94.6676;74.1164;107.431;64.6813;56.2774;51.5677;7.61349;2.04831;0.929641;brevi manu (DPC)
IT-2009-0127;2009-04-09T03:14:52;1917479;42.337;13.451;14.6;Chiaraluce_et_al_2011;SS;;4.8;EMSC-CSEM;4.4;Pondrelli_et_al_2002_dataset;IT;AQK;00;HN;0;Close to structure;Tunnel;Building basement;42.344967;13.400949;726;NO;vs_profile;B;705;4.21842419908;282.126767715585;;;0;E;N;Z;manual (Paolucci et al 2011);-10.55291;12.90234;8.100507;0.12;0.12;0.12;35;35;35;10.131616;12.42456;-7.980303;-0.731841;-0.706886;0.561832;10.555;11.16;13.46;0.105581765153;0.136674522769;0.125785014693;20.6706;24.848;15.2843;18.0772;16.7019;6.44548;2.84267;0.669786;0.237791;30.1618;27.6743;19.373;23.3163;15.843;4.93316;1.14724;0.491076;0.199358;19.0991;19.4355;17.4929;17.2984;35.3384;5.93435;0.836033;0.315087;0.102781;brevi manu (DPC)
IT-2009-0130;2009-04-09T04:32:45;1917839;42.457;13.441;7.7;Chiaraluce_et_al_2011;NF;;4.7;EMSC-CSEM;4.3;Pondrelli_et_al_2002_dataset;IT;AQK;00;HN;0;Close to structure;Tunnel;Building basement;42.344967;13.400949;726;NO;vs_profile;B;705;12.87416635345;194.853514665886;;;0;E;N;Z;manual (Paolucci et al 2011);-14.0423;16.9884;-7.656353;0.1;0.1;0.1;40;40;40;-14.04946;15.994804;7.569885;-0.954269;0.66609;0.64909;9.805;10.63;12.25;0.139877793012;0.142043402375;0.102876941637;40.161;33.9805;18.1714;25.934;30.5806;7.41024;1.98715;0.571777;0.219082;32.4056;30.2329;19.1076;15.6632;29.7189;7.59107;1.81369;0.542823;0.175128;21.4455;24.5617;16.5163;12.4851;20.8904;14.2138;1.12185;0.409459;0.124872;brevi manu (DPC)
IT-2009-0132;2009-04-09T04:43:09;1917909;42.508;13.378;7.6;Chiaraluce_et_al_2011;NF;;4.2;EMSC-CSEM;3.7;INGV-CNT_Seismic_Bulletin;IT;AQK;00;HN;0;Close to structure;Tunnel;Building basement;42.344967;13.400949;726;NO;vs_profile;B;705;18.20817114985;174.038699097419;;;0;E;N;Z;manual (Paolucci et al 2011);-3.029829;-2.779566;-5.49424;0.2;0.2;0.2;40;40;40;2.024907;-2.256346;-1.716381;0.077728;0.062895;-0.062126;13.975;16.75;17.19;0.00347096641725;0.00423575358652;0.00290705124976;5.60256;6.44322;3.76181;1.71967;2.61015;1.38195;0.323323;0.089326;0.031725;6.11956;5.02691;2.53702;3.17144;1.75836;0.664688;0.268459;0.059738;0.01955;4.22467;5.37645;2.49754;2.70249;1.7883;1.09597;0.1255;0.050583;0.016097;brevi manu (DPC)
IT-2009-0137;2009-04-09T13:19:33;1920169;42.341;13.259;9.7;INGV-CNT_Seismic_Bulletin;NF;;4;USGS-webservice;3.8;INGV-CNT_Seismic_Bulletin;IT;AQK;00;HN;0;Close to structure;Tunnel;Building basement;42.344967;13.400949;726;NO;vs_profile;B;705;11.70551271146;87.7947852366841;;;0;E;N;Z;manual (Paolucci et al 2011);-26.816921;13.738525;-17.051411;0.15;0.15;0.15;40;40;40;-23.845058;14.573536;-9.972726;0.690906;0.409246;0.312584;4.36;7.79;10.55;0.149951791808;0.120007449876;0.0791541890908;34.1783;74.96;16.9369;18.3965;13.5423;2.63955;0.60902;0.297834;0.118009;32.7085;44.5463;14.9033;10.687;10.4518;2.76081;0.663709;0.20212;0.085923;21.4135;32.1881;7.92134;10.507;10.9964;2.74761;0.319631;0.147758;0.053392;brevi manu (DPC)
IT-2009-0140;2009-04-09T19:38:16;1921649;42.504;13.35;9.3;INGV-CNT_Seismic_Bulletin;NF;None;5;INGV-CNT_Seismic_Bulletin;5.2;Pondrelli_et_al_2002_dataset;IT;AQK;00;HN;0;Close to structure;Tunnel;Building basement;42.344967;13.400949;726;NO;vs_profile;B;705;18.15642078108;166.630554540903;15.83019653917;18.9096349720867;0;E;N;Z;manual (Paolucci et al 2011);22.06118;-24.363609;-20.64925;0.1;0.1;0.1;40;40;40;21.795121;-23.769734;-20.450251;0.85176;0.979384;-0.693925;12.58;11.19;13.93;0.441593211975;0.664271237661;0.425885395607;57.5107;39.5121;54.0667;30.6534;23.0302;11.5953;5.66932;1.37112;0.501044;71.5937;53.1792;58.4294;45.9114;32.2629;13.1703;4.49627;1.61376;0.633876;35.3653;53.08;68.6943;39.0527;19.7156;12.4204;1.92049;0.69859;0.355876;brevi manu (DPC)
IT-2009-0145;2009-04-09T22:40:06;1922489;42.488;13.316;9.8;Chiaraluce_et_al_2011;NF;;3.6;USGS-webservice;3.6;INGV-CNT_Seismic_Bulletin;IT;AQK;00;HN;0;Close to structure;Tunnel;Building basement;42.344967;13.400949;726;NO;vs_profile;B;705;17.3587516263;156.218354558479;;;0;E;N;Z;manual (Paolucci et al 2011);-3.580282;-2.839453;-6.590235;0.2;0.2;0.2;40;40;40;-1.856911;2.998091;-1.794824;-0.058673;-0.060202;0.053721;9.665;8.585;12.345;0.00362705923607;0.0054035477488;0.00399963196692;7.24788;4.46704;3.29869;3.48857;1.25787;0.872398;0.258775;0.04539;0.01704;8.87775;4.94871;3.11517;3.41981;1.14221;0.613974;0.13333;0.036867;0.01183;5.30182;5.17222;4.03962;3.07356;1.4225;0.661193;0.063686;0.024841;0.00881;brevi manu (DPC)
