esm_event_id;event_time;ingv_event_id;ev_latitude;ev_longitude;ev_depth_km;ev_hyp_ref;fm_type_code;fm_ref;ml;ml_ref;mw;mw_ref;network_code;station_code;location_code;channel_code;sensor_depth_m;proximity;housing;installation;st_latitude;st_longitude;st_elevation;reference_site;preferred_estimation_method_vs30_ec8;preferred_ec8_code;preferred_vs30_m_s;epi_dist;epi_az;jb_dist;rup_dist;late_triggered_event_01;u_channel_code;v_channel_code;w_channel_code;processing_type;u_un_pga;v_un_pga;w_un_pga;u_hp;v_hp;w_hp;u_lp;v_lp;w_lp;u_pga;v_pga;w_pga;u_pgv;v_pgv;w_pgv;u_t90;v_t90;w_t90;u_ia;v_ia;w_ia;u_t0_050;u_t0_100;u_t0_200;u_t0_300;u_t0_500;u_t1_000;u_t2_000;u_t3_000;u_t5_000;v_t0_050;v_t0_100;v_t0_200;v_t0_300;v_t0_500;v_t1_000;v_t2_000;v_t3_000;v_t5_000;w_t0_050;w_t0_100;w_t0_200;w_t0_300;w_t0_500;w_t1_000;w_t2_000;w_t3_000;w_t5_000;original_data_mediator
EMSC-20170118_0000027;2017-01-18T09:25:41;12695491;42.56521;13.29803;8.657;Spallarossa_et_al_2021;NF;None;5.37;Spallarossa_et_al_2021;5.1;TDMT-INGV;IT;AQK;00;HG;0;Close to structure;Tunnel;Building basement;42.344967;13.400949;726;NO;vs_profile;B;705;25.88841869066;160.877577825997;22.56512384578;24.4068485033317;0;E;N;Z;manual (Paolucci et al 2011);15.016477;23.058594;-16.866928;0.06;0.06;0.06;30;30;30;14.254703;21.705854;-16.804232;0.943526;1.385902;-0.653845;21.6;21.005;22.315;0.339983878658;0.601817141976;0.368717858988;28.3063;48.2267;31.5408;30.0738;28.1102;10.6527;5.42914;1.46794;0.390947;54.5675;75.6015;36.956;37.52;40.236;18.705;6.19806;1.40203;0.50039;29.8662;48.0474;57.0903;23.4096;18.5868;14.1401;1.86689;0.641357;0.205055;http://www.mot1.it/randownload/
EMSC-20170118_0000034;2017-01-18T10:14:10;12697591;42.55935;13.29105;9.307;Spallarossa_et_al_2021;NF;Cheloni_2019_SRCMOD;5.36;Spallarossa_et_al_2021;5.5;TDMT-INGV;IT;AQK;00;HG;0;Close to structure;Tunnel;Building basement;42.344967;13.400949;726;NO;vs_profile;B;705;25.47236785473;159.174791605948;14.55605230943;16.9774214330159;0;E;N;Z;manual (Paolucci et al 2011);-21.67161;-24.564754;21.739826;0.07;0.07;0.07;50;50;50;-21.517894;-24.46504;21.736067;1.21095;-2.596901;-1.838556;22.795;19.41;22.315;0.893981620441;1.62929422226;0.929366922534;40.5772;65.5002;50.7448;36.4046;46.3992;30.3493;14.3757;2.0468;0.901911;62.9716;76.4603;66.2938;61.3592;43.3261;29.7665;22.4425;4.32668;1.48666;33.8394;52.1041;49.9899;47.2411;46.5503;24.1304;4.59393;2.00969;0.79746;http://www.mot1.it/randownload/
EMSC-20170118_0000037;2017-01-18T10:25:24;12698071;42.53115;13.29272;8.63;Spallarossa_et_al_2021;NF;None;5.34;Spallarossa_et_al_2021;5.4;TDMT-INGV;IT;AQK;00;HG;0;Close to structure;Tunnel;Building basement;42.344967;13.400949;726;NO;vs_profile;B;705;22.51725123386;156.667644640652;17.35160272087;19.832817208635;0;E;N;Z;manual (Paolucci et al 2011);-37.964581;-55.131042;-38.872536;0.1;0.1;0.1;30;30;30;-37.931267;52.209129;-37.840337;3.867709;-4.166954;2.596346;16.41;15.15;19.425;2.75499162084;3.82924509989;2.19486134711;65.1468;98.3458;59.905;56.4165;95.8385;46.6144;20.3842;3.83674;1.6515;114.063;111.64;83.6216;91.203;121.449;44.6525;17.038;4.87591;2.18558;76.1315;98.9569;84.7225;61.0337;79.5174;43.0687;7.21403;2.20117;0.975101;http://www.mot1.it/randownload/
EMSC-20170118_0000051;2017-01-18T10:16:40;12697681;42.55676;13.28189;9.013;Spallarossa_et_al_2021;;;4.11;Spallarossa_et_al_2021;;;IT;AQK;00;HG;0;Close to structure;Tunnel;Building basement;42.344967;13.400949;726;NO;vs_profile;B;705;25.48366666046;157.357526403722;;;0;E;N;Z;manual (Paolucci et al 2011);-13.674598;-13.477857;-12.33901;0.1;0.1;0.1;30;30;30;-13.042313;-12.407559;-12.211755;-0.423535;0.599032;-0.324086;11.015;10.145;13.43;0.109939255353;0.133632283021;0.112162503141;17.5531;49.4321;24.4466;19.1535;17.285;7.05565;2.26423;0.440763;0.138049;25.3339;36.7465;17.1531;21.3561;18.1054;4.22135;1.88393;0.488824;0.181227;17.798;36.2128;27.4767;18.0946;11.064;5.26451;0.571774;0.254097;0.082636;http://www.mot1.it/randownload/
EMSC-20170118_0000119;2017-01-18T13:33:37;12707401;42.49355;13.2747;10.558;Spallarossa_et_al_2021;NF;None;5.43;Spallarossa_et_al_2021;5;TDMT-INGV;IT;AQK;00;HG;0;Close to structure;Tunnel;Building basement;42.344967;13.400949;726;NO;vs_profile;B;705;19.50330928345;147.764239881768;14.93239124862;17.0350012170339;0;E;N;Z;manual (Paolucci et al 2011);15.57489;-24.141228;-13.354771;0.07;0.07;0.07;30;30;30;15.142971;-23.577776;-12.709288;-0.897719;-0.965912;0.725357;17.065;19.865;16.975;0.406381345265;0.480591225402;0.348798525387;40.3801;61.0574;45.1669;26.2706;26.6634;10.3522;5.54059;1.11965;0.272708;57.6616;50.6837;38.484;32.2823;29.1783;8.08679;5.57013;1.28975;0.332848;30.7224;34.8954;38.8497;45.3324;37.4595;8.66488;0.999282;0.457598;0.185887;http://www.mot1.it/randownload/
EMSC-20170118_0000154;2017-01-18T15:16:11;12712641;42.61452;13.29747;4.706;Spallarossa_et_al_2021;NF;;4.23;Spallarossa_et_al_2021;4.3;TDMT-INGV;IT;AQK;00;HG;0;Close to structure;Tunnel;Building basement;42.344967;13.400949;726;NO;vs_profile;B;705;31.12809627497;164.101811781839;;;0;E;N;Z;manual (Paolucci et al 2011);-2.220879;-2.542446;-2.344737;0.1;0.1;0.1;30;30;30;-2.207347;-2.544657;-2.303115;-0.14592;0.233658;0.177546;19.81;15.435;19.575;0.00658110932216;0.0147582211704;0.0101752480149;2.79831;4.82277;3.33441;5.17424;7.02851;1.9972;0.773174;0.248991;0.056964;4.72834;4.35508;4.65729;5.60073;6.21873;3.19506;1.02331;0.273368;0.06777;2.71479;4.86238;3.98089;6.18644;7.41114;2.31918;0.278061;0.120268;0.040247;http://www.mot1.it/randownload/
EMSC-20170118_0000199;2017-01-18T19:32:32;12723601;42.60063;13.23754;9.901;Spallarossa_et_al_2021;NF;;4.47;Spallarossa_et_al_2021;4.2;TDMT-INGV;IT;AQK;00;HG;0;Close to structure;Tunnel;Building basement;42.344967;13.400949;726;NO;vs_profile;B;705;31.41842138371;154.622683485109;;;0;E;N;Z;manual (Paolucci et al 2011);2.474557;3.487909;-2.895763;0.1;0.1;0.1;30;30;30;2.418838;3.35645;-2.346162;-0.116887;0.181277;-0.109147;16.165;15.235;19.47;0.00830851444728;0.0158114208048;0.00938639865874;6.89661;6.19448;4.05939;3.80545;4.07844;1.49221;0.405332;0.102842;0.037219;9.73323;6.15697;5.84718;6.28696;5.55021;2.58304;0.476455;0.15998;0.055059;5.17131;5.74409;4.89012;3.8956;3.89051;1.24198;0.166695;0.078633;0.025119;http://www.mot1.it/randownload/
EMSC-20170220_0000016;2017-02-20T03:13:31;13708811;42.51017;13.25519;6.196;Spallarossa_et_al_2021;NF;;3.95;Spallarossa_et_al_2021;3.9;TDMT-INGV;IT;AQK;00;HG;0;Close to structure;Tunnel;Building basement;42.344967;13.400949;726;NO;vs_profile;B;705;21.92352260249;146.780333775293;;;0;E;N;Z;manual (Paolucci et al 2011);-2.177558;2.821321;2.272443;0.15;0.15;0.15;30;30;30;-2.182746;2.821478;2.255627;-0.237204;0.195021;-0.163812;16.02;15.375;17.49;0.0092705346488;0.011181993239;0.00959768224449;3.46763;3.57775;3.92286;5.00659;8.00009;3.2535;0.457754;0.185374;0.058756;4.43713;5.06392;5.39708;6.57884;11.4893;2.18521;0.434417;0.100939;0.032715;2.80461;4.08345;6.53145;6.72534;4.14289;3.43928;0.274897;0.140238;0.035551;http://www.mot1.it/randownload/
EMSC-20170905_0000022;2017-09-05T04:34:21;16959571;42.5435;13.3328;13.6;INGV-BULLETIN;NF;;3.9;EMSC-CSEM;3.7;TDMT-INGV;IT;AQK;00;HG;0;Close to structure;Tunnel;Building basement;42.344967;13.400949;726;NO;vs_profile;B;705;22.75498199969;165.712599772335;;;0;E;N;Z;manual (Paolucci et al 2011);-3.658622;4.600692;3.029742;0.2;0.2;0.2;40;40;40;-3.470905;4.199738;2.8605;-0.042822;-0.057946;0.039533;8.81;9.07;15.54;0.00578650949367;0.00714852973444;0.0051358457764;11.6446;8.4658;2.34749;1.11251;1.59189;0.776754;0.21734;0.0447;0.013828;10.8215;8.38384;2.2929;1.33127;1.21529;0.808895;0.154435;0.044141;0.011114;8.30101;6.02269;2.63656;1.5795;1.15636;0.598381;0.073469;0.026572;0.009878;http://www.mot1.it/randownload/
EMSC-20171203_0000085;2017-12-03T23:34:11;17769831;42.6242;13.3252;7.6;INGV-BULLETIN;NF;;4.2;INGV-BULLETIN;4;TDMT-INGV;IT;AQK;00;HG;0;Close to structure;Tunnel;Building basement;42.344967;13.400949;726;NO;vs_profile;B;705;31.63702881637;168.621088799952;;;0;E;N;Z;manual (Paolucci et al 2011);2.242102;1.784781;2.217428;0.1;0.1;0.1;30;30;30;2.234084;1.780853;2.2087;0.208473;-0.217518;-0.278012;18.32;20.895;18.785;0.00879789153742;0.0122434186173;0.0131160897509;2.33257;2.58592;5.61224;4.76959;3.83062;3.27974;1.79031;0.321248;0.087266;2.07936;2.67121;5.55687;6.99195;5.98833;4.79199;1.01287;0.345414;0.07857;2.25551;2.4403;4.31254;3.92343;8.40201;4.72465;0.534985;0.207307;0.081736;http://www.mot1.it/randownload/
EMSC-20180331_0000004;2018-03-31T01:18:44;18562301;42.3528;13.4697;18.8;INGV-BULLETIN;NF;;3.9;EMSC-CSEM;3.8;TDMT-INGV;IT;AQK;00;HG;0;Close to structure;Tunnel;Building basement;42.344967;13.400949;726;NO;vs_profile;B;705;5.73128347707;261.291082216056;;;0;E;N;Z;manual (Paolucci et al 2011);8.662333;10.755017;6.71584;0.15;0.15;0.15;40;40;40;8.3108;10.690359;6.801844;0.161602;-0.171969;0.185011;7.58;9.28;10.835;0.0428724520525;0.0590976863178;0.0448934964639;27.0878;22.5657;9.76326;8.51775;3.89046;1.78498;0.305936;0.10949;0.034032;33.3146;27.6464;11.4631;9.58757;4.21551;1.29102;0.286668;0.108319;0.032387;15.7814;23.3134;9.431;10.9031;6.46504;1.45723;0.133775;0.056028;0.025082;http://www.mot1.it/randownload/
EMSC-20201221_0000006;2020-12-21T01:22:58;25821381;43.12;13.52;29;EMSC-CSEM;;;3.6;EMSC-CSEM;;;IT;AQK;00;HN;0;Close to structure;Tunnel;Building basement;42.344967;13.400949;726;NO;vs_profile;B;705;86.64672901798;186.501078236466;;;0;E;N;Z;manual (Paolucci et al 2011);0.075105;-0.069399;-0.068355;0.2;0.2;0.2;40;40;40;0.07296;-0.068752;-0.065168;0.003895;-0.004326;0.004637;30.185;31.835;33.195;9.21843759414e-06;1.22346126256e-05;1.14899453748e-05;0.088744;0.123776;0.141698;0.192648;0.219662;0.038789;0.010513;0.003187;0.001079;0.085215;0.107046;0.181766;0.22721;0.145182;0.043496;0.012715;0.00295;0.00111;0.077344;0.103351;0.133596;0.189458;0.217862;0.071356;0.005562;0.002513;0.001082;http://www.mot1.it/randownload/
INT-20210716_0000068;2021-07-16T08:00:50;27575091;42.79;13.07;11;EMSC-CSEM;NF;;3.5;EMSC-CSEM;3.3;TDMT-INGV;IT;AQK;00;HN;0;Close to structure;Tunnel;Building basement;42.344967;13.400949;726;NO;vs_profile;B;705;56.41250684635;151.090930401188;;;0;E;N;Z;manual (Paolucci et al 2011);0.270118;0.310946;0.36224;0.25;0.25;0.25;40;40;40;0.268122025984;0.276974207625;0.356687347956;0.00604611485928;0.00604910532543;0.00602162233851;19.335;22.21;21.31;9.04731213411e-05;9.2124859466e-05;9.38037886663e-05;0.592901408672;1.1501750946;0.595943510532;0.283600389957;0.160927578807;0.0579825565219;0.0216896850616;0.00393927516416;0.00125705054961;0.648298144341;0.795901715755;0.533763766289;0.480794847012;0.220807939768;0.0648573413491;0.0196792799979;0.0052056889981;0.001548537286;0.656207084656;0.688442051411;0.691712141037;0.37725636363;0.186039447784;0.0636763945222;0.0066136829555;0.00245688762516;0.00111479975749;ran_download.it
INT-20220922_0000080;2022-09-22T10:24:50;32824731;42.79;13.61;24;EMSC-CSEM;SS;;4.1;EMSC-CSEM;3.9;TDMT-INGV;IT;AQK;00;HN;0;Close to structure;Tunnel;Building basement;42.344967;13.400949;726;NO;vs_profile;B;705;52.33142911486;199.218859640757;;;0;E;N;Z;manual (Paolucci et al 2011);0.403176;0.438129;0.474828;0.25;0.25;0.25;40;40;40;0.401178140338;0.433319756993;0.47026086876;0.0230554241896;0.0194891730577;0.0210747735777;26.425;24.195;29.815;0.000325896365136;0.000367699026976;0.000436104526807;0.751095712185;1.28414154053;0.594630300999;0.834636151791;0.705229878426;0.379594177008;0.117707110941;0.0188717972487;0.00699331285432;1.07934463024;1.28003752232;0.621051669121;0.762534737587;1.02481579781;0.309114247561;0.0750129669905;0.020037047565;0.00609846320003;1.09453856945;0.945860385895;0.789276123047;0.797592639923;0.940358459949;0.490170508623;0.0302562844008;0.011491348967;0.0046118889004;ran_download.it
INT-20221110_0000180;2022-11-10T18:45:39;33334041;43.18;13.51;21;EMSC-CSEM;;;3.6;EMSC-CSEM;;;IT;AQK;00;HN;0;Close to structure;Tunnel;Building basement;42.344967;13.400949;726;NO;vs_profile;B;705;93.19070120811;185.533587990255;;;0;E;N;Z;manual (Paolucci et al 2011);0.0619968;0.102814;0.090042;0.2;0.2;0.2;40;40;40;0.0602539406188;0.100912248762;0.0884569395299;0.00252942061872;0.0030799846469;0.00226939274342;35.285;34.545;36.335;9.78549092348e-06;1.22887529272e-05;1.21178991287e-05;0.162548556924;0.205086827278;0.138780653477;0.154709458351;0.0776069611311;0.0236395355314;0.00430562812835;0.00140271289274;0.000588795985095;0.180270433426;0.238689273596;0.199076905847;0.17225497961;0.0968968421221;0.0239956602454;0.00542307738215;0.0021519837901;0.000630759634078;0.133366137743;0.242037773132;0.197354644537;0.122153572738;0.094282142818;0.0376615002751;0.00357206934132;0.0013807193609;0.000644173996989;ran_download.it
INT-20231122_0000242;2023-11-22T16:52:42;36939691;42.3237;13.3627;9.4;INGV-BULLETIN;;;3.5;INGV-TERREMOTI;;;IT;AQK;00;HN;0;Close to structure;Tunnel;Building basement;42.344967;13.400949;726;NO;vs_profile;B;705;3.93925362135;53.1393750967609;;;0;E;N;Z;manual (Paolucci et al 2011);14.0486;17.0317;10.3754;0.2;0.2;0.2;40;40;40;13.1758562856;15.3470705803;9.31790767169;0.265751726355;0.208389839587;0.170253759735;4.76;5.125;7.11;0.0428706896308;0.0519337819296;0.0386438909428;36.1980438232;35.2656021118;12.9472665787;9.5593252182;3.6339468956;1.01419043541;0.351469606161;0.131327271461;0.0505016744137;35.5866088867;20.9942588806;13.2838811874;9.63946819305;4.86102485657;0.774549782276;0.164733543992;0.0768855661154;0.0321122966707;30.7038326263;21.5167007446;12.0222663879;7.07037115097;3.45756363869;1.01174926758;0.129341080785;0.0465484708548;0.0250768158585;ran_download.it
INT-36868511;2023-11-14T16:17:50;36868511;42.9958;13.5373;20.4;INGV-BULLETIN;TF;;4;EMSC-CSEM;3.9;INGV-TERREMOTI;IT;AQK;00;HN;0;Close to structure;Tunnel;Building basement;42.344967;13.400949;726;NO;vs_profile;B;705;73.15752819372;188.834661669725;;;0;E;N;Z;manual (Paolucci et al 2011);0.115775;0.172721;0.129007;0.2;0.2;0.2;30;30;30;0.104322329364;0.168049484782;0.122643963237;0.0116369752321;0.012168215252;0.0080315136137;34.515;37.03;39.66;4.97677890521e-05;6.72361098715e-05;5.04307222741e-05;0.215593263507;0.288049131632;0.186233401299;0.272492259741;0.275830864906;0.150161117315;0.0760837122798;0.0156665723771;0.0048639094457;0.296349138021;0.407405227423;0.312626957893;0.529797613621;0.317525237799;0.153646230698;0.118234589696;0.0201231949031;0.00652134837583;0.207744896412;0.438199371099;0.23378534615;0.285789728165;0.236222177744;0.193605944514;0.0278329346329;0.00818280130625;0.00284862471744;ran_download.it
INT-37167771;2023-12-16T20:16:49;37167771;42.9402;13.1238;9.9;INGV-BULLETIN;;;3.6;INGV-TERREMOTI;;;IT;AQK;00;HN;0;Close to structure;Tunnel;Building basement;42.344967;13.400949;726;NO;vs_profile;B;705;69.91940745686;160.935502821294;;;0;E;N;Z;manual (Paolucci et al 2011);0.277546;0.352032;0.24783;0.2;0.2;0.2;40;40;40;0.274455515471;0.34574310354;0.245748447866;0.00780768260477;0.00807278550241;0.00721214564541;16.69;14.655;21.285;7.40974786217e-05;0.000129265885908;8.64882947685e-05;0.766756772995;0.862740576267;0.402061998844;0.328812479973;0.149471238256;0.0896565616131;0.0309196300805;0.00597482547164;0.00185823661741;1.02941071987;1.20046281815;0.449829936028;0.300709486008;0.205059885979;0.110453046858;0.0246409196407;0.0060232244432;0.00178785086609;0.539517819881;0.777644217014;0.609759807587;0.277644783258;0.207283273339;0.0800419449806;0.00834050308913;0.003267649794;0.00134452152997;ran_download.it
IT-1997-0004;1997-09-26T00:33:11;848119;43.023;12.892;5.7;Chiaraluce_et_al_2004;NF;Hernandez_2004_SRCMOD;5.6;INGV-CNT_Seismic_Bulletin;5.7;Pondrelli_et_al_2002_dataset;IT;AQK;00;HN;0;Close to structure;Tunnel;Building basement;42.344967;13.400949;726;NO;vs_profile;B;705;86.09873105946;150.849598186185;78.47798863894;78.558254559926;0;E;N;Z;manual (Paolucci et al 2011);-6.47;-4.3;-4.05;0.1;0.1;0.1;25;25;25;-6.424555;-4.265814;-3.995486;0.965579;0.803473;-0.710838;35.115;32.11;30.41;0.135639886656;0.100440780887;0.0753958246332;6.57385;6.74834;7.93879;9.6543;9.62827;12.1206;6.49001;3.69872;1.01816;4.52052;5.0382;5.08015;8.3157;9.27781;9.8943;4.31661;2.34896;0.476086;4.04877;4.25585;7.25403;6.41482;8.67486;17.2728;1.9863;1.20202;0.871266;brevi manu (DPC)
IT-1997-0006;1997-09-26T09:40:24;849549;43.031;12.862;5.7;Chiaraluce_et_al_2004;NF;DISS3.1.1;5.8;INGV-CNT_Seismic_Bulletin;6;Pondrelli_et_al_2002_dataset;IT;AQK;00;HN;0;Close to structure;Tunnel;Building basement;42.344967;13.400949;726;NO;vs_profile;B;705;88.08271000639;149.72188448362;87.25663360787;87.6039588531986;0;E;N;Z;manual (Paolucci et al 2011);4.4;-4.05;-4.13;0.1;0.1;0.1;30;30;30;4.139194;-3.980608;-4.042334;0.613527;0.616042;-0.546439;51.985;46.465;36.62;0.0912462410952;0.114527058952;0.0716867420267;4.30198;5.93583;8.04935;11.3863;10.3505;9.24207;5.8827;1.25951;0.464433;4.70191;6.24437;8.63367;10.9305;10.5536;9.65277;5.11585;2.80594;0.54892;4.13638;4.32576;5.1134;7.06083;9.54198;10.0944;1.36588;0.556562;0.611274;brevi manu (DPC)
IT-1997-0137;1997-10-14T15:23:09;889969;42.929;12.93;6;Chiaraluce_et_al_2004;NF;Hernandez_2004_SRCMOD;5.5;INGV-CNT_Seismic_Bulletin;5.6;Pondrelli_et_al_2002_dataset;IT;AQK;00;HN;0;Close to structure;Tunnel;Building basement;42.344967;13.400949;726;NO;vs_profile;B;705;75.50566630571;149.071495736293;67.87368596665;68.1893292734718;0;E;N;Z;manual (Paolucci et al 2011);8.71;8.6;5.08;0.1;0.1;0.1;20;20;20;7.990802;8.286691;4.982744;1.387663;1.419221;-0.818633;31.15;33.34;27.32;0.173073151757;0.336159120118;0.105392972009;8.84938;9.95872;11.9115;9.14226;15.8234;14.0063;8.56769;2.09211;0.913095;8.89459;15.5252;16.0457;14.1553;20.8728;17.7072;8.63255;6.20379;0.993518;5.11932;5.30132;7.4542;8.06167;12.1194;17.647;3.30229;2.38427;0.721957;brevi manu (DPC)
IT-2007-0208;2007-10-21T03:55:36;1777979;42.401;12.963;8;INGV-CNT_Seismic_Bulletin;NF;;;;4.2;Pondrelli_et_al_2002_dataset;IT;AQK;00;HN;0;Close to structure;Tunnel;Building basement;42.344967;13.400949;726;NO;vs_profile;B;705;36.60475398048;99.6423524117398;;;0;E;N;Z;manual (Paolucci et al 2011);3.39808;3.71112;3.642221;0.2;0.2;0.2;40;40;40;-1.693438;-2.125343;1.589533;0.07419;0.099502;0.071013;15.79;14.98;19.8;0.0038151516213;0.00586108617571;0.00432085707295;3.01463;6.04202;3.53157;3.05765;2.26376;0.648951;0.200218;0.051273;0.016697;6.18345;6.5673;4.24947;3.6086;3.60661;1.30222;0.189153;0.070676;0.023287;4.36618;3.87151;4.51504;2.99444;2.53425;1.20859;0.109261;0.046813;0.018648;brevi manu (DPC)
IT-2009-0002;2009-03-30T13:38:38;1892309;42.321;13.376;9.8;INGV-CNT_Seismic_Bulletin;NF;;;;4.4;Pondrelli_et_al_2002_dataset;IT;AQK;00;HN;0;Close to structure;Tunnel;Building basement;42.344967;13.400949;726;NO;vs_profile;B;705;3.36387537261;37.6729048041129;;;0;E;N;Z;manual (Paolucci et al 2011);-59.621479;-103.136131;-48.817963;0.2;0.2;0.2;40;40;40;-56.083638;-102.555048;-40.189931;1.389728;2.264425;-0.749701;4.375;4.335;8.37;0.759734748071;1.153883387;0.539262546444;159.88;68.9604;49.3852;51.647;23.5305;6.36366;1.96551;0.649825;0.270766;300.615;99.6161;97.7356;79.1053;31.0729;7.04797;2.29397;1.08056;0.440458;119.618;34.9669;39.859;39.1683;30.8868;5.74534;0.582562;0.33566;0.130895;brevi manu (DPC)
IT-2009-0003;2009-03-30T13:43:26;1892329;42.315;13.378;9.7;INGV-CNT_Seismic_Bulletin;NF;;3.2;EMSC-CSEM;3.5;INGV-CNT_Seismic_Bulletin;IT;AQK;00;HN;0;Close to structure;Tunnel;Building basement;42.344967;13.400949;726;NO;vs_profile;B;705;3.82859444191;29.5988857636322;;;0;E;N;Z;manual (Paolucci et al 2011);-14.792309;14.36312;-12.791598;0.3;0.3;0.3;40;40;40;-13.426061;13.567576;-7.163238;0.152161;0.164163;-0.121847;3.61;3.585;6.575;0.0368447283001;0.0467207301417;0.0204499712894;34.4834;21.069;7.80665;3.41724;2.87754;1.06106;0.362358;0.127041;0.048128;48.0304;17.015;7.54131;4.24887;4.28153;0.607097;0.122799;0.056558;0.023695;33.0486;9.73523;3.27906;2.74365;2.79406;1.02213;0.10323;0.037553;0.016408;brevi manu (DPC)
