esm_event_id;event_time;ingv_event_id;ev_latitude;ev_longitude;ev_depth_km;ev_hyp_ref;fm_type_code;fm_ref;ml;ml_ref;mw;mw_ref;network_code;station_code;location_code;channel_code;sensor_depth_m;proximity;housing;installation;st_latitude;st_longitude;st_elevation;reference_site;preferred_estimation_method_vs30_ec8;preferred_ec8_code;preferred_vs30_m_s;epi_dist;epi_az;jb_dist;rup_dist;late_triggered_event_01;u_channel_code;v_channel_code;w_channel_code;processing_type;u_un_pga;v_un_pga;w_un_pga;u_hp;v_hp;w_hp;u_lp;v_lp;w_lp;u_pga;v_pga;w_pga;u_pgv;v_pgv;w_pgv;u_t90;v_t90;w_t90;u_ia;v_ia;w_ia;u_t0_050;u_t0_100;u_t0_200;u_t0_300;u_t0_500;u_t1_000;u_t2_000;u_t3_000;u_t5_000;v_t0_050;v_t0_100;v_t0_200;v_t0_300;v_t0_500;v_t1_000;v_t2_000;v_t3_000;v_t5_000;w_t0_050;w_t0_100;w_t0_200;w_t0_300;w_t0_500;w_t1_000;w_t2_000;w_t3_000;w_t5_000;original_data_mediator
IT-2009-0278;2009-07-03T09:43:53;2054799;42.323;13.375;10.3;INGV-CNT_Seismic_Bulletin;NF;;3.6;ISC-webservice;3.3;INGV-CNT_Seismic_Bulletin;IT;AQK;00;HN;0;Close to structure;Tunnel;Building basement;42.344967;13.400949;726;NO;vs_profile;B;705;3.24464378445;41.2242002336884;;;0;E;N;Z;manual (Paolucci et al 2011);-6.636848;8.307868;6.779191;0.2;0.2;0.3;40;40;40;-6.233895;-7.823937;5.314102;0.186154;-0.143416;-0.149819;6.7;5.855;10.175;0.0166602531222;0.0253213629406;0.0169095558837;25.1377;14.2391;6.79592;8.12869;3.16789;0.792995;0.282433;0.106166;0.042398;31.851;11.0311;8.44191;5.6584;3.24431;0.616205;0.151371;0.068048;0.027696;13.9779;8.70152;7.32927;4.85629;3.77779;0.994607;0.112264;0.045412;0.022283;brevi manu (DPC)
IT-2009-0279;2009-07-03T11:03:07;2054869;42.397;13.39;4.3;Chiaraluce_et_al_2011;NF;;4.5;EMSC-CSEM;3.7;INGV-CNT_Seismic_Bulletin;IT;AQK;00;HN;0;Close to structure;Tunnel;Building basement;42.344967;13.400949;726;NO;vs_profile;B;705;5.84978672427;171.127813626717;;;0;E;N;Z;manual (Paolucci et al 2011);-18.16041;-19.346291;-19.542561;0.2;0.2;0.2;40;40;40;-17.8133;-19.043636;-19.345688;0.634684;-0.626333;-0.404969;6.705;6.43;9.64;0.234486148811;0.270243361471;0.198287316612;37.0126;57.7897;28.3514;30.444;16.5669;9.94032;2.47549;0.729941;0.183444;42.0486;75.5858;35.8794;22.1176;22.7718;6.59652;1.67841;0.492053;0.148824;26.495;67.6163;30.364;31.7485;19.2942;6.63013;0.684651;0.285338;0.096531;brevi manu (DPC)
IT-2009-0283;2009-07-12T08:38:51;2063869;42.328;13.379;10.1;INGV-CNT_Seismic_Bulletin;NF;;4.6;EMSC-CSEM;4.3;Pondrelli_et_al_2002_dataset;IT;AQK;00;HN;0;Close to structure;Tunnel;Building basement;42.344967;13.400949;726;NO;vs_profile;B;705;2.61229916565;43.8167609450447;;;0;E;N;Z;manual (Paolucci et al 2011);-29.0417;30.896561;-17.8836;0.1;0.1;0.2;40;40;40;-25.217199;28.676911;-17.204682;0.541229;0.596034;-0.397059;5.725;5.335;7.18;0.194463272538;0.3057658896;0.2085875165;71.6418;54.7051;19.0799;17.5863;5.65331;4.08136;2.70511;0.63151;0.202736;114.281;46.2143;22.2782;12.1981;8.13218;2.72056;0.891232;0.276177;0.097964;48.2837;35.0515;22.633;13.4626;8.25912;4.53728;0.354012;0.225581;0.098136;brevi manu (DPC)
IT-2009-0285;2009-07-12T22:14:24;2064569;42.338;13.392;11.1;INGV-CNT_Seismic_Bulletin;NF;;4.1;EMSC-CSEM;3.7;INGV-CNT_Seismic_Bulletin;IT;AQK;00;HN;0;Close to structure;Tunnel;Building basement;42.344967;13.400949;726;NO;vs_profile;B;705;1.06899497676;43.6158138876606;;;0;E;N;Z;manual (Paolucci et al 2011);-39.345306;-34.35038;26.173708;0.2;0.2;0.2;40;40;40;-38.281272;-33.732916;23.882505;0.72098;0.664319;-0.419814;4.1;3.365;6.26;0.26448285119;0.347796043356;0.182455315208;102.697;72.6248;40.7942;18.5318;6.58506;2.11516;0.937757;0.367086;0.148316;188.01;85.5822;34.4693;15.8954;6.68144;1.75894;0.430397;0.22443;0.106921;58.4326;37.7169;21.194;14.3126;7.61839;2.32783;0.234096;0.153712;0.061399;brevi manu (DPC)
IT-2009-0289;2009-07-31T11:05:39;2079659;42.263;13.5;6.1;Chiaraluce_et_al_2011;NF;;4.1;EMSC-CSEM;3.9;INGV-CNT_Seismic_Bulletin;IT;AQK;00;HN;0;Close to structure;Tunnel;Building basement;42.344967;13.400949;726;NO;vs_profile;B;705;12.23120030251;318.14035957428;;;0;E;N;Z;manual (Paolucci et al 2011);3.486586;3.708872;2.97747;0.2;0.2;0.2;40;40;40;3.381559;3.568866;2.86467;0.186135;0.159062;0.135885;15.675;15.89;16.715;0.0102996424854;0.0116122502453;0.0108290751544;7.05745;11.3045;6.95908;4.21655;2.59658;1.90101;0.815031;0.198049;0.061884;8.3261;12.0636;5.80945;6.42105;3.28411;3.17841;0.545454;0.194033;0.04651;8.1143;9.4317;5.81809;5.81074;4.65609;2.99742;0.322232;0.115959;0.039647;brevi manu (DPC)
IT-2009-0303;2009-09-24T16:14:57;2109129;42.46;13.351;12.7;Chiaraluce_et_al_2011;NF;;4.1;EMSC-CSEM;3.9;INGV-CNT_Seismic_Bulletin;IT;AQK;00;HN;0;Close to structure;Tunnel;Building basement;42.344967;13.400949;726;NO;vs_profile;B;705;13.42336436901;162.1442716214;;;0;E;N;Z;manual (Paolucci et al 2011);10.51349;15.28211;10.54106;0.2;0.2;0.2;40;40;40;10.515859;14.981144;10.260958;-0.262717;-0.542536;-0.280556;7.455;6.705;9.25;0.0535409598552;0.0982096390942;0.0834533108763;23.3049;35.6175;14.1567;8.54178;9.71313;1.15569;0.536456;0.145798;0.056844;23.6608;38.9183;38.7682;18.359;5.89938;1.77713;0.57247;0.189326;0.091515;14.8063;31.9859;32.1009;14.795;9.30866;2.30014;0.230398;0.112621;0.04336;brevi manu (DPC)
IT-2009-0314;2009-10-20T05:07:30;2121979;42.391;13.245;10.1;INGV-CNT_Seismic_Bulletin;SS;;3.6;EMSC-CSEM;3.5;INGV-CNT_Seismic_Bulletin;IT;AQK;00;HN;0;Close to structure;Tunnel;Building basement;42.344967;13.400949;726;NO;vs_profile;B;705;13.82608544534;111.652857233764;;;0;E;N;Z;manual (Paolucci et al 2011);2.165657;3.088627;1.855115;0.2;0.2;0.2;40;40;40;2.138096;3.07373;1.844381;0.10222;0.230142;-0.187608;14.13;10.535;15.685;0.00408090378644;0.0139302367457;0.0083335140108;3.11408;4.44079;4.23869;3.47555;3.88511;1.03521;0.265469;0.080414;0.0298;4.13839;6.05204;5.67855;7.65103;7.22274;2.22449;0.545468;0.153206;0.062727;2.41143;3.51987;4.022;4.45905;4.81145;2.51903;0.237548;0.099622;0.040025;brevi manu (DPC)
IT-2010-0003;2010-01-10T08:33:35;2145419;43.119;13.445;16.9;INGV-CNT_Seismic_Bulletin;;;4;INGV-CNT_Seismic_Bulletin;;;IT;AQK;00;HN;0;Close to structure;Tunnel;Building basement;42.344967;13.400949;726;NO;vs_profile;B;705;86.06104471447;182.417410182036;;;0;E;N;Z;manual (Paolucci et al 2011);0.748581;-1.124794;0.832684;0.2;0.2;0.2;40;40;40;0.743058;-1.121698;0.835789;-0.031531;-0.046796;-0.031246;12.02;11.055;11.93;0.000653097172999;0.00110934619129;0.000833449501917;1.13133;2.02166;2.1113;1.57734;0.864181;0.159868;0.068485;0.015983;0.005533;1.79602;2.45871;2.56421;3.16374;0.946675;0.261176;0.08394;0.016542;0.0071;0.980854;2.28925;1.84142;1.74572;1.29396;0.276411;0.031142;0.017109;0.006828;brevi manu (DPC)
IT-2010-0009;2010-01-22T12:30:50;2149399;42.239;13.52;9.1;INGV-CNT_Seismic_Bulletin;;;3.5;INGV-CNT_Seismic_Bulletin;;;IT;AQK;00;HN;0;Close to structure;Tunnel;Building basement;42.344967;13.400949;726;NO;vs_profile;B;705;15.32799141868;320.207687605459;;;0;E;N;Z;manual (Paolucci et al 2011);1.174206;1.547164;-1.470003;0.2;0.2;0.2;40;40;40;1.157042;1.529209;-1.458635;0.037213;-0.042323;0.044083;12.49;11.16;15.185;0.00149613064968;0.00257241978294;0.00184903930426;2.28403;4.28399;1.81675;1.97714;0.684915;0.475417;0.154875;0.048126;0.012644;4.33369;4.96208;2.34547;1.96253;1.20112;0.658835;0.103885;0.041778;0.011535;2.72617;3.61737;1.89875;2.04122;1.63251;0.703337;0.082918;0.031216;0.00934;brevi manu (DPC)
IT-2010-0037;2010-08-31T07:12:52;2246059;42.516;13.226;10.4;INGV-CNT_Seismic_Bulletin;NF;;3.9;EMSC-CSEM;3.5;INGV-CNT_Seismic_Bulletin;IT;AQK;00;HN;0;Close to structure;Tunnel;Building basement;42.344967;13.400949;726;NO;vs_profile;B;705;23.83711413222;142.787262164986;;;0;E;N;Z;manual (Paolucci et al 2011);-1.337696;1.180357;1.055952;0.2;0.2;0.2;40;40;40;-1.334253;1.169408;1.047004;0.074101;-0.060269;0.059194;11.565;13.72;19.02;0.00155678912732;0.00145272933994;0.00181703410678;1.54326;2.08902;2.93668;1.77689;3.39171;0.997989;0.145412;0.052295;0.020819;1.40235;1.75152;2.03287;2.09715;3.41888;0.726316;0.158841;0.047235;0.014367;1.38236;1.64884;2.13941;3.4712;2.44693;0.98253;0.077042;0.038342;0.012485;brevi manu (DPC)
IT-2012-0088;2012-10-30T01:52:31;1468901;42.3957;13.2725;10.6;INGV-CNT_Seismic_Bulletin;NF;;3.6;EMSC-CSEM;3.2;INGV-CNT_Seismic_Bulletin;IT;AQK;00;HG;0;Close to structure;Tunnel;Building basement;42.344967;13.400949;726;NO;vs_profile;B;705;11.98741781202;117.998361223794;;;0;E;N;Z;manual (Paolucci et al 2011);-2.022733;-3.280785;2.84454;0.25;0.25;0.25;50;50;50;-2.010987;-3.273265;2.582276;-0.042268;0.054476;-0.052804;9.065;9.14;10.49;0.00480313736992;0.00651242083689;0.00602490616815;6.23496;5.36509;4.30684;1.97319;0.909396;0.318108;0.044461;0.017881;0.007272;6.48986;4.43305;3.65766;2.30743;1.91042;0.362408;0.066771;0.026857;0.010843;6.09612;5.59752;4.55294;2.98029;1.59208;0.255043;0.046307;0.018147;0.007588;brevi manu (DPC)
IT-2013-0114;2013-12-08T14:35:33;2787731;42.4613;13.4793;16.2;INGV-CNT_Seismic_Bulletin;SS;;3.5;EMSC-CSEM;3.7;INGV-CNT_Seismic_Bulletin;IT;AQK;00;HG;0;Close to structure;Tunnel;Building basement;42.344967;13.400949;726;NO;vs_profile;B;705;14.44281181447;206.552823638316;;;0;E;N;Z;manual (Paolucci et al 2011);-10.294363;7.419582;-8.669939;0.2;0.2;0.2;40;40;40;-10.33555;7.37662;-8.605977;0.285809;-0.109302;-0.206249;3.275;4.225;5.43;0.0220489059412;0.02026004211;0.0192569424386;22.1672;27.7208;10.3486;6.11474;2.78363;0.701334;0.204544;0.092888;0.039555;32.6919;15.5562;9.9941;4.24475;3.83122;0.83338;0.117878;0.045803;0.019434;13.4245;25.5059;11.219;4.37883;2.74767;1.41867;0.105588;0.050711;0.024263;brevi manu (DPC)
IT-2016-0001;2016-10-16T09:32:36;8538851;42.75457;13.1797;2.218;Spallarossa_et_al_2021;NF;;3.95;Spallarossa_et_al_2021;4;TDMT-INGV;IT;AQK;00;HG;0;Close to structure;Tunnel;Building basement;42.344967;13.400949;726;NO;vs_profile;B;705;48.99486655292;158.15423987528;;;0;E;N;Z;manual (Paolucci et al 2011);0.767103;1.055414;0.826623;0.2;0.2;0.2;30;30;30;0.765976;1.056175;0.82474;0.053224;-0.070607;-0.062714;23.76;19.725;21.24;0.00124859478688;0.00182782674927;0.0020429701508;0.983151;2.09841;1.60615;2.18284;1.92537;0.789046;0.335852;0.136432;0.020911;1.2698;2.08557;2.10068;2.14664;1.91371;0.797618;0.403466;0.156976;0.027376;1.26521;2.1175;2.3249;2.38214;1.71321;1.23551;0.119877;0.060432;0.020051;http://www.mot1.it/randownload/
EMSC-20080412_0000050;2008-04-12T05:44:42;1810659;41.784;12.584;14.1;INGV-CNT_Seismic_Bulletin;NF;;4.1;EMSC-CSEM;3.9;INGV-CNT_Seismic_Bulletin;MN;AQU;;HL;0;Inside structure;Building;;42.354;13.405;710;Not analized;geology;B;;92.87140229858;46.7476670813106;;;0;E;N;Z;manual (Paolucci et al 2011);0.04628;0.04382;-0.02836;0.1;0.1;0.1;25;25;25;0.042511;0.04279;-0.027273;-0.004186;0.004395;0.002317;83.64;88.94;90.62;7.92661025433e-06;8.89884307434e-06;2.85206281146e-06;0.071439;0.179334;0.150425;0.124319;0.078933;0.079047;0.036206;0.009388;0.00336;0.065657;0.155809;0.13821;0.128112;0.114775;0.046919;0.037274;0.008051;0.003409;0.044624;0.098336;0.061642;0.055098;0.041394;0.031417;0.017152;0.007212;0.001829;brevi manu (DPC)
EMSC-20090406_0000100;2009-04-06T07:17:10;1897629;42.356;13.383;9;INGV-CNT_Seismic_Bulletin;NF;;;;4.1;INGV-CNT_Seismic_Bulletin;MN;AQU;;HL;0;Inside structure;Building;;42.354;13.405;710;Not analized;geology;B;;1.82611482223;96.9803538828883;;;0;E;N;Z;manual (Paolucci et al 2011);-42.615047;-35.975204;37.046932;0.03;0.03;0.03;45;45;45;-43.898209;34.507754;31.748546;0.923814;-1.129362;-0.73117;4.69;3.86;3.29;0.361857271118;0.494242502552;0.248265769772;76.6502;113.884;31.7474;39.4363;13.0979;9.31532;1.55175;0.907681;0.212154;83.9424;94.7441;47.294;30.2847;14.9383;6.21713;1.81329;0.662832;0.215634;110.268;31.2979;34.7387;14.1841;12.2145;7.20033;1.59656;0.856414;0.309072;brevi manu (DPC)
EMSC-20090407_0000144;2009-04-07T21:39:06;1909659;42.356;13.36;9.9;INGV-CNT_Seismic_Bulletin;NF;;4.3;EMSC-CSEM;3.6;INGV-CNT_Seismic_Bulletin;MN;AQU;;HL;0;Inside structure;Building;;42.354;13.405;710;Not analized;geology;B;;3.71414026528;93.4140205351452;;;0;E;N;Z;manual (Paolucci et al 2011);-8.044614;-13.965408;5.72291;0.1;0.1;0.1;30;30;30;-7.311918;-13.58996;4.953551;0.264389;0.314401;0.098086;5.47;4.36;4.885;0.0288300585507;0.0428414708939;0.0130551565119;18.5974;28.689;10.1069;4.35268;3.87781;1.33847;0.431145;0.188453;0.059933;26.9135;30.4477;9.90864;5.58112;4.71472;1.50422;0.42136;0.168558;0.064503;12.0434;11.365;12.1267;3.43749;1.35192;1.28892;0.105363;0.068545;0.032572;brevi manu (DPC)
EMSC-20090408_0000056;2009-04-08T03:00:34;1911519;42.293;13.462;9.3;INGV-CNT_Seismic_Bulletin;NF;;4.1;EMSC-CSEM;3.6;INGV-CNT_Seismic_Bulletin;MN;AQU;;HL;0;Inside structure;Building;;42.354;13.405;710;Not analized;geology;B;;8.24548816502;325.28105217224;;;0;E;N;Z;manual (Paolucci et al 2011);4.038089;-5.161633;3.065181;0.1;0.1;0.1;30;30;30;3.783099;-4.996666;2.855618;0.121582;0.124353;-0.06821;9.18;7.695;10.78;0.0119755075771;0.0135130172413;0.00355420250896;9.06305;10.537;10.5579;4.84723;3.23586;1.08022;0.189938;0.079008;0.022109;6.90942;11.0445;6.12568;6.39884;3.29363;1.21926;0.464657;0.17682;0.037586;6.16088;6.18514;4.99717;2.3838;1.30729;1.19755;0.143069;0.049476;0.017378;brevi manu (DPC)
EMSC-20090408_0000058;2009-04-08T04:27:41;1911959;42.29;13.462;9;INGV-CNT_Seismic_Bulletin;NF;;4.3;EMSC-CSEM;3.8;INGV-CNT_Seismic_Bulletin;MN;AQU;;HL;0;Inside structure;Building;;42.354;13.405;710;Not analized;geology;B;;8.52150797123;326.557278677793;;;0;E;N;Z;manual (Paolucci et al 2011);5.081559;-4.970582;-3.592141;0.1;0.1;0.1;30;30;30;5.118675;-4.71272;-3.055148;0.153218;-0.129779;-0.074993;10.21;8.715;11.39;0.020263152934;0.019397284411;0.00657930008391;9.6735;16.857;12.8976;6.53499;4.2136;1.46076;0.377568;0.135339;0.037891;8.35123;14.3006;5.65299;7.23114;4.26489;1.82998;0.67936;0.248219;0.056989;6.38498;6.91841;6.54063;3.33545;1.46602;1.39634;0.172108;0.061321;0.023474;brevi manu (DPC)
EMSC-20150228_0000014;2015-02-28T03:16:18;5025051;41.9498;13.534;10.6;INGV-BULLETIN;NF;;3.9;INGV-BULLETIN;4.1;TDMT-INGV;MN;AQU;;HL;0;Inside structure;Building;;42.354;13.405;710;Not analized;geology;B;;46.14568982473;346.68394060837;;;0;E;N;Z;manual (Paolucci et al 2011);-0.378774;-0.300966;0.166748;0.1;0.1;0.1;30;30;30;-0.379264;-0.297441;0.165842;0.015937;-0.017888;-0.012997;23.62;22.55;27.735;0.00025487519294;0.000196749369172;7.71023365826e-05;0.42699;0.718423;1.46509;0.601077;0.598339;0.109154;0.077884;0.030561;0.010632;0.340169;0.57388;1.01653;0.638499;0.459874;0.147328;0.077904;0.024733;0.004867;0.201049;0.446153;0.687414;0.271645;0.235749;0.124309;0.047817;0.016124;0.00508;brevi manu (DPC)
EMSC-20150529_0000093;2015-05-29T13:07:56;5527661;42.9652;14.3837;14.6;INGV-BULLETIN;;;4.2;EMSC-CSEM;4.2;TDMT-INGV;MN;AQU;;HL;0;Inside structure;Building;;42.354;13.405;710;Not analized;geology;B;;105.11201928587;230.097037609524;;;0;E;N;Z;manual (Paolucci et al 2011);-0.117605;0.128734;-0.050591;0.1;0.1;0.1;30;30;30;-0.116824;0.127799;-0.048651;0.00771;-0.008497;0.003769;47.815;42.74;64.995;3.34628039691e-05;3.79097214527e-05;9.85356866067e-06;0.123935;0.14775;0.362354;0.257492;0.272097;0.101582;0.058311;0.014744;0.007099;0.128515;0.169972;0.248217;0.299254;0.271882;0.081994;0.048325;0.014886;0.006695;0.050778;0.09795;0.106781;0.146246;0.099599;0.079504;0.01799;0.008253;0.004206;brevi manu (DPC)
EMSC-20151206_0000013;2015-12-06T03:21:41;6286791;42.4087;15.2573;14;INGV-BULLETIN;;;3.9;INGV-BULLETIN;;;MN;AQU;;HL;0;Inside structure;Building;;42.354;13.405;710;Not analized;geology;B;;152.66269172187;268.343530048684;;;0;E;N;Z;manual (Paolucci et al 2011);-0.04394;0.040128;-0.024251;0.1;0.1;0.1;30;30;30;-0.035861;-0.027279;0.018741;0.003261;0.002734;-0.002118;40.565;40.13;48.22;3.1734634468e-06;3.55726508908e-06;1.34160191867e-06;0.04894;0.04968;0.102737;0.102012;0.059326;0.053877;0.029886;0.005783;0.001274;0.041903;0.042277;0.068853;0.110091;0.074433;0.055009;0.017088;0.004651;0.001695;0.021578;0.035615;0.044478;0.041688;0.030554;0.048098;0.01459;0.005479;0.001654;http://webservices.rm.ingv.it/
EMSC-20151206_0000019;2015-12-06T03:22:49;6286861;42.4075;15.1968;10;INGV-BULLETIN;;;;;4.2;TDMT-INGV;MN;AQU;;HL;0;Inside structure;Building;;42.354;13.405;710;Not analized;geology;B;;147.68060824883;268.297880748107;;;0;E;N;Z;manual (Paolucci et al 2011);-0.044012;0.040297;-0.024192;0.1;0.1;0.1;30;30;30;-0.042576;0.040165;-0.023516;-0.006653;0.006534;0.004641;61.885;60.005;70.595;8.27137172419e-06;8.30299048826e-06;3.89873324633e-06;0.043626;0.064382;0.097582;0.10131;0.084777;0.157771;0.047656;0.01121;0.003786;0.041167;0.052555;0.08419;0.130778;0.068615;0.123609;0.039166;0.009745;0.003662;0.024456;0.050453;0.052259;0.033783;0.048107;0.08738;0.017869;0.007123;0.003227;http://webservices.rm.ingv.it/
EMSC-20151206_0000032;2015-12-06T05:28:15;6287201;42.3488;15.143;18.7;INGV-BULLETIN;TF;;3.9;INGV-BULLETIN;4.4;Pondrelli_et_al_2002_dataset;MN;AQU;;HL;0;Inside structure;Building;;42.354;13.405;710;Not analized;geology;B;;143.19835249913;270.816540636395;;;0;E;N;Z;manual (Paolucci et al 2011);0.028887;-0.031565;-0.018457;0.1;0.1;0.1;30;30;30;-0.029017;-0.030906;-0.017803;-0.00403;0.003985;-0.002548;50.285;50.22;64.015;5.14269713938e-06;5.6370597863e-06;2.45797522643e-06;0.032207;0.058273;0.093294;0.088094;0.074567;0.102218;0.027152;0.008734;0.002555;0.037264;0.069978;0.068033;0.117364;0.061665;0.08512;0.017766;0.00574;0.002177;0.023424;0.043368;0.054353;0.059671;0.033963;0.061913;0.014218;0.006351;0.002686;http://webservices.rm.ingv.it/
EMSC-20151206_0000082;2015-12-06T16:24:38;6288651;42.4007;15.2387;12;INGV-BULLETIN;TF;;4.4;EMSC-CSEM;4.6;Pondrelli_et_al_2002_dataset;MN;AQU;;HL;0;Inside structure;Building;;42.354;13.405;710;Not analized;geology;B;;151.10868569845;268.650887767476;;;0;E;N;Z;manual (Paolucci et al 2011);-0.11985;0.088845;-0.054465;0.1;0.1;0.1;30;30;30;-0.119329;0.088136;-0.054241;-0.011292;0.010791;-0.006164;48.275;45.53;58.755;3.95307557389e-05;3.76356502222e-05;1.65355331245e-05;0.122218;0.132245;0.309611;0.2472;0.274487;0.278309;0.06606;0.018421;0.005438;0.101961;0.154082;0.171432;0.253491;0.168157;0.259142;0.046677;0.01245;0.006371;0.056851;0.100138;0.1677;0.118855;0.128622;0.154779;0.035583;0.010888;0.004992;http://webservices.rm.ingv.it/
EMSC-20160116_0000069;2016-01-16T18:55:11;6376371;41.5272;14.5987;10.2;INGV-BULLETIN;NF;;4.1;EMSC-CSEM;4.3;TDMT-INGV;MN;AQU;;HL;0;Inside structure;Building;;42.354;13.405;710;Not analized;geology;B;;135.02598620975;313.249921125473;;;0;E;N;Z;manual (Paolucci et al 2011);0.042523;0.037148;0.026064;0.1;0.1;0.1;30;30;30;0.041521;0.036671;-0.025497;0.006936;-0.005286;-0.003795;61.04;62.79;66.095;1.06980269161e-05;9.78776951946e-06;4.63102276074e-06;0.071405;0.07747;0.111207;0.114489;0.095282;0.082737;0.048183;0.020474;0.00396;0.052397;0.057729;0.09979;0.107588;0.08052;0.078536;0.037309;0.022917;0.00597;0.037839;0.045319;0.067461;0.05629;0.051388;0.073783;0.018942;0.010349;0.002822;http://webservices.rm.ingv.it/
EMSC-20160530_0000085;2016-05-30T20:24:20;6765511;42.7003;11.9762;7.9;INGV-BULLETIN;NF;;4.1;INGV-BULLETIN;4.1;TDMT-INGV;MN;AQU;;HL;0;Inside structure;Building;;42.354;13.405;710;Not analized;geology;B;;123.53519896143;107.659207410022;;;0;E;N;Z;manual (Paolucci et al 2011);-0.034554;-0.039659;-0.024497;0.15;0.15;0.15;30;30;30;-0.032876;-0.038021;-0.022472;-0.006321;0.007054;-0.005065;70.945;59.04;62.855;5.27106333889e-06;6.62329772754e-06;3.04645052882e-06;0.050749;0.036688;0.052413;0.068234;0.086056;0.08374;0.051521;0.020009;0.005917;0.051303;0.039503;0.052873;0.070017;0.051128;0.085301;0.081481;0.018842;0.009427;0.025804;0.02292;0.030074;0.029485;0.036965;0.077026;0.030621;0.019892;0.006585;http://webservices.rm.ingv.it/
