esm_event_id;event_time;ingv_event_id;ev_latitude;ev_longitude;ev_depth_km;ev_hyp_ref;fm_type_code;fm_ref;ml;ml_ref;mw;mw_ref;network_code;station_code;location_code;channel_code;sensor_depth_m;proximity;housing;installation;st_latitude;st_longitude;st_elevation;reference_site;preferred_estimation_method_vs30_ec8;preferred_ec8_code;preferred_vs30_m_s;epi_dist;epi_az;jb_dist;rup_dist;late_triggered_event_01;u_channel_code;v_channel_code;w_channel_code;processing_type;u_un_pga;v_un_pga;w_un_pga;u_hp;v_hp;w_hp;u_lp;v_lp;w_lp;u_pga;v_pga;w_pga;u_pgv;v_pgv;w_pgv;u_t90;v_t90;w_t90;u_ia;v_ia;w_ia;u_t0_050;u_t0_100;u_t0_200;u_t0_300;u_t0_500;u_t1_000;u_t2_000;u_t3_000;u_t5_000;v_t0_050;v_t0_100;v_t0_200;v_t0_300;v_t0_500;v_t1_000;v_t2_000;v_t3_000;v_t5_000;w_t0_050;w_t0_100;w_t0_200;w_t0_300;w_t0_500;w_t1_000;w_t2_000;w_t3_000;w_t5_000;original_data_mediator
EMSC-20160824_0000006;2016-08-24T01:36:32;7073641;42.6983;13.2335;8.1;Spallarossa_et_al_2021;NF;Tinti_2016;6;Spallarossa_et_al_2021;6;TDMT-INGV;IT;AQK;00;HG;0;Close to structure;Tunnel;Building basement;42.344967;13.400949;726;NO;vs_profile;B;705;41.59131259275;160.624600287534;34.40799677074;35.2460265306258;0;E;N;Z;manual (Paolucci et al 2011);-49.518356;-57.173542;33.003918;0.05;0.05;0.05;30;30;30;-49.520383;-57.033181;32.995501;-9.028198;9.803084;-4.174678;21.33;14.71;22.265;6.11604136961;10.7583638041;2.77262221394;50.1747;71.2769;58.7372;82.717;90.359;80.0381;80.9341;16.2508;5.11896;57.5959;60.0844;78.9515;110.65;104.738;146.405;80.1229;21.634;7.67525;34.7437;42.0022;43.4895;47.3084;60.0073;87.875;14.9513;10.7831;3.43141;http://www.mot1.it/randownload/
EMSC-20160824_0000007;2016-08-24T01:56:01;7074171;42.61711;13.29049;1.65;Spallarossa_et_al_2021;NF;;4.49;Spallarossa_et_al_2021;4.3;TDMT-INGV;IT;AQK;00;HG;0;Close to structure;Tunnel;Building basement;42.344967;13.400949;726;NO;vs_profile;B;705;31.5652260639;163.240391824752;;;0;E;N;Z;manual (Paolucci et al 2011);2.698689;-3.480799;-2.932444;0.15;0.15;0.15;30;30;30;2.659476;-3.472958;-2.883454;-0.277531;0.346117;-0.215915;20.08;19.39;17.715;0.0158102663741;0.0258372687483;0.0169021813301;3.31167;6.4328;5.57756;6.5271;4.33968;4.19118;2.1513;0.575569;0.135921;4.27298;5.30015;7.03893;9.19017;6.47326;6.45525;2.56033;0.611952;0.151755;3.66085;5.70646;8.19456;7.71983;6.51128;4.42659;0.559937;0.254926;0.102117;http://www.mot1.it/randownload/
EMSC-20160824_0000013;2016-08-24T02:33:29;7076161;42.79802;13.16114;6.326;Spallarossa_et_al_2021;NF;None;5.25;Spallarossa_et_al_2021;5.5;Pondrelli_et_al_2002_dataset;IT;AQK;00;HG;0;Close to structure;Tunnel;Building basement;42.344967;13.400949;726;NO;vs_profile;B;705;54.04157064321;158.551765908404;51.09451038009;51.9053770111969;0;E;N;Z;manual (Paolucci et al 2011);10.601868;-11.58298;-9.898158;0.07;0.07;0.07;30;30;30;10.588054;-11.352379;-9.632899;-2.069984;1.855139;-1.141207;21.82;25.245;28.275;0.397232393946;0.474771118267;0.185783327196;13.1518;21.2683;16.4314;22.1911;19.7359;24.302;24.8839;4.85546;1.25157;16.5142;19.2281;24.7965;24.2025;24.3883;23.6761;19.0714;6.59051;1.9133;13.475;16.551;19.1768;19.903;18.7567;19.4197;4.02761;3.24191;0.859229;http://www.mot1.it/randownload/
EMSC-20160824_0000036;2016-08-24T03:40:11;7079501;42.63237;13.26442;8.021;Spallarossa_et_al_2021;NF;;4.21;Spallarossa_et_al_2021;4.1;TDMT-INGV;IT;AQK;00;HG;0;Close to structure;Tunnel;Building basement;42.344967;13.400949;726;NO;vs_profile;B;705;33.84123597412;160.582891871558;;;0;E;N;Z;manual (Paolucci et al 2011);-2.518902;2.846288;1.939052;0.15;0.15;0.15;30;30;30;-2.433443;2.753757;1.855309;-0.074252;0.101023;0.074311;17.6;16.465;21.305;0.0060324479102;0.00702256444461;0.0046835750505;6.90129;8.86563;2.27208;2.85218;2.48166;1.48845;0.432917;0.078927;0.030019;7.75713;12.0469;2.70034;2.83514;3.13019;1.2955;0.318761;0.092394;0.031825;4.92579;8.58429;2.225;2.44566;2.6288;1.36311;0.130463;0.051672;0.02209;http://www.mot1.it/randownload/
EMSC-20160824_0000050;2016-08-24T04:06:52;7081331;42.78168;13.14185;1.842;Spallarossa_et_al_2021;NF;;4.39;Spallarossa_et_al_2021;4.4;TDMT-INGV;IT;AQK;00;HG;0;Close to structure;Tunnel;Building basement;42.344967;13.400949;726;NO;vs_profile;B;705;52.97239797155;156.231172321017;;;0;E;N;Z;manual (Paolucci et al 2011);1.967175;1.528585;1.531277;0.15;0.15;0.15;30;30;30;1.951038;1.510473;1.527892;-0.144871;-0.22261;-0.121057;24.295;24.55;27.055;0.00543310779881;0.00721500710005;0.00541726684143;2.03036;3.69823;4.00652;3.03853;4.27648;2.37313;1.01774;0.3257;0.063386;2.9623;6.28093;2.63061;3.22738;3.68888;3.38259;0.894895;0.401674;0.103436;1.61238;2.60872;2.87224;3.95697;3.33479;2.19956;0.371564;0.116457;0.031909;http://www.mot1.it/randownload/
EMSC-20160824_0000172;2016-08-24T11:50:31;7105011;42.82622;13.16594;8.917;Spallarossa_et_al_2021;NF;None;4.74;Spallarossa_et_al_2021;4.5;TDMT-INGV;IT;AQK;00;HG;0;Close to structure;Tunnel;Building basement;42.344967;13.400949;726;NO;vs_profile;B;705;56.83391091837;160.078277683154;55.2596444652;56.1960230421171;0;E;N;Z;manual (Paolucci et al 2011);2.037865;1.774841;-1.37089;0.1;0.1;0.1;30;30;30;2.022075;1.709077;-1.36262;-0.153455;-0.162709;0.131519;32.145;27.75;35.32;0.00714450729833;0.00915481405606;0.00673312487948;3.71662;3.42671;3.98277;2.92036;3.08607;3.82789;1.27467;0.27175;0.068199;4.92125;4.76579;4.1934;3.1548;3.28563;2.96056;1.08296;0.27581;0.096808;3.71984;3.69426;3.09278;2.72511;3.63445;2.80394;0.281447;0.166835;0.053218;http://www.mot1.it/randownload/
EMSC-20160824_0000232;2016-08-24T17:46:10;7122651;42.66765;13.21176;8.985;Spallarossa_et_al_2021;NF;;4.53;Spallarossa_et_al_2021;4.2;TDMT-INGV;IT;AQK;00;HG;0;Close to structure;Tunnel;Building basement;42.344967;13.400949;726;NO;vs_profile;B;705;39.07205115925;156.484593737615;;;0;E;N;Z;manual (Paolucci et al 2011);1.63978;-1.820556;1.527344;0.15;0.15;0.15;30;30;30;1.580819;-1.772263;1.522038;-0.102274;0.117336;-0.084905;21.16;23.095;24.915;0.00423617484711;0.00559609656742;0.00426636268399;3.30651;3.52371;3.47049;3.15988;3.23904;1.80766;0.377642;0.115671;0.030183;3.7846;3.63547;4.0394;3.75069;2.51215;2.68957;0.717822;0.163784;0.044917;2.61817;2.73604;3.00717;2.92745;3.19609;2.03348;0.185776;0.062497;0.021401;http://www.mot1.it/randownload/
EMSC-20160825_0000024;2016-08-25T03:17:17;7154631;42.75497;13.20164;5.779;Spallarossa_et_al_2021;NF;;4.65;Spallarossa_et_al_2021;4.3;TDMT-INGV;IT;AQK;00;HG;0;Close to structure;Tunnel;Building basement;42.344967;13.400949;726;NO;vs_profile;B;705;48.39727859949;160.16281946102;;;0;E;N;Z;manual (Paolucci et al 2011);-1.158947;1.936656;-1.279116;0.1;0.1;0.1;30;30;30;-1.098059;1.795888;-1.276604;0.092997;-0.102112;0.104101;26.765;23.01;23.805;0.00303926177247;0.00563613016943;0.00443927363716;2.14955;3.31055;2.26488;1.93002;2.03001;1.65175;0.656685;0.17082;0.059897;3.64426;3.08609;3.72793;4.00413;3.50709;1.74598;0.582714;0.186863;0.058274;2.156;2.74849;3.95083;2.84375;3.15514;2.1789;0.210938;0.102232;0.04097;http://www.mot1.it/randownload/
EMSC-20160825_0000096;2016-08-25T12:36:06;7182461;42.60539;13.29141;8.145;Spallarossa_et_al_2021;NF;;4.53;Spallarossa_et_al_2021;4.4;TDMT-INGV;IT;AQK;00;HG;0;Close to structure;Tunnel;Building basement;42.344967;13.400949;726;NO;vs_profile;B;705;30.29835646773;162.667779223282;;;0;E;N;Z;manual (Paolucci et al 2011);-1.581476;1.880991;1.572471;0.15;0.15;0.15;30;30;30;-1.566427;1.850848;1.555761;-0.11716;0.219083;0.125597;24.73;22.04;21.855;0.00444755536357;0.00589008667624;0.00539701035762;2.30612;3.44072;3.41752;3.22514;4.99892;1.61306;0.453199;0.182184;0.044711;2.67885;3.57622;2.40009;3.98376;4.53814;2.58304;0.599487;0.213365;0.069317;2.68733;2.7249;3.1683;2.83815;3.28008;2.90946;0.22604;0.128867;0.047;http://www.mot1.it/randownload/
EMSC-20160826_0000013;2016-08-26T04:28:26;7224451;42.61152;13.2953;9.054;Spallarossa_et_al_2021;NF;;4.78;Spallarossa_et_al_2021;4.8;TDMT-INGV;IT;AQK;00;HG;0;Close to structure;Tunnel;Building basement;42.344967;13.400949;726;NO;vs_profile;B;705;30.85748097772;163.61287515706;;;0;E;N;Z;manual (Paolucci et al 2011);-5.367062;4.277781;-4.319763;0.1;0.1;0.1;30;30;30;-5.308727;4.23149;-4.299954;-0.471253;0.462049;-0.377125;21.65;19.525;18.41;0.0417966560848;0.0487021850738;0.0535669751513;6.47854;9.23443;10.4638;12.9769;13.8295;6.44919;3.50378;1.00259;0.221591;6.62908;7.69767;11.1946;13.5834;11.4086;8.41846;2.56943;0.982381;0.20224;5.06316;7.84353;13.0204;15.763;13.4131;7.82034;0.979344;0.491737;0.178105;http://www.mot1.it/randownload/
EMSC-20160828_0000077;2016-08-28T15:55:36;7343701;42.82847;13.24205;2.925;Spallarossa_et_al_2021;NF;;4.4;Spallarossa_et_al_2021;4.3;Pondrelli_et_al_2002_dataset;IT;AQK;00;HG;0;Close to structure;Tunnel;Building basement;42.344967;13.400949;726;NO;vs_profile;B;705;55.27082410769;166.296300776216;;;0;E;N;Z;manual (Paolucci et al 2011);-2.191875;2.760155;-2.03279;0.15;0.15;0.15;30;30;30;-2.187372;2.754425;-2.027359;0.137895;0.16766;-0.085873;13.5;14.255;19.51;0.00733949185959;0.00979236007418;0.00766565872519;2.4887;3.49275;5.9549;6.74771;4.10915;1.63235;0.315847;0.090941;0.033325;3.18388;4.79372;7.26357;10.8059;3.67153;1.7394;0.611492;0.142742;0.041374;2.77547;3.68514;7.66912;7.83533;3.00628;1.13082;0.162825;0.076377;0.027582;http://www.mot1.it/randownload/
EMSC-20160903_0000063;2016-09-03T10:18:51;7624821;42.86219;13.22359;0.646;Spallarossa_et_al_2021;SS;;4.52;Spallarossa_et_al_2021;4.3;TDMT-INGV;IT;AQK;00;HG;0;Close to structure;Tunnel;Building basement;42.344967;13.400949;726;NO;vs_profile;B;705;59.27050775583;165.724812548972;;;0;E;N;Z;manual (Paolucci et al 2011);1.218458;-1.190342;1.024961;0.1;0.1;0.1;30;30;30;1.207081;-1.153743;1.00995;0.098492;0.113982;-0.103124;24.34;23.41;28.5;0.00327427276561;0.00450901613773;0.00301620909306;1.57178;3.23491;3.27768;4.59129;1.7908;1.37236;0.814216;0.284317;0.065489;1.80963;4.20761;3.03251;4.31057;1.79635;2.20024;0.736173;0.267083;0.051448;1.25122;3.34157;2.8707;3.79256;2.08897;1.33349;0.242335;0.094601;0.034223;http://www.mot1.it/randownload/
EMSC-20161026_0000077;2016-10-26T17:10:37;8663031;42.88834;13.13969;3.421;Spallarossa_et_al_2021;NF;None;5.23;Spallarossa_et_al_2021;5.5;Pondrelli_et_al_2002_dataset;IT;AQK;00;HG;0;Close to structure;Tunnel;Building basement;42.344967;13.400949;726;NO;vs_profile;B;705;64.05370243869;160.360517190064;60.27654659195;60.5845865319365;0;E;N;Z;manual (Paolucci et al 2011);8.632327;11.667272;-7.500191;0.1;0.1;0.1;30;30;30;8.627273;11.617904;-7.490582;-0.772895;-1.02779;0.637759;29.73;29.66;25.965;0.139822316577;0.211690405199;0.181453515886;9.15072;12.696;14.6204;19.7451;19.9433;9.74596;5.73308;2.00866;0.436253;15.3736;13.6714;29.7212;21.4566;26.8506;12.6356;5.44537;2.90694;0.661101;8.13323;13.7371;17.4643;16.5992;34.8135;11.6366;1.1801;1.17913;0.424675;http://www.mot1.it/randownload/
EMSC-20161026_0000095;2016-10-26T19:18:06;8669321;42.91014;13.1406;2.122;Spallarossa_et_al_2021;NF;Chiaraluce_et_al_2017;5.58;Spallarossa_et_al_2021;5.9;TDMT-INGV;IT;AQK;00;HG;0;Close to structure;Tunnel;Building basement;42.344967;13.400949;726;NO;vs_profile;B;705;66.31551286653;161.124854088209;59.14206896376;59.3229957108452;0;E;N;Z;manual (Paolucci et al 2011);-14.6143;-13.416677;9.001952;0.1;0.1;0.1;30;30;30;-14.608285;-13.366027;8.983724;-2.199177;2.589082;1.436804;38.1;39.54;31.44;0.651511988829;0.771622450656;0.319365104652;15.8207;18.5677;17.7229;24.5203;22.1208;32.0605;21.9804;10.7183;1.80735;14.5908;20.661;20.219;31.6789;27.388;32.047;16.3666;10.9354;1.72491;9.95107;14.4779;17.4863;22.266;27.7583;26.2276;6.26393;4.65712;1.29071;http://www.mot1.it/randownload/
EMSC-20161026_0000133;2016-10-26T21:42:02;8676191;42.87009;13.12724;5.28;Spallarossa_et_al_2021;NF;None;4.53;Spallarossa_et_al_2021;4.5;TDMT-INGV;IT;AQK;00;HG;0;Close to structure;Tunnel;Building basement;42.344967;13.400949;726;NO;vs_profile;B;705;62.50774254915;158.849103792526;61.12880956575;61.9941244543455;0;E;N;Z;manual (Paolucci et al 2011);1.119011;-1.610119;-1.243792;0.1;0.1;0.1;30;30;30;1.108213;-1.580133;-1.226224;-0.105734;-0.133492;0.07313;29.99;29.86;27.21;0.00356802298471;0.00522661846203;0.00409613271837;1.63492;2.64084;2.8408;2.6134;1.95749;1.67325;0.796847;0.206574;0.074963;3.02031;4.58056;2.76548;2.90445;3.73903;1.4279;0.790353;0.333659;0.067332;1.72474;2.16708;4.1033;2.63908;3.36906;1.18693;0.157564;0.145708;0.044319;http://www.mot1.it/randownload/
EMSC-20161030_0000029;2016-10-30T06:40:18;8863681;42.83794;13.12324;6.169;Spallarossa_et_al_2021;NF;Pizzi_et_el_2017;5.51;Spallarossa_et_al_2021;6.6;Pondrelli_et_al_2002_dataset;IT;AQK;00;HG;0;Close to structure;Tunnel;Building basement;42.344967;13.400949;726;NO;vs_profile;B;705;59.3162219183;157.306841477659;33.97369322014;34.2215851814909;0;E;N;Z;manual (Paolucci et al 2011);61.466034;-67.154198;-42.051273;0.03;0.03;0.03;30;30;30;61.444631;-67.094311;-41.59717;13.534635;-14.74944;4.790536;12.96;18.015;25.52;11.3899352216;15.4332948583;3.00974827763;62.8808;65.6794;92.3577;94.0284;118.022;109.064;192.222;30.2428;9.80633;66.4544;93.0146;144.656;142.191;119.07;177.367;170.82;35.3379;14.6934;53.0933;69.64;81.3934;78.328;73.062;63.5062;37.5038;12.1399;7.48983;http://www.mot1.it/randownload/
EMSC-20161030_0000033;2016-10-30T07:13:06;8865281;42.70791;13.23236;5.749;Spallarossa_et_al_2021;;;4.21;Spallarossa_et_al_2021;;;IT;AQK;00;HG;0;Close to structure;Tunnel;Building basement;42.344967;13.400949;726;NO;vs_profile;B;705;42.63021344307;160.981411982454;;;0;E;N;Z;manual (Paolucci et al 2011);-2.759315;2.949764;-2.325102;0.1;0.1;0.1;30;30;30;-2.763772;2.853568;-2.321061;0.105068;0.122849;0.141283;15.82;15.21;16.155;0.00710999508472;0.0111487979874;0.00912317566684;4.82195;7.66793;4.64732;4.21996;3.17495;0.971508;0.555188;0.12495;0.039981;5.74134;8.22917;7.01571;6.6115;3.91772;1.24062;0.380679;0.091082;0.035605;4.12814;5.61512;6.99556;5.65138;6.48482;1.78706;0.196606;0.088674;0.035184;http://www.mot1.it/randownload/
EMSC-20161030_0000037;2016-10-30T07:07:54;8864991;42.7282;13.20188;7.054;Spallarossa_et_al_2021;;;3.98;Spallarossa_et_al_2021;;;IT;AQK;00;HG;0;Close to structure;Tunnel;Building basement;42.344967;13.400949;726;NO;vs_profile;B;705;45.60401611561;158.918252856095;;;0;E;N;Z;manual (Paolucci et al 2011);1.046032;-1.225717;-0.91456;0.15;0.15;0.15;30;30;30;1.019951;-1.206226;-0.885265;0.059578;0.074561;0.063491;18.7;18.61;19.21;0.00126004266778;0.00180893815456;0.00162519711465;2.54276;2.12891;3.3424;2.52745;1.38441;0.82632;0.267731;0.060304;0.020846;1.9797;1.82355;2.49246;2.31693;2.4401;0.930432;0.294881;0.064348;0.018931;1.49205;2.45118;2.65876;2.12481;2.32605;0.9251;0.116527;0.036951;0.014714;http://www.mot1.it/randownload/
EMSC-20161030_0000130;2016-10-30T11:58:18;8881771;42.84816;13.06011;8.814;Spallarossa_et_al_2021;NF;;3.85;Spallarossa_et_al_2021;4;TDMT-INGV;IT;AQK;00;HG;0;Close to structure;Tunnel;Building basement;42.344967;13.400949;726;NO;vs_profile;B;705;62.50589059487;153.299038064508;;;0;E;N;Z;manual (Paolucci et al 2011);1.289505;1.543248;-1.08273;0.15;0.15;0.15;30;30;30;1.231187;1.498549;-1.031957;0.032695;-0.048062;0.033192;14.91;15.41;17.545;0.00133902367964;0.00205073289535;0.00137695264948;2.58544;5.10583;2.49115;1.64739;0.84565;0.547953;0.10693;0.030929;0.010117;3.55265;4.62636;2.42058;2.6393;1.50646;0.505076;0.179624;0.048044;0.013595;1.71584;3.52054;4.13768;1.7983;1.6257;0.472723;0.042105;0.017971;0.008821;http://www.mot1.it/randownload/
EMSC-20161030_0000135;2016-10-30T12:07:01;8882341;42.84012;13.07929;6.839;Spallarossa_et_al_2021;NF;None;4.45;Spallarossa_et_al_2021;4.5;TDMT-INGV;IT;AQK;00;HG;0;Close to structure;Tunnel;Building basement;42.344967;13.400949;726;NO;vs_profile;B;705;61.01176241454;154.250765333086;60.37120222259;61.0424397543473;0;E;N;Z;manual (Paolucci et al 2011);1.334122;-1.355277;-0.997176;0.1;0.1;0.1;30;30;30;1.308089;-1.345646;-0.984502;-0.063065;-0.082601;-0.051646;24.455;21.275;22.885;0.00234873461964;0.0031506328836;0.00251734487097;2.50688;3.55624;2.54778;2.37694;2.22323;0.916357;0.281131;0.120614;0.029377;2.89049;3.31136;2.06328;1.98508;1.70805;1.2747;0.371947;0.137082;0.033958;1.97959;2.24262;2.94172;1.94574;1.39843;1.27609;0.14307;0.066013;0.021634;http://www.mot1.it/randownload/
EMSC-20161030_0000170;2016-10-30T13:34:55;8887571;42.80688;13.17157;4.938;Spallarossa_et_al_2021;NF;;4.25;Spallarossa_et_al_2021;4.1;TDMT-INGV;IT;AQK;00;HG;0;Close to structure;Tunnel;Building basement;42.344967;13.400949;726;NO;vs_profile;B;705;54.65793294825;159.768575214675;;;0;E;N;Z;manual (Paolucci et al 2011);1.026249;1.429926;1.533787;0.1;0.1;0.1;30;30;30;1.020718;-1.420181;1.529884;0.119145;-0.147247;0.148473;21.805;18.195;18.875;0.00286458943752;0.00457958253276;0.00519665542639;1.28324;2.19154;2.0268;3.45559;2.38438;1.43166;0.616382;0.127131;0.039138;2.03132;2.45041;2.82582;4.09933;4.70913;1.44187;0.360568;0.12465;0.044413;1.5718;1.90554;2.55695;3.59525;7.23048;1.83745;0.210312;0.087508;0.031865;http://www.mot1.it/randownload/
EMSC-20161031_0000053;2016-10-31T03:27:41;8936321;42.76683;13.08911;6.825;Spallarossa_et_al_2021;NF;;4.31;Spallarossa_et_al_2021;4.1;Pondrelli_et_al_2002_dataset;IT;AQK;00;HG;0;Close to structure;Tunnel;Building basement;42.344967;13.400949;726;NO;vs_profile;B;705;53.40349883467;151.23803535811;;;0;E;N;Z;manual (Paolucci et al 2011);0.916019;-1.108243;-0.988447;0.15;0.15;0.15;30;30;30;0.901841;-1.092304;-0.976489;0.058834;-0.058308;0.046816;20.345;19.625;25.715;0.00197324734064;0.0021271285954;0.00191594389161;2.19992;2.97897;2.05691;1.49103;1.79286;1.16434;0.242136;0.050304;0.021714;3.13443;2.26212;2.8338;2.58441;1.59933;0.792346;0.429222;0.081728;0.028077;2.46642;2.66409;2.84573;2.64301;1.73672;0.772441;0.102931;0.031128;0.012464;http://www.mot1.it/randownload/
EMSC-20161101_0000060;2016-11-01T07:56:40;9033461;42.9902;13.1345;8.3;Spallarossa_et_al_2021;NF;None;4.7;Spallarossa_et_al_2021;4.8;TDMT-INGV;IT;AQK;00;HG;0;Close to structure;Tunnel;Building basement;42.344967;13.400949;726;NO;vs_profile;B;705;74.93086051497;162.961110000648;73.66311328501;74.0931751722778;0;E;N;Z;manual (Paolucci et al 2011);1.794195;-1.881094;1.764871;0.1;0.1;0.1;30;30;30;1.776708;-1.847037;1.760626;-0.22702;-0.213234;0.189981;23.725;24.665;24.995;0.00795831758942;0.0102519184406;0.0106321778885;2.70132;4.38946;4.79293;2.8685;3.79798;2.63962;2.10824;0.364908;0.138429;3.03724;5.06688;4.98276;4.69962;4.443;3.6183;1.44604;0.4543;0.10776;2.31448;3.77346;3.92215;4.49406;4.06631;3.9979;0.394064;0.209174;0.117556;http://www.mot1.it/randownload/
EMSC-20161103_0000003;2016-11-03T00:35:02;9166761;43.03575;13.06353;6.743;Spallarossa_et_al_2021;NF;None;4.8;Spallarossa_et_al_2021;4.7;TDMT-INGV;IT;AQK;00;HG;0;Close to structure;Tunnel;Building basement;42.344967;13.400949;726;NO;vs_profile;B;705;81.56650108333;160.069403776869;80.02368188303;80.3403917897121;0;E;N;Z;manual (Paolucci et al 2011);-1.481716;1.983569;-1.452315;0.1;0.1;0.1;30;30;30;-1.476287;1.979067;-1.430725;0.168012;0.205926;-0.116995;29.08;23.975;29.435;0.00563875852443;0.00912316616284;0.00731018200108;1.98979;3.31329;2.87289;3.33611;4.4876;2.19863;1.08236;0.267472;0.102312;2.74282;5.32747;4.31455;3.90886;4.06323;2.71965;1.15394;0.504637;0.097983;2.06234;3.36441;4.32837;2.75099;3.41613;2.58583;0.268955;0.163502;0.078662;http://www.mot1.it/randownload/
EMSC-20161112_0000066;2016-11-12T14:43:34;9759131;42.72725;13.21215;3.718;Spallarossa_et_al_2021;NF;;4.17;Spallarossa_et_al_2021;4.1;TDMT-INGV;IT;AQK;00;HG;0;Close to structure;Tunnel;Building basement;42.344967;13.400949;726;NO;vs_profile;B;705;45.20921344846;159.871805587316;;;0;E;N;Z;manual (Paolucci et al 2011);0.756912;-1.160906;0.848733;0.1;0.1;0.1;40;40;40;0.753943;-1.144753;0.83669;0.083073;-0.103343;0.062829;23.735;22.175;23.23;0.00130751410939;0.00292806631088;0.00167869407658;1.73772;1.81089;1.57711;1.51704;1.84653;0.987919;0.531779;0.11418;0.028956;3.12019;3.0858;1.58354;1.88417;2.3042;1.19745;0.532206;0.194808;0.044127;1.7825;2.25902;1.75958;1.33848;1.6912;1.22072;0.150411;0.086807;0.02072;http://www.mot1.it/randownload/
