esm_event_id;event_time;ingv_event_id;ev_latitude;ev_longitude;ev_depth_km;ev_hyp_ref;fm_type_code;fm_ref;ml;ml_ref;mw;mw_ref;network_code;station_code;location_code;channel_code;sensor_depth_m;proximity;housing;installation;st_latitude;st_longitude;st_elevation;reference_site;preferred_estimation_method_vs30_ec8;preferred_ec8_code;preferred_vs30_m_s;epi_dist;epi_az;jb_dist;rup_dist;late_triggered_event_01;u_channel_code;v_channel_code;w_channel_code;processing_type;u_un_pga;v_un_pga;w_un_pga;u_hp;v_hp;w_hp;u_lp;v_lp;w_lp;u_pga;v_pga;w_pga;u_pgv;v_pgv;w_pgv;u_t90;v_t90;w_t90;u_ia;v_ia;w_ia;u_t0_050;u_t0_100;u_t0_200;u_t0_300;u_t0_500;u_t1_000;u_t2_000;u_t3_000;u_t5_000;v_t0_050;v_t0_100;v_t0_200;v_t0_300;v_t0_500;v_t1_000;v_t2_000;v_t3_000;v_t5_000;w_t0_050;w_t0_100;w_t0_200;w_t0_300;w_t0_500;w_t1_000;w_t2_000;w_t3_000;w_t5_000;original_data_mediator
EMSC-20160824_0000006;2016-08-24T01:36:32;7073641;42.6983;13.2335;8.1;Spallarossa_et_al_2021;NF;Tinti_2016;6;Spallarossa_et_al_2021;6;TDMT-INGV;MN;AQU;;HL;0;Inside structure;Building;;42.354;13.405;710;Not analized;geology;B;;40.75931600464;159.716342022437;33.62449327917;34.3652362982803;0;E;N;Z;manual (Paolucci et al 2011);23.132524;-25.56337;12.860517;0.03;0.03;0.03;30;30;30;23.084264;-25.342439;12.829312;3.246154;4.288045;2.196417;28.51;24.79;17.98;1.14912716338;1.27132172159;0.508768445138;24.8768;34.601;34.8936;31.1705;41.5977;47.0381;30.3493;13.0125;3.98904;28.2546;32.1798;55.7393;71.7963;40.9089;32.2353;25.9536;9.5716;3.39756;15.1991;25.668;28.9869;33.6389;27.1769;42.7641;11.4369;10.0587;3.4657;webdc.eu
EMSC-20160824_0000007;2016-08-24T01:56:01;7074171;42.61711;13.29049;1.65;Spallarossa_et_al_2021;NF;;4.49;Spallarossa_et_al_2021;4.3;TDMT-INGV;MN;AQU;;HL;0;Inside structure;Building;;42.354;13.405;710;Not analized;geology;B;;30.70591927646;162.106198639893;;;0;E;N;Z;manual (Paolucci et al 2011);-1.632693;-2.086169;-1.421216;0.1;0.1;0.1;40;40;40;-1.642019;-2.079325;-1.418034;0.187651;-0.144532;0.104166;20.475;12.86;20.275;0.0058121092637;0.00735139253918;0.00296023467693;2.1242;5.61952;4.0706;4.81583;2.9126;2.17387;1.14578;0.405344;0.10835;2.73475;5.16243;5.87853;5.52055;3.93268;2.2275;0.720806;0.325806;0.079257;1.57449;2.4854;4.64999;3.82702;2.20729;1.89751;0.428889;0.315855;0.070863;http://webservices.rm.ingv.it/
EMSC-20160824_0000010;2016-08-24T02:05:55;7074621;42.6162;13.2812;6.7;INGV-BULLETIN;;;3.9;INGV-BULLETIN;;;MN;AQU;;HL;0;Inside structure;Building;;42.354;13.405;710;Not analized;geology;B;;30.85322722553;160.695129744838;;;0;E;N;Z;manual (Paolucci et al 2011);-0.553321;0.563212;-0.327438;0.1;0.1;0.1;30;30;30;-0.550397;0.554484;-0.323621;0.031202;-0.039151;-0.021738;17.69;15.905;20.51;0.000410158913084;0.000525389583965;0.000216003877712;0.692242;1.399;1.41069;1.06899;0.644861;0.407975;0.110549;0.05312;0.016808;0.695535;1.47228;1.8374;1.28025;1.04718;0.316033;0.081219;0.045957;0.009464;0.424679;0.806943;1.24474;0.762674;0.390428;0.401749;0.07271;0.04422;0.013413;http://webservices.rm.ingv.it/
EMSC-20160824_0000011;2016-08-24T02:07:30;7074701;42.6632;13.2957;6.4;INGV-BULLETIN;;;3.8;INGV-BULLETIN;;;MN;AQU;;HL;0;Inside structure;Building;;42.354;13.405;710;Not analized;geology;B;;35.50220262469;165.306174257818;;;0;E;N;Z;manual (Paolucci et al 2011);0.166828;-0.180081;-0.107939;0.15;0.15;0.15;25;25;25;0.166253;-0.176626;-0.105397;-0.017393;0.017129;0.012318;25.79;29.835;28.445;7.21944775047e-05;7.24439666628e-05;3.54439247613e-05;0.195754;0.265101;0.334894;0.27631;0.424561;0.232251;0.115303;0.03846;0.008647;0.183941;0.320264;0.343623;0.369466;0.267686;0.271237;0.136701;0.036442;0.008167;0.133105;0.182412;0.318102;0.165996;0.255731;0.211561;0.081818;0.030293;0.005312;http://webservices.rm.ingv.it/
EMSC-20160824_0000013;2016-08-24T02:33:29;7076161;42.79802;13.16114;6.326;Spallarossa_et_al_2021;NF;None;5.25;Spallarossa_et_al_2021;5.5;Pondrelli_et_al_2002_dataset;MN;AQU;;HL;0;Inside structure;Building;;42.354;13.405;710;Not analized;geology;B;;53.23207419975;157.824941612229;50.29906714582;51.122766979378;0;E;N;Z;manual (Paolucci et al 2011);5.235411;6.727761;3.438774;0.05;0.05;0.05;50;50;50;5.221988;6.650791;3.432568;-1.476379;-1.068312;-0.702736;20.41;24.42;26.79;0.1206820872;0.121691662841;0.0477519202528;6.72606;13.637;10.9005;14.238;9.72751;12.3223;14.5569;5.57977;1.35974;8.22227;13.3413;14.7149;26.6873;9.58362;14.1596;9.83566;3.18142;1.35099;4.5583;6.37266;7.44176;5.83938;5.45491;9.62029;4.03488;3.475;1.0389;webdc.eu
EMSC-20160824_0000020;2016-08-24T02:59:35;7077321;42.7987;13.1313;6.7;INGV-BULLETIN;NF;;4.1;INGV-BULLETIN;3.9;TDMT-INGV;MN;AQU;;HL;0;Inside structure;Building;;42.354;13.405;710;Not analized;geology;B;;54.2697064202;155.447730160629;;;0;E;N;Z;manual (Paolucci et al 2011);-0.406591;-0.536676;0.285492;0.15;0.15;0.15;30;30;30;-0.415263;-0.527958;0.279416;0.015756;0.018004;-0.010411;19.88;15.89;21.225;0.000256090378628;0.000318828422626;0.000116403784461;0.49613;0.854503;1.87718;0.76171;0.399022;0.165017;0.062447;0.029961;0.005753;0.571152;0.907009;1.85184;0.787894;0.442241;0.206434;0.050207;0.026188;0.009266;0.356831;0.691859;0.70643;0.365637;0.26805;0.177151;0.030613;0.01219;0.00602;webdc.eu
EMSC-20160824_0000024;2016-08-24T03:08:10;7077781;42.6237;13.2518;10.6;INGV-BULLETIN;NF;;4;EMSC-CSEM;3.7;TDMT-INGV;MN;AQU;;HL;0;Inside structure;Building;;42.354;13.405;710;Not analized;geology;B;;32.49891420492;157.145775352206;;;0;E;N;Z;manual (Paolucci et al 2011);0.284955;0.431077;0.222904;0.15;0.15;0.15;30;30;30;-0.274294;0.379319;0.197133;-0.011409;-0.011372;0.009824;21.17;20.24;23.62;0.000121885377594;0.000141075295546;6.30162583051e-05;0.625838;0.983531;0.577353;0.337908;0.270667;0.153;0.074816;0.01868;0.004324;0.910104;1.02108;0.670939;0.41551;0.250248;0.181661;0.0537;0.012962;0.003967;0.569573;0.697589;0.430742;0.24317;0.170888;0.195793;0.024266;0.011696;0.003284;webdc.eu
EMSC-20160824_0000036;2016-08-24T03:40:11;7079501;42.63237;13.26442;8.021;Spallarossa_et_al_2021;NF;;4.21;Spallarossa_et_al_2021;4.1;TDMT-INGV;MN;AQU;;HL;0;Inside structure;Building;;42.354;13.405;710;Not analized;geology;B;;33.01116663078;159.459842864533;;;0;E;N;Z;manual (Paolucci et al 2011);-1.868767;1.667772;-0.899869;0.15;0.15;0.15;40;40;40;-1.784509;-1.601462;-0.865091;-0.039784;0.045264;-0.035016;15.52;14.16;18.775;0.00232276841825;0.00261521443116;0.000778919227234;2.98966;7.15539;2.1095;2.22069;1.03579;0.601698;0.26093;0.060248;0.015173;3.69377;7.58948;1.89021;1.89195;0.92125;0.500766;0.18324;0.045435;0.010664;1.89495;2.76553;1.05426;1.14141;0.831148;0.876313;0.094516;0.043325;0.013974;webdc.eu
EMSC-20160824_0000050;2016-08-24T04:06:52;7081331;42.78168;13.14185;1.842;Spallarossa_et_al_2021;NF;;4.39;Spallarossa_et_al_2021;4.4;TDMT-INGV;MN;AQU;;HL;0;Inside structure;Building;;42.354;13.405;710;Not analized;geology;B;;52.19126174454;155.454480154275;;;0;E;N;Z;manual (Paolucci et al 2011);-1.135736;-1.250288;0.546134;0.07;0.07;0.07;40;40;40;-1.141648;-1.236955;0.539767;-0.093138;-0.062304;0.039199;20.97;23.89;29.985;0.00217532851733;0.00187234149563;0.000679669400187;1.29782;4.79401;3.10217;3.08309;1.52851;1.01284;0.432619;0.24057;0.038252;1.6331;2.80243;3.0578;2.65297;1.42593;0.725144;0.403697;0.178557;0.054137;0.701806;1.38749;1.90355;1.53513;0.716255;0.617027;0.249149;0.11797;0.03378;webdc.eu
EMSC-20160824_0000172;2016-08-24T11:50:31;7105011;42.82622;13.16594;8.917;Spallarossa_et_al_2021;NF;None;4.74;Spallarossa_et_al_2021;4.5;TDMT-INGV;MN;AQU;;HL;0;Inside structure;Building;;42.354;13.405;710;Not analized;geology;B;;56.00627992961;159.409833970772;54.4448467431;55.3952179420354;0;E;N;Z;manual (Paolucci et al 2011);1.100433;1.178195;-0.657697;0.1;0.1;0.1;30;30;30;1.080322;1.157261;-0.64127;-0.116501;0.074227;-0.067398;30.07;29.565;31.765;0.00241219744521;0.00238555273369;0.00122598769946;1.6935;3.63419;3.72107;1.96474;1.33554;1.31113;0.816767;0.196479;0.06332;2.16039;3.36892;3.22198;1.80294;1.81088;0.889036;0.440461;0.169253;0.058877;0.968999;2.03036;2.16919;1.23504;0.951995;1.8667;0.213279;0.13933;0.041621;webdc.eu
EMSC-20160824_0000192;2016-08-24T14:02:20;7112411;42.7997;13.2403;8.3;INGV-BULLETIN;NF;;4;EMSC-CSEM;3.8;TDMT-INGV;MN;AQU;;HL;0;Inside structure;Building;;42.354;13.405;710;Not analized;geology;B;;51.32354022173;164.668913010497;;;0;E;N;Z;manual (Paolucci et al 2011);-0.108323;-0.132095;0.06556;0.15;0.15;0.15;30;30;30;-0.104524;-0.130322;0.065149;-0.012043;-0.010013;0.010219;37.055;33.4;33.51;3.96838463151e-05;3.9336967374e-05;1.6606811497e-05;0.189108;0.277602;0.36975;0.203478;0.170875;0.180751;0.119928;0.057026;0.016905;0.173639;0.30509;0.337727;0.177891;0.150091;0.175544;0.077067;0.048468;0.009326;0.100757;0.157144;0.202844;0.132519;0.127147;0.213109;0.057151;0.022691;0.007022;webdc.eu
EMSC-20160824_0000232;2016-08-24T17:46:10;7122651;42.66765;13.21176;8.985;Spallarossa_et_al_2021;NF;;4.53;Spallarossa_et_al_2021;4.2;TDMT-INGV;MN;AQU;;HL;0;Inside structure;Building;;42.354;13.405;710;Not analized;geology;B;;38.29006545183;155.43013712346;;;0;E;N;Z;manual (Paolucci et al 2011);1.230934;-1.269017;-0.648958;0.15;0.15;0.15;30;30;30;1.200186;-1.194193;-0.636824;0.055748;-0.045509;-0.026774;23.64;18.615;24.64;0.00157196340459;0.00190149859721;0.000682688211022;1.71803;3.08084;2.98277;2.84626;1.20784;0.935064;0.236756;0.07952;0.021863;1.67896;2.69668;3.21929;3.10161;1.62801;0.46399;0.200101;0.06467;0.019419;1.10875;1.29488;1.74538;1.08039;1.03124;0.547699;0.109601;0.037967;0.016084;webdc.eu
EMSC-20160824_0000295;2016-08-24T23:22:06;7141891;42.66057;13.21581;9.177;Spallarossa_et_al_2021;NF;;3.58;Spallarossa_et_al_2021;4;TDMT-INGV;MN;AQU;;HL;0;Inside structure;Building;;42.354;13.405;710;Not analized;geology;B;;37.43673517628;155.394568268768;;;0;E;N;Z;manual (Paolucci et al 2011);2.173969;2.894158;1.516825;0.15;0.15;0.15;30;30;30;2.195619;2.747745;1.430209;0.051621;0.08855;-0.036755;8.415;6.475;8.87;0.00396874136433;0.00583500631263;0.00151872744045;4.21024;7.26888;6.08581;2.69069;1.08839;0.545484;0.154584;0.036795;0.013181;4.5394;7.47459;8.2639;4.99058;1.80386;0.351035;0.117828;0.040332;0.012742;3.84375;3.72771;3.13965;1.77694;1.08834;0.35542;0.071764;0.027061;0.009186;http://webservices.rm.ingv.it/
EMSC-20160825_0000024;2016-08-25T03:17:17;7154631;42.75497;13.20164;5.779;Spallarossa_et_al_2021;NF;;4.65;Spallarossa_et_al_2021;4.3;TDMT-INGV;MN;AQU;;HL;0;Inside structure;Building;;42.354;13.405;710;Not analized;geology;B;;47.56962453682;159.376874971651;;;0;E;N;Z;manual (Paolucci et al 2011);1.224493;-1.130842;-0.480914;0.1;0.1;0.1;30;30;30;1.184088;-1.112797;-0.47614;0.059581;-0.058851;-0.045456;24.615;20.805;24.975;0.00145967517213;0.00170300684293;0.000646769552409;1.51579;2.20862;2.44873;1.89488;1.21732;0.797089;0.433819;0.148765;0.042002;1.76788;2.52138;2.29096;1.6734;1.12012;0.690608;0.404474;0.1204;0.047329;1.11045;1.3527;1.31946;0.949196;0.784813;1.11673;0.16577;0.089625;0.027578;webdc.eu
EMSC-20160825_0000096;2016-08-25T12:36:06;7182461;42.60539;13.29141;8.145;Spallarossa_et_al_2021;NF;;4.53;Spallarossa_et_al_2021;4.4;TDMT-INGV;MN;AQU;;HL;0;Inside structure;Building;;42.354;13.405;710;Not analized;geology;B;;29.44561076294;161.468244609521;;;0;E;N;Z;manual (Paolucci et al 2011);0.854602;-0.931245;0.571097;0.06;0.06;0.06;30;30;30;0.852942;-0.890467;0.541572;-0.07636;0.064226;0.049132;24.34;20.175;27.745;0.00137292697662;0.00148784138575;0.000759559538013;1.3604;1.87843;1.96062;1.44218;1.5949;0.846175;0.249563;0.145085;0.051599;1.34156;2.35631;2.20101;2.14833;1.33332;0.929943;0.176577;0.100976;0.032784;0.775167;1.2262;1.40286;0.928136;0.913895;0.88162;0.157544;0.121513;0.041688;webdc.eu
EMSC-20160826_0000013;2016-08-26T04:28:26;7224451;42.61152;13.2953;9.054;Spallarossa_et_al_2021;NF;;4.78;Spallarossa_et_al_2021;4.8;TDMT-INGV;MN;AQU;;HL;0;Inside structure;Building;;42.354;13.405;710;Not analized;geology;B;;29.99430538245;162.46244824365;;;0;E;N;Z;manual (Paolucci et al 2011);-3.037498;-3.945767;-1.943506;0.06;0.06;0.06;30;30;30;-3.038028;-3.926579;-1.93953;-0.257429;0.197507;-0.133794;19.765;12.575;18.81;0.0146607006438;0.0193907070303;0.00744981911852;3.58683;6.54458;7.00522;8.89999;6.8268;3.58076;1.72933;0.714327;0.197143;4.22344;8.68434;9.46247;8.82288;6.10791;2.97319;1.06992;0.454675;0.118167;2.39893;3.82916;5.43318;8.22781;4.20396;2.51633;0.571943;0.466588;0.157817;webdc.eu
EMSC-20160915_0000064;2016-09-15T14:40:52;8034701;42.768;13.1335;9.2;INGV-BULLETIN;NF;;3.9;INGV-BULLETIN;3.7;TDMT-INGV;MN;AQU;;HL;0;Inside structure;Building;;42.354;13.405;710;Not analized;geology;B;;51.10820120577;154.04405492308;;;0;E;N;Z;manual (Paolucci et al 2011);0.164597;0.185387;0.113971;0.1;0.1;0.1;30;30;30;0.163019;0.183924;0.113414;-0.032341;-0.023362;-0.020241;28.62;31.835;33.395;0.000142100094145;0.00012959972569;5.91828838165e-05;0.181281;0.300718;0.424294;0.438418;0.389094;0.577847;0.297372;0.115314;0.017058;0.201054;0.416521;0.496842;0.497693;0.320159;0.315839;0.314819;0.095794;0.017963;0.130292;0.222207;0.193597;0.337438;0.237522;0.36285;0.13065;0.037187;0.007861;http://webservices.rm.ingv.it/
EMSC-20160919_0000098;2016-09-19T23:34:26;8128111;42.68359;13.28497;3.537;Spallarossa_et_al_2021;NF;;4.04;Spallarossa_et_al_2021;3.7;TDMT-INGV;MN;AQU;;HL;0;Inside structure;Building;;42.354;13.405;710;Not analized;geology;B;;37.91730050563;164.881699829583;;;0;E;N;Z;manual (Paolucci et al 2011);0.265782;0.367693;0.179348;0.15;0.15;0.15;30;30;30;0.266479;0.361819;0.175123;0.021805;-0.02652;-0.020106;23.27;20.17;23.265;0.000215157762767;0.000332901718333;0.000109093854796;0.355749;0.639821;0.568516;0.874161;0.588116;0.428479;0.152515;0.041019;0.014496;0.477705;0.911618;0.844259;1.40175;1.18857;0.290183;0.105169;0.03772;0.011189;0.24835;0.465791;0.519167;0.482155;0.638624;0.381233;0.054208;0.020332;0.007164;http://webservices.rm.ingv.it/
EMSC-20161026_0000077;2016-10-26T17:10:37;8663031;42.88834;13.13969;3.421;Spallarossa_et_al_2021;NF;None;5.23;Spallarossa_et_al_2021;5.5;Pondrelli_et_al_2002_dataset;MN;AQU;;HL;0;Inside structure;Building;;42.354;13.405;710;Not analized;geology;B;;63.22218057952;159.772322623655;59.44849338405;59.7458690535433;0;E;N;Z;manual (Paolucci et al 2011);4.518462;-7.943523;-3.028522;0.07;0.07;0.07;30;30;30;4.527079;-7.898971;-3.043967;-0.428737;-0.371174;-0.336193;27.795;22.345;33.16;0.0485297644974;0.0767310165618;0.0159310011421;4.78135;8.68496;9.89182;19.7477;10.1201;4.17733;2.50378;1.89697;0.492506;8.38818;9.81268;19.4177;24.8723;9.38572;4.10189;3.03006;2.59418;0.614003;3.46334;5.64747;6.05663;6.88347;6.35971;3.39605;1.24694;1.26766;0.421466;webdc.eu
EMSC-20161026_0000095;2016-10-26T19:18:06;8669321;42.91014;13.1406;2.122;Spallarossa_et_al_2021;NF;Chiaraluce_et_al_2017;5.58;Spallarossa_et_al_2021;5.9;TDMT-INGV;MN;AQU;;HL;0;Inside structure;Building;;42.354;13.405;710;Not analized;geology;B;;65.47518947934;160.566688603374;58.32165731331;58.4678252970639;0;E;N;Z;manual (Paolucci et al 2011);-9.220416;6.479413;4.925307;0.05;0.05;0.05;30;30;30;-9.144163;6.428468;4.914618;-1.332312;1.100579;-0.92603;34.745;35.94;34.69;0.175923015924;0.168974172823;0.0705807566094;9.81705;13.1844;21.3109;25.8204;15.0372;13.0356;11.4705;9.88675;2.10056;7.69844;11.5339;15.3493;15.2525;12.7192;14.1383;8.30138;8.4201;1.56268;5.03253;7.60124;6.97457;9.31959;9.15127;12.8313;5.87835;5.33985;1.42293;webdc.eu
EMSC-20161026_0000099;2016-10-26T19:43:44;8670551;42.89699;13.07768;5.974;Spallarossa_et_al_2021;;;3.87;Spallarossa_et_al_2021;;;MN;AQU;;HL;0;Inside structure;Building;;42.354;13.405;710;Not analized;geology;B;;66.02483810679;155.892138604017;;;0;E;N;Z;manual (Paolucci et al 2011);-0.160445;0.146035;0.094694;0.2;0.2;0.2;30;30;30;-0.155635;0.138311;0.090247;0.00504;-0.005193;-0.003024;23.255;25.22;26.535;3.94099407269e-05;3.8332738073e-05;1.33141880843e-05;0.271447;0.562755;0.481527;0.287049;0.176011;0.046011;0.019358;0.006088;0.00229;0.209477;0.393835;0.422006;0.230651;0.124376;0.056806;0.0216;0.011934;0.002477;0.146215;0.358507;0.213854;0.140662;0.072666;0.038344;0.009461;0.007029;0.001562;http://webservices.rm.ingv.it/
EMSC-20161026_0000129;2016-10-26T21:24:52;8675281;42.87452;13.0807;6.166;Spallarossa_et_al_2021;;;3.86;Spallarossa_et_al_2021;;;MN;AQU;;HL;0;Inside structure;Building;;42.354;13.405;710;Not analized;geology;B;;63.6505304928;155.179152307324;;;0;E;N;Z;manual (Paolucci et al 2011);-0.387611;-0.344536;-0.216368;0.15;0.15;0.15;30;30;30;-0.365958;-0.330249;-0.209861;0.00727;0.00921;-0.005398;20.96;15.805;20.645;8.90436355255e-05;0.000132320393203;4.51371692337e-05;0.632207;0.81881;0.542409;0.348277;0.171738;0.080803;0.039139;0.007229;0.002376;0.538174;0.925522;0.888907;0.389569;0.168566;0.063957;0.035279;0.011345;0.003056;0.350447;0.717382;0.570218;0.240504;0.098927;0.053305;0.010965;0.006135;0.002035;webdc.eu
EMSC-20161026_0000133;2016-10-26T21:42:02;8676191;42.87009;13.12724;5.28;Spallarossa_et_al_2021;NF;None;4.53;Spallarossa_et_al_2021;4.5;TDMT-INGV;MN;AQU;;HL;0;Inside structure;Building;;42.354;13.405;710;Not analized;geology;B;;61.6938456027;158.226207030146;60.32888691822;61.1910480524666;0;E;N;Z;manual (Paolucci et al 2011);1.066108;1.026218;-0.547395;0.1;0.1;0.1;30;30;30;1.037195;1.007303;-0.536803;0.068854;0.060621;-0.032731;26.4;22.465;36.62;0.00181380508598;0.0019337179336;0.00056692504159;1.41851;2.52853;3.60759;2.74026;1.06844;0.705558;0.42691;0.207463;0.063702;1.28941;2.26449;4.54595;2.16747;1.35839;0.751642;0.376503;0.309051;0.043021;0.690849;1.34848;1.41957;1.03189;0.65562;0.686605;0.128368;0.139669;0.037358;webdc.eu
EMSC-20161026_0000171;2016-10-26T23:52:31;8682271;42.84863;13.17052;1.873;Spallarossa_et_al_2021;;;3.39;Spallarossa_et_al_2021;3.6;USGS-webservice;MN;AQU;;HL;0;Inside structure;Building;;42.354;13.405;710;Not analized;geology;B;;58.21802587795;160.619562083593;;;0;E;N;Z;manual (Paolucci et al 2011);-0.065292;-0.086901;-0.051005;0.15;0.15;0.15;30;30;30;-0.063889;-0.087704;-0.048854;0.005481;-0.005293;-0.002518;26.85;22.665;33.195;9.81315545174e-06;1.27174513039e-05;3.84309732932e-06;0.11017;0.170688;0.210196;0.136112;0.104779;0.069577;0.041587;0.010815;0.003498;0.134241;0.207525;0.23551;0.128816;0.169709;0.060596;0.029353;0.016016;0.002788;0.075357;0.166783;0.113809;0.071783;0.060105;0.043239;0.013672;0.009215;0.001198;webdc.eu
EMSC-20161027_0000001;2016-10-27T00:21:30;8683561;43.00114;13.12298;2.054;Spallarossa_et_al_2021;;;3.39;Spallarossa_et_al_2021;;;MN;AQU;;HL;0;Inside structure;Building;;42.354;13.405;710;Not analized;geology;B;;75.51348639405;162.078868899053;;;0;E;N;Z;manual (Paolucci et al 2011);-0.036088;0.032077;0.020693;0.15;0.15;0.15;30;30;30;-0.035806;0.030838;0.02037;0.001997;-0.00204;-0.001194;35.94;36.1;36.66;2.8386164571e-06;3.16408998699e-06;1.27319737154e-06;0.044002;0.088029;0.110921;0.067011;0.043217;0.027563;0.023335;0.008908;0.001829;0.047868;0.082767;0.091451;0.077877;0.043262;0.033869;0.02164;0.007159;0.00184;0.0287;0.072788;0.049976;0.056496;0.02968;0.021032;0.00649;0.004572;0.000947;webdc.eu
EMSC-20161027_0000008;2016-10-27T01:37:05;8687711;42.8442;13.1603;8.9;INGV-BULLETIN;;;3.5;INGV-BULLETIN;;;MN;AQU;;HL;0;Inside structure;Building;;42.354;13.405;710;Not analized;geology;B;;58.03886557855;159.673375660716;;;0;E;N;Z;manual (Paolucci et al 2011);-0.089946;-0.119705;0.046594;0.15;0.15;0.15;30;30;30;-0.086735;-0.11744;0.046232;-0.003359;-0.004963;0.001955;22.72;21.05;29.255;1.42638710387e-05;1.782573791e-05;4.98535763016e-06;0.154389;0.420305;0.308986;0.116712;0.065297;0.05352;0.014217;0.00442;0.001549;0.187165;0.339909;0.339432;0.135586;0.097913;0.043904;0.010996;0.009632;0.001683;0.076459;0.161935;0.116829;0.090128;0.040138;0.025798;0.00582;0.005676;0.001208;webdc.eu
