esm_event_id;event_time;ingv_event_id;ev_latitude;ev_longitude;ev_depth_km;ev_hyp_ref;fm_type_code;fm_ref;ml;ml_ref;mw;mw_ref;network_code;station_code;location_code;channel_code;sensor_depth_m;proximity;housing;installation;st_latitude;st_longitude;st_elevation;reference_site;preferred_estimation_method_vs30_ec8;preferred_ec8_code;preferred_vs30_m_s;epi_dist;epi_az;jb_dist;rup_dist;late_triggered_event_01;u_channel_code;v_channel_code;w_channel_code;processing_type;u_un_pga;v_un_pga;w_un_pga;u_hp;v_hp;w_hp;u_lp;v_lp;w_lp;u_pga;v_pga;w_pga;u_pgv;v_pgv;w_pgv;u_t90;v_t90;w_t90;u_ia;v_ia;w_ia;u_t0_050;u_t0_100;u_t0_200;u_t0_300;u_t0_500;u_t1_000;u_t2_000;u_t3_000;u_t5_000;v_t0_050;v_t0_100;v_t0_200;v_t0_300;v_t0_500;v_t1_000;v_t2_000;v_t3_000;v_t5_000;w_t0_050;w_t0_100;w_t0_200;w_t0_300;w_t0_500;w_t1_000;w_t2_000;w_t3_000;w_t5_000;original_data_mediator
EMSC-20161027_0000016;2016-10-27T03:19:28;8692821;42.84856;13.15283;4.337;Spallarossa_et_al_2021;NF;;3.97;Spallarossa_et_al_2021;4;TDMT-INGV;MN;AQU;;HL;0;Inside structure;Building;;42.354;13.405;710;Not analized;geology;B;;58.70657949605;159.27369826284;;;0;E;N;Z;manual (Paolucci et al 2011);-0.516707;0.596789;0.299637;0.15;0.15;0.15;30;30;30;-0.50575;0.583283;0.295213;0.01941;0.027747;-0.014304;20.205;15.745;22.65;0.000359288435233;0.000525727665447;0.000149122287321;0.648568;1.36128;1.68138;0.710574;0.723733;0.238233;0.063751;0.039681;0.011564;0.761558;1.53907;2.45531;1.19241;1.06506;0.178103;0.055881;0.055131;0.011384;0.359479;1.10562;0.805121;0.478264;0.329493;0.167976;0.044713;0.032821;0.008322;webdc.eu
EMSC-20161027_0000018;2016-10-27T03:50:25;8694191;42.98752;13.13237;2.054;Spallarossa_et_al_2021;NF;;4.26;Spallarossa_et_al_2021;4.1;TDMT-INGV;MN;AQU;;HL;0;Inside structure;Building;;42.354;13.405;710;Not analized;geology;B;;73.83867744942;162.289413407434;;;0;E;N;Z;manual (Paolucci et al 2011);0.277938;0.281999;-0.156052;0.1;0.1;0.1;30;30;30;0.272523;0.282791;-0.153421;-0.015535;-0.022215;0.013843;37.685;31.26;42.23;0.000150042306754;0.000185141451302;6.55785758436e-05;0.353127;0.653622;0.612814;0.538956;0.378531;0.203403;0.221199;0.085301;0.020822;0.364912;0.639238;0.849506;0.54743;0.377365;0.324772;0.157669;0.08845;0.019946;0.198728;0.451725;0.323763;0.241342;0.257742;0.225943;0.04951;0.058184;0.011619;webdc.eu
EMSC-20161027_0000072;2016-10-27T08:21:46;8706291;42.87956;13.10563;4.655;Spallarossa_et_al_2021;NF;;4.39;Spallarossa_et_al_2021;4.3;TDMT-INGV;MN;AQU;;HL;0;Inside structure;Building;;42.354;13.405;710;Not analized;geology;B;;63.33825977586;157.081393531553;;;0;E;N;Z;manual (Paolucci et al 2011);0.493017;-0.48706;-0.294981;0.1;0.1;0.1;30;30;30;0.497862;-0.477813;-0.296824;0.017542;0.015401;-0.009843;25.99;27.82;32.915;0.00031481056165;0.000291996247127;0.000109782497881;0.635001;1.61215;1.42769;0.647825;0.38732;0.181007;0.124127;0.031581;0.01715;0.522899;1.39602;1.10281;0.659036;0.371012;0.187612;0.12502;0.040941;0.016326;0.356077;0.999853;0.859024;0.49507;0.280011;0.128461;0.054976;0.017571;0.007375;webdc.eu
EMSC-20161028_0000138;2016-10-28T20:02:43;8788671;39.2672;13.5468;481.4;INGV-BULLETIN;SS;;5.8;INGV-BULLETIN;5.8;Pondrelli_et_al_2002_dataset;MN;AQU;;HL;0;Inside structure;Building;;42.354;13.405;710;Not analized;geology;B;;342.99860762327;358.047126625982;;;0;E;N;Z;manual (Paolucci et al 2011);-0.021267;-0.022679;-0.0188;0.07;0.07;0.07;30;30;30;-0.020496;-0.02072;0.017096;0.005262;-0.009567;0.004805;160.225;154.145;157.44;4.5059051461e-06;4.94570622576e-06;2.93147524026e-06;0.039334;0.03125;0.037313;0.03852;0.04104;0.057253;0.057588;0.02601;0.013226;0.049159;0.022461;0.034414;0.037896;0.04592;0.050319;0.061144;0.041306;0.017456;0.022356;0.018654;0.030425;0.031388;0.037435;0.051964;0.032597;0.026206;0.01055;http://webservices.rm.ingv.it/
EMSC-20161030_0000029;2016-10-30T06:40:18;8863681;42.83794;13.12324;6.169;Spallarossa_et_al_2021;NF;Pizzi_et_el_2017;5.51;Spallarossa_et_al_2021;6.6;Pondrelli_et_al_2002_dataset;MN;AQU;;HL;0;Inside structure;Building;;42.354;13.405;710;Not analized;geology;B;;58.52109085894;156.62890304153;33.15753471788;33.3606752833559;0;E;N;Z;manual (Paolucci et al 2011);-30.408316;-44.904556;-17.256624;0.04;0.04;0.04;30;30;30;-30.210098;-44.816702;-17.171778;5.448522;-6.363595;-4.039396;23.64;19.265;20.375;2.17712808696;2.84373447997;0.856034763346;31.9031;39.9277;44.4345;60.4295;45.0705;36.3392;70.1942;22.0929;8.35685;46.4692;54.5825;70.0409;97.9295;50.012;62.5392;47.631;26.0315;15.8417;19.1225;31.1987;31.632;43.3337;26.6442;40.7973;27.8144;12.1131;9.10155;http://webservices.rm.ingv.it/
EMSC-20161030_0000033;2016-10-30T07:13:06;8865281;42.70791;13.23236;5.749;Spallarossa_et_al_2021;;;4.21;Spallarossa_et_al_2021;;;MN;AQU;;HL;0;Inside structure;Building;;42.354;13.405;710;Not analized;geology;B;;41.79399339659;160.102821161431;;;0;E;N;Z;manual (Paolucci et al 2011);-2.008724;-2.686644;-1.234002;0.1;0.1;0.1;30;30;30;-1.95895;-2.699288;-1.238428;-0.073451;-0.07442;-0.040211;11.055;9.115;14.765;0.00368984480726;0.00534326318301;0.00134837771109;2.52512;8.48896;4.33377;5.39068;1.3318;0.424383;0.172349;0.044072;0.017776;4.04167;7.78359;5.29097;3.99421;2.05718;0.653436;0.19817;0.036994;0.019997;1.85059;3.14226;3.46521;2.12133;0.699819;0.510607;0.07718;0.022944;0.009243;http://webservices.rm.ingv.it/
EMSC-20161030_0000037;2016-10-30T07:07:54;8864991;42.7282;13.20188;7.054;Spallarossa_et_al_2021;;;3.98;Spallarossa_et_al_2021;;;MN;AQU;;HL;0;Inside structure;Building;;42.354;13.405;710;Not analized;geology;B;;44.79127537092;158.060625669235;;;0;E;N;Z;manual (Paolucci et al 2011);0.749593;-0.827917;-0.382242;0.08;0.08;0.08;30;30;30;0.748344;-0.817158;-0.37092;0.038593;0.038667;-0.019364;13.61;13.535;18.725;0.000669007920443;0.000763294816959;0.00022374969654;1.05303;1.56418;2.6874;2.28058;0.819138;0.383626;0.144236;0.042877;0.012977;1.42085;2.2791;2.21629;1.98331;1.21524;0.366514;0.139515;0.039366;0.010986;0.545674;0.693235;1.54985;0.673416;0.558353;0.456699;0.072912;0.023489;0.009535;http://webservices.rm.ingv.it/
EMSC-20161030_0000088;2016-10-30T10:19:27;8876081;42.81607;13.14578;6.897;Spallarossa_et_al_2021;NF;;3.91;Spallarossa_et_al_2021;3.7;TDMT-INGV;MN;AQU;;HL;0;Inside structure;Building;;42.354;13.405;710;Not analized;geology;B;;55.56464785168;157.395428931563;;;0;E;N;Z;manual (Paolucci et al 2011);0.367779;0.799859;0.249395;0.15;0.15;0.15;30;30;30;0.368506;0.773021;0.242916;-0.016431;0.025472;-0.008492;18.755;12.625;21.04;0.000178515175095;0.000389684310321;7.13860042666e-05;0.562175;1.43094;0.877193;0.592248;0.395947;0.179428;0.071184;0.014855;0.005724;1.13313;1.53337;1.66357;0.889258;0.424322;0.177383;0.044005;0.016061;0.005826;0.285943;0.685714;0.54752;0.252505;0.182865;0.112121;0.031635;0.012575;0.004098;http://webservices.rm.ingv.it/
EMSC-20161030_0000130;2016-10-30T11:58:18;8881771;42.84816;13.06011;8.814;Spallarossa_et_al_2021;NF;;3.85;Spallarossa_et_al_2021;4;TDMT-INGV;MN;AQU;;HL;0;Inside structure;Building;;42.354;13.405;710;Not analized;geology;B;;61.76096080288;152.606927469841;;;0;E;N;Z;manual (Paolucci et al 2011);0.72717;-0.868186;0.42069;0.15;0.15;0.15;30;30;30;0.718222;-0.848011;0.397285;-0.022206;-0.023432;-0.017185;15.135;13.9;19.62;0.00060389836939;0.000797729158435;0.000230553642746;1.06799;2.54075;1.92257;1.014;0.776764;0.272079;0.055306;0.026748;0.006241;1.37285;3.94209;1.42282;1.03099;0.497543;0.209956;0.046831;0.015596;0.006447;0.587994;1.24001;1.03607;0.538091;0.299084;0.157994;0.045883;0.011702;0.004058;http://webservices.rm.ingv.it/
EMSC-20161030_0000135;2016-10-30T12:07:01;8882341;42.84012;13.07929;6.839;Spallarossa_et_al_2021;NF;None;4.45;Spallarossa_et_al_2021;4.5;TDMT-INGV;MN;AQU;;HL;0;Inside structure;Building;;42.354;13.405;710;Not analized;geology;B;;60.25467171547;153.553123994937;59.59670923044;60.2767613266987;0;E;N;Z;manual (Paolucci et al 2011);-0.899618;0.991141;-0.486415;0.1;0.1;0.1;30;30;30;-0.868677;0.973985;-0.486146;0.042053;0.041275;0.027213;25.33;27.8;30.905;0.00113761035261;0.0012305245081;0.000476846374305;1.37754;3.43223;2.54156;1.58738;0.934219;0.391616;0.187994;0.103573;0.031247;1.60866;3.07348;2.6215;1.96102;0.823014;0.585495;0.157514;0.07719;0.023952;0.769337;1.44864;1.50916;0.910632;0.530248;0.527018;0.161861;0.068635;0.018633;http://webservices.rm.ingv.it/
EMSC-20161030_0000170;2016-10-30T13:34:55;8887571;42.80688;13.17157;4.938;Spallarossa_et_al_2021;NF;;4.25;Spallarossa_et_al_2021;4.1;TDMT-INGV;MN;AQU;;HL;0;Inside structure;Building;;42.354;13.405;710;Not analized;geology;B;;53.83409897342;159.068327019174;;;0;E;N;Z;manual (Paolucci et al 2011);0.90611;0.903507;0.419401;0.1;0.1;0.1;30;30;30;0.898974;0.892068;0.418101;0.063826;0.056424;-0.035736;17.355;17.735;28.95;0.0011661225847;0.00137293230626;0.000393166316333;1.10127;2.43818;2.10915;2.9991;1.24052;0.65079;0.288918;0.069063;0.032065;1.02439;2.28361;2.30532;3.23985;2.01924;0.436327;0.249652;0.073116;0.017412;0.483951;0.831656;0.93559;1.05577;0.79283;0.683529;0.080739;0.050177;0.013206;http://webservices.rm.ingv.it/
EMSC-20161030_0000281;2016-10-30T18:21:09;8904671;42.78944;13.15912;0.276;Spallarossa_et_al_2021;NF;;3.89;Spallarossa_et_al_2021;4;TDMT-INGV;MN;AQU;;HL;0;Inside structure;Building;;42.354;13.405;710;Not analized;geology;B;;52.41432312171;157.26301485851;;;0;E;N;Z;manual (Paolucci et al 2011);0.19255;0.278353;-0.09326;0.15;0.15;0.15;20;20;20;0.191487;0.274953;0.091459;0.034151;-0.021342;0.015624;30.425;29.85;40.635;0.000151011372531;0.000135372421053;5.31971506708e-05;0.195974;0.406725;0.606867;0.626158;0.315298;0.336665;0.381426;0.114208;0.017314;0.319686;0.445264;0.876332;0.692625;0.408162;0.325638;0.226479;0.061855;0.013697;0.112297;0.269228;0.260138;0.29105;0.223627;0.220973;0.136525;0.037486;0.008198;http://webservices.rm.ingv.it/
EMSC-20161031_0000053;2016-10-31T03:27:41;8936321;42.76683;13.08911;6.825;Spallarossa_et_al_2021;NF;;4.31;Spallarossa_et_al_2021;4.1;Pondrelli_et_al_2002_dataset;MN;AQU;;HL;0;Inside structure;Building;;42.354;13.405;710;Not analized;geology;B;;52.68731138958;150.397668071566;;;0;E;N;Z;manual (Paolucci et al 2011);-0.86582;0.940292;0.562592;0.15;0.15;0.15;30;30;30;-0.858523;0.929703;0.534928;0.034337;-0.035815;-0.020682;19.38;17.465;24.28;0.000806084509475;0.00114825090987;0.000340488775301;1.2604;2.40247;2.87614;1.52775;0.780429;0.601311;0.146518;0.036609;0.009546;1.52358;2.41656;2.60453;2.04854;0.768272;0.41612;0.118918;0.025469;0.013797;0.731043;1.08107;1.35863;1.58225;0.547855;0.294941;0.098196;0.023367;0.008643;http://webservices.rm.ingv.it/
EMSC-20161031_0000097;2016-10-31T07:05:45;8949131;42.84502;13.13164;4.856;Spallarossa_et_al_2021;NF;;4.14;Spallarossa_et_al_2021;4;TDMT-INGV;MN;AQU;;HL;0;Inside structure;Building;;42.354;13.405;710;Not analized;geology;B;;58.97824688304;157.550083747336;;;0;E;N;Z;manual (Paolucci et al 2011);-0.447994;-0.614941;-0.234029;0.15;0.15;0.15;30;30;30;-0.442084;-0.615036;-0.234542;0.018571;-0.023437;-0.010622;24.055;21.345;27.55;0.000320284216372;0.000505221151271;0.000143273840676;0.732519;1.04888;1.28256;0.776925;0.458391;0.136939;0.07918;0.052666;0.010914;0.749493;1.51843;2.10469;1.17661;0.743609;0.229489;0.059297;0.045068;0.014685;0.300261;0.657548;0.7819;0.488154;0.227417;0.190403;0.035224;0.025427;0.006333;http://webservices.rm.ingv.it/
EMSC-20161101_0000060;2016-11-01T07:56:40;9033461;42.9902;13.1345;8.3;Spallarossa_et_al_2021;NF;None;4.7;Spallarossa_et_al_2021;4.8;TDMT-INGV;MN;AQU;;HL;0;Inside structure;Building;;42.354;13.405;710;Not analized;geology;B;;74.06989519492;162.488920692432;72.80814470508;73.2226129164682;0;E;N;Z;manual (Paolucci et al 2011);1.147549;1.517371;0.786291;0.1;0.1;0.1;30;30;30;1.141135;1.48627;0.755596;0.077246;-0.080379;0.059326;25.805;21.745;24.15;0.0022954087558;0.00313183761857;0.00104053222138;1.36217;3.41992;3.77893;2.23908;1.64813;1.71129;0.526518;0.283663;0.11322;1.85811;4.20571;3.16531;3.15278;1.64539;0.744743;0.69003;0.332643;0.061448;0.953863;1.90138;1.80967;1.352;1.14275;0.670363;0.29955;0.215709;0.086595;http://webservices.rm.ingv.it/
EMSC-20161102_0000149;2016-11-02T19:37:49;9151161;42.8767;13.0605;8.2;Spallarossa_et_al_2021;NF;;4.1;Spallarossa_et_al_2021;3.7;TDMT-INGV;MN;AQU;;HL;0;Inside structure;Building;;42.354;13.405;710;Not analized;geology;B;;64.57842659958;153.926592192585;;;0;E;N;Z;manual (Paolucci et al 2011);-0.071693;0.064638;-0.043206;0.15;0.15;0.15;30;30;30;-0.071882;0.063193;-0.04319;-0.0118;0.015425;-0.007318;42.37;38.115;42.915;2.31683920716e-05;2.4474410509e-05;1.17189302563e-05;0.078444;0.150992;0.165863;0.117582;0.125783;0.160701;0.111938;0.02201;0.005038;0.065911;0.125785;0.128435;0.125671;0.129545;0.181949;0.194809;0.054647;0.009178;0.043142;0.078436;0.08858;0.077375;0.085;0.134958;0.030754;0.014027;0.003349;http://webservices.rm.ingv.it/
EMSC-20161103_0000003;2016-11-03T00:35:02;9166761;43.03575;13.06353;6.743;Spallarossa_et_al_2021;NF;None;4.8;Spallarossa_et_al_2021;4.7;TDMT-INGV;MN;AQU;;HL;0;Inside structure;Building;;42.354;13.405;710;Not analized;geology;B;;80.73700159161;159.606338780825;79.19016978016;79.510391197457;0;E;N;Z;manual (Paolucci et al 2011);-0.824967;1.154756;-0.567485;0.1;0.1;0.1;30;30;30;-0.812291;1.143249;-0.567979;-0.083154;0.076096;0.057156;27.485;26.35;37.53;0.00230470353965;0.00284600342857;0.000836668793624;1.13759;2.64183;3.33808;2.12562;1.33252;1.12359;0.421126;0.197937;0.10857;1.19839;3.19801;2.5088;2.81212;1.88537;1.20588;0.346603;0.415752;0.05425;0.735331;1.62334;1.40729;1.33442;1.31139;0.957025;0.208037;0.164364;0.068012;http://webservices.rm.ingv.it/
EMSC-20161107_0000123;2016-11-07T18:56:17;9472991;42.88964;13.15676;9.816;Spallarossa_et_al_2021;NF;;3.97;Spallarossa_et_al_2021;3.8;TDMT-INGV;MN;AQU;;HL;0;Inside structure;Building;;42.354;13.405;710;Not analized;geology;B;;62.89038184918;161.021534167082;;;0;E;N;Z;manual (Paolucci et al 2011);0.306173;-0.337599;-0.168839;0.15;0.15;0.15;30;30;30;0.294493;-0.321139;-0.160623;-0.009484;0.010649;0.007087;19.945;19.59;25.9;0.000123008076481;0.000144327253722;4.80271795319e-05;0.548279;0.885423;0.949833;0.399302;0.239628;0.083274;0.041147;0.008578;0.00326;0.550974;0.786087;0.774303;0.609771;0.24926;0.155067;0.046974;0.008915;0.002941;0.302083;0.657915;0.598854;0.304871;0.104438;0.114668;0.013817;0.007254;0.002043;http://webservices.rm.ingv.it/
EMSC-20161112_0000066;2016-11-12T14:43:34;9759131;42.72725;13.21215;3.718;Spallarossa_et_al_2021;NF;;4.17;Spallarossa_et_al_2021;4.1;TDMT-INGV;MN;AQU;;HL;0;Inside structure;Building;;42.354;13.405;710;Not analized;geology;B;;44.38535096173;159.02389433051;;;0;E;N;Z;manual (Paolucci et al 2011);-0.720603;0.707654;0.346937;0.15;0.15;0.15;30;30;30;0.68413;0.68055;0.339407;-0.041264;-0.037491;0.026749;21.785;18.435;29.035;0.00063084577377;0.000815590438686;0.000273978734468;1.40228;2.13069;1.24807;0.944441;0.894128;0.667829;0.242635;0.098233;0.018652;1.17904;1.97198;1.77819;1.18175;0.966552;0.825045;0.175429;0.069921;0.016932;0.589898;1.36743;0.800517;0.554207;0.649072;0.438227;0.142449;0.103824;0.015741;http://webservices.rm.ingv.it/
EMSC-20161114_0000010;2016-11-14T01:33:44;9869761;42.8628;13.16583;9.392;Spallarossa_et_al_2021;;;4.03;Spallarossa_et_al_2021;;;MN;AQU;;HL;0;Inside structure;Building;;42.354;13.405;710;Not analized;geology;B;;59.83038525326;160.77036288349;;;0;E;N;Z;manual (Paolucci et al 2011);0.371138;0.352246;-0.224795;0.15;0.15;0.15;30;30;30;0.370176;0.353791;-0.221645;-0.015826;-0.011838;-0.007384;17.18;17.055;21.965;0.000177652355459;0.000208864654295;7.38657734219e-05;0.444427;0.98354;1.44051;0.659028;0.293384;0.101774;0.053054;0.012999;0.00487;0.510008;1.5542;1.13664;0.68442;0.224109;0.083853;0.040052;0.015135;0.004361;0.286485;0.583517;0.737733;0.329767;0.166724;0.119688;0.023313;0.007765;0.002938;http://webservices.rm.ingv.it/
EMSC-20161114_0000142;2016-11-14T19:49:52;9919961;42.9453;13.1527;10.5;INGV-BULLETIN;NF;;3.9;INGV-BULLETIN;4;Pondrelli_et_al_2002_dataset;MN;AQU;;HL;0;Inside structure;Building;;42.354;13.405;710;Not analized;geology;B;;68.86628536101;162.431213265365;;;0;E;N;Z;manual (Paolucci et al 2011);-0.14584;-0.142917;-0.068767;0.15;0.15;0.15;30;30;30;-0.144978;-0.138854;-0.067963;0.004063;-0.00435;0.003275;27.86;26.245;33.415;2.21901092199e-05;2.57307805812e-05;7.35843356168e-06;0.234695;0.560859;0.227209;0.161487;0.114249;0.045044;0.024666;0.006131;0.001487;0.2492;0.37843;0.254483;0.191219;0.068801;0.082058;0.017529;0.007512;0.001908;0.13266;0.233225;0.140114;0.072227;0.053612;0.042688;0.010145;0.003456;0.001809;webdc.eu
EMSC-20161123_0000002;2016-11-23T00:02:43;10403221;42.83528;13.1227;6.644;Spallarossa_et_al_2021;;;3.7;Spallarossa_et_al_2021;;;MN;AQU;;HL;0;Inside structure;Building;;42.354;13.405;710;Not analized;geology;B;;58.26756396147;156.473424025008;;;0;E;N;Z;manual (Paolucci et al 2011);0.052034;-0.065459;-0.042462;0.2;0.2;0.2;30;30;30;0.051241;-0.061124;-0.041403;0.002781;0.003263;-0.002188;32.345;28.665;40.495;7.59912091207e-06;9.88554618994e-06;3.38003146326e-06;0.092004;0.202348;0.171684;0.139571;0.062032;0.042852;0.012554;0.002814;0.000971;0.15223;0.21667;0.149105;0.132738;0.062527;0.043549;0.009879;0.003641;0.001057;0.072521;0.116043;0.087649;0.07214;0.050088;0.033708;0.007002;0.002452;0.000785;http://webservices.rm.ingv.it/
EMSC-20161127_0000106;2016-11-27T21:41:14;10674861;43.01783;13.0749;3.404;Spallarossa_et_al_2021;NF;;3.9;Spallarossa_et_al_2021;3.9;TDMT-INGV;MN;AQU;;HL;0;Inside structure;Building;;42.354;13.405;710;Not analized;geology;B;;78.54826714811;159.741779411461;;;0;E;N;Z;manual (Paolucci et al 2011);0.163929;0.173365;0.073221;0.15;0.15;0.15;30;30;30;0.158676;0.173421;0.071705;-0.009645;-0.008327;-0.006269;25.135;25.075;35.495;4.39802991363e-05;4.54784012351e-05;1.41917361644e-05;0.206923;0.408462;0.513854;0.278203;0.139123;0.163118;0.085327;0.020738;0.01057;0.213214;0.367999;0.547076;0.405046;0.15072;0.116289;0.054958;0.035545;0.005448;0.113358;0.205393;0.234806;0.13631;0.095263;0.09799;0.024875;0.020027;0.003696;http://webservices.rm.ingv.it/
EMSC-20161129_0000010;2016-11-29T03:35:35;10740261;42.76948;13.25183;9.98;Spallarossa_et_al_2021;;;3.57;Spallarossa_et_al_2021;;;MN;AQU;;HL;0;Inside structure;Building;;42.354;13.405;710;Not analized;geology;B;;47.83647320409;164.703700655573;;;0;E;N;Z;manual (Paolucci et al 2011);-0.125966;0.163493;0.075983;0.2;0.2;0.2;30;30;30;-0.12119;0.154469;0.067474;0.002628;0.002748;-0.001709;23.32;19.19;27.4;1.31221327394e-05;1.96458816214e-05;5.75045997368e-06;0.329719;0.385907;0.146295;0.090512;0.082339;0.033649;0.011975;0.007132;0.001491;0.290336;0.426835;0.172365;0.104029;0.054777;0.022104;0.011575;0.003297;0.000979;0.154402;0.153901;0.104912;0.053475;0.033351;0.030933;0.006086;0.002575;0.000812;http://webservices.rm.ingv.it/
EMSC-20161129_0000079;2016-11-29T16:14:03;10763951;42.54341;13.2794;8.616;Spallarossa_et_al_2021;NF;;4.5;Spallarossa_et_al_2021;4.5;Pondrelli_et_al_2002_dataset;MN;AQU;;HL;0;Inside structure;Building;;42.354;13.405;710;Not analized;geology;B;;23.44027032567;153.802235499342;;;0;E;N;Z;manual (Paolucci et al 2011);0.639796;1.115122;0.487921;0.1;0.1;0.1;30;30;30;0.617391;1.036376;0.472087;-0.024627;0.022647;0.016819;22.815;22.185;29.8;0.000735022670787;0.000903177771752;0.00030530798718;1.62033;2.25915;1.64166;1.14691;0.570274;0.356869;0.15502;0.044498;0.014839;2.27856;2.74314;1.31504;1.23876;0.502401;0.340953;0.138022;0.045562;0.017327;1.04842;1.41778;0.977575;1.03223;0.345976;0.326256;0.077006;0.021903;0.008925;webdc.eu
