esm_event_id;event_time;ingv_event_id;ev_latitude;ev_longitude;ev_depth_km;ev_hyp_ref;fm_type_code;fm_ref;ml;ml_ref;mw;mw_ref;network_code;station_code;location_code;channel_code;sensor_depth_m;proximity;housing;installation;st_latitude;st_longitude;st_elevation;reference_site;preferred_estimation_method_vs30_ec8;preferred_ec8_code;preferred_vs30_m_s;epi_dist;epi_az;jb_dist;rup_dist;late_triggered_event_01;u_channel_code;v_channel_code;w_channel_code;processing_type;u_un_pga;v_un_pga;w_un_pga;u_hp;v_hp;w_hp;u_lp;v_lp;w_lp;u_pga;v_pga;w_pga;u_pgv;v_pgv;w_pgv;u_t90;v_t90;w_t90;u_ia;v_ia;w_ia;u_t0_050;u_t0_100;u_t0_200;u_t0_300;u_t0_500;u_t1_000;u_t2_000;u_t3_000;u_t5_000;v_t0_050;v_t0_100;v_t0_200;v_t0_300;v_t0_500;v_t1_000;v_t2_000;v_t3_000;v_t5_000;w_t0_050;w_t0_100;w_t0_200;w_t0_300;w_t0_500;w_t1_000;w_t2_000;w_t3_000;w_t5_000;original_data_mediator
EMSC-20161201_0000064;2016-12-01T11:30:54;10856611;43.00223;13.08205;4.856;Spallarossa_et_al_2021;NF;;3.91;Spallarossa_et_al_2021;3.9;TDMT-INGV;MN;AQU;;HL;0;Inside structure;Building;;42.354;13.405;710;Not analized;geology;B;;76.72059903247;159.706981182471;;;0;E;N;Z;manual (Paolucci et al 2011);-0.197031;0.219156;0.13713;0.15;0.15;0.15;30;30;30;-0.19301;0.220086;0.136548;0.010543;0.009756;-0.006505;27.145;23.3;34.36;7.00469780412e-05;9.49104716665e-05;3.38619029725e-05;0.261361;0.478811;0.602582;0.497455;0.334733;0.188557;0.040229;0.018976;0.006297;0.296666;0.567772;0.719274;0.475591;0.2916;0.137166;0.052097;0.038768;0.005818;0.16017;0.349041;0.536662;0.334011;0.199216;0.077255;0.026869;0.020659;0.005834;http://webservices.rm.ingv.it/
EMSC-20161203_0000009;2016-12-03T02:42:39;10947481;42.99188;13.08644;4.323;Spallarossa_et_al_2021;;;3.85;Spallarossa_et_al_2021;;;MN;AQU;;HL;0;Inside structure;Building;;42.354;13.405;710;Not analized;geology;B;;75.51802591551;159.662190675996;;;0;E;N;Z;manual (Paolucci et al 2011);0.155213;-0.158035;0.155008;0.2;0.2;0.2;30;30;30;0.153726;0.155887;0.152154;-0.008709;0.0066;0.004364;19.61;20.085;24.96;4.55113316101e-05;4.94438162655e-05;2.05382587997e-05;0.192761;0.431203;0.562847;0.423368;0.230236;0.109473;0.022682;0.011303;0.003474;0.214721;0.469671;0.430859;0.375423;0.175802;0.090492;0.03032;0.021139;0.003367;0.183634;0.243102;0.506499;0.26061;0.14662;0.059425;0.014544;0.009223;0.002658;http://webservices.rm.ingv.it/
EMSC-20161211_0000049;2016-12-11T12:54:53;11382811;42.90755;13.12048;1.186;Spallarossa_et_al_2021;NF;;4;Spallarossa_et_al_2021;4.2;Pondrelli_et_al_2002_dataset;MN;AQU;;HL;0;Inside structure;Building;;42.354;13.405;710;Not analized;geology;B;;65.77128018164;159.119767409882;;;0;E;N;Z;manual (Paolucci et al 2011);0.285986;0.287292;-0.207874;0.15;0.15;0.15;30;30;30;0.283492;0.284676;-0.202569;0.035071;-0.032824;-0.023489;32.14;34.095;38.27;0.000295166516694;0.000281729778939;0.000120227208637;0.340961;0.61047;0.955106;0.78604;0.784696;0.682876;0.287191;0.19876;0.038606;0.356059;0.767783;0.994164;0.588927;0.465687;0.393208;0.293729;0.099994;0.028611;0.223002;0.350812;0.590701;0.440716;0.344337;0.257399;0.120003;0.112397;0.019138;http://webservices.rm.ingv.it/
EMSC-20170118_0000027;2017-01-18T09:25:41;12695491;42.56521;13.29803;8.657;Spallarossa_et_al_2021;NF;None;5.37;Spallarossa_et_al_2021;5.1;TDMT-INGV;MN;AQU;;HL;0;Inside structure;Building;;42.354;13.405;710;Not analized;geology;B;;25.0571990084;159.407066754341;21.8335956851;23.6241924137537;0;E;N;Z;manual (Paolucci et al 2011);15.353959;-14.451438;11.551421;0.06;0.06;0.06;30;30;30;14.906465;-14.046401;11.412802;-0.436031;-0.834874;-0.395105;17.445;11.655;15.495;0.1594953178;0.225282445674;0.0928527362724;20.8973;33.6848;39.3261;23.869;18.622;5.75233;3.47685;0.794954;0.219141;21.3967;34.3956;34.9603;41.4259;14.9245;4.61324;2.84249;0.795059;0.349672;15.7933;23.0625;38.7898;14.3206;9.94538;4.38135;1.02442;0.439731;0.150458;http://webservices.rm.ingv.it/
EMSC-20170118_0000034;2017-01-18T10:14:10;12697591;42.55935;13.29105;9.307;Spallarossa_et_al_2021;NF;Cheloni_2019_SRCMOD;5.36;Spallarossa_et_al_2021;5.5;TDMT-INGV;MN;AQU;;HL;0;Inside structure;Building;;42.354;13.405;710;Not analized;geology;B;;24.66135772326;157.623513710706;13.87969056451;16.0839227679754;0;E;N;Z;manual (Paolucci et al 2011);16.509384;21.201422;-11.161964;0.07;0.07;0.07;30;30;30;16.101446;21.16172;-10.557168;-1.001174;-1.240961;-0.733749;19.865;13.7;18.465;0.318457009201;0.441853735701;0.175636508291;19.5888;48.4583;40.3687;33.9911;20.1045;16.4653;6.75084;1.51799;0.665327;22.875;45.3653;52.3617;40.5115;26.5925;16.296;2.84648;1.66767;0.789721;16.6667;27.821;32.9152;13.829;11.7704;14.3864;5.33214;1.47527;0.634491;http://webservices.rm.ingv.it/
EMSC-20170118_0000037;2017-01-18T10:25:24;12698071;42.53115;13.29272;8.63;Spallarossa_et_al_2021;NF;None;5.34;Spallarossa_et_al_2021;5.4;TDMT-INGV;MN;AQU;;HL;0;Inside structure;Building;;42.354;13.405;710;Not analized;geology;B;;21.73857199288;154.814783081092;16.71145599631;19.1067249327312;0;E;N;Z;manual (Paolucci et al 2011);23.200680507;29.9373234113;14.8988771325;0.06;0.06;0.06;40;40;40;22.9199630394;29.6661729858;15.1097183749;1.50666088991;1.57086112496;0.841686287264;14.995;10.555;18.075;0.82923831469;1.00183037663;0.291468230275;43.3868904114;79.8986434937;48.0481452942;41.8890037537;50.3420028687;20.9206161499;7.93737888336;2.60592579842;1.54604268074;35.1530914307;63.7164764404;54.9288673401;59.4831962585;59.4169120789;23.0683269501;8.46242046356;2.77427768707;1.01145648956;26.564535141;29.2196559906;38.5435791016;23.9510688782;27.523355484;17.8551845551;3.92308044434;1.77482008934;0.720643043518;webservices.ingv.it
EMSC-20170118_0000048;2017-01-18T10:39:24;12698591;42.5212;13.29968;9.279;Spallarossa_et_al_2021;;;4.02;Spallarossa_et_al_2021;;;MN;AQU;;HL;0;Inside structure;Building;;42.354;13.405;710;Not analized;geology;B;;20.49506344264;154.951456880438;;;0;E;N;Z;manual (Paolucci et al 2011);2.224224;2.519169;-1.232324;0.15;0.15;0.15;30;30;30;-2.183854;2.428751;-1.176889;0.077159;0.069443;0.040204;12.54;12.865;12.39;0.00483447262732;0.00573662824968;0.00204486935419;3.18669;6.19823;3.85037;4.67648;2.01859;0.576762;0.214448;0.063441;0.018677;3.91237;5.6692;5.80051;3.3927;1.32724;0.375927;0.213264;0.051438;0.016645;2.2776;2.72225;2.71848;3.36999;0.658222;0.395301;0.081188;0.028261;0.00913;http://webservices.rm.ingv.it/
EMSC-20170118_0000049;2017-01-18T10:24:15;12697991;42.59981;13.32167;6.374;Spallarossa_et_al_2021;;;3.96;Spallarossa_et_al_2021;;;MN;AQU;;HL;0;Inside structure;Building;;42.354;13.405;710;Not analized;geology;B;;28.15183764606;165.884541601868;;;0;E;N;Z;manual (Paolucci et al 2011);22.548405;29.801535;-14.919471;0.08;0.08;0.08;30;30;30;-0.530506;-0.763135;0.477335;-0.02704;0.030856;-0.015605;15.49;10.36;16.9;0.000524285638575;0.000852804498799;0.000194147410551;1.05964;1.57435;1.84732;1.41036;0.530573;0.297008;0.06518;0.030567;0.009451;1.23071;2.25017;2.4455;1.94636;0.495638;0.29965;0.069213;0.03426;0.008568;0.806335;1.68289;0.853377;0.702404;0.333445;0.307436;0.033838;0.022024;0.007989;http://webservices.rm.ingv.it/
EMSC-20170118_0000051;2017-01-18T10:16:40;12697681;42.55676;13.28189;9.013;Spallarossa_et_al_2021;;;4.11;Spallarossa_et_al_2021;;;MN;AQU;;HL;0;Inside structure;Building;;42.354;13.405;710;Not analized;geology;B;;24.69485863199;155.748973412187;;;0;E;N;Z;manual (Paolucci et al 2011);6.090499;10.398452;7.344617;0.1;0.1;0.1;30;30;30;5.864995;10.062795;7.110857;-0.257352;0.348433;-0.185355;8.775;6.78;10.14;0.0436372324234;0.0888498465281;0.023321501002;9.40206;21.5315;20.5113;11.5479;7.94321;2.30492;1.24873;0.328114;0.086739;13.2866;26.9657;21.9843;21.4411;5.13188;1.34629;0.834179;0.194947;0.072365;8.50133;13.4906;19.0135;9.27605;3.36209;2.45568;0.382342;0.171732;0.046427;http://webservices.rm.ingv.it/
EMSC-20170118_0000053;2017-01-18T11:07:38;12700101;42.63931;13.26582;8.698;Spallarossa_et_al_2021;NF;;3.65;Spallarossa_et_al_2021;4.1;TDMT-INGV;MN;AQU;;HL;0;Inside structure;Building;;42.354;13.405;710;Not analized;geology;B;;33.69492422949;160.103588368712;;;0;E;N;Z;manual (Paolucci et al 2011);1.017393;1.613265;0.911539;0.1;0.1;0.1;30;30;30;0.995018;1.609592;0.871263;-0.037235;-0.043662;-0.026277;19.08;19.56;23.48;0.00162278680779;0.00207564306666;0.000710114572709;1.61036;3.69679;2.85754;2.01261;1.13495;0.57096;0.220085;0.05922;0.017715;2.64244;4.30651;3.59892;2.40372;0.914029;0.363516;0.154511;0.039823;0.013046;1.15214;1.43654;2.54744;1.28094;0.593109;0.601117;0.079803;0.037136;0.011649;http://webservices.rm.ingv.it/
EMSC-20170118_0000119;2017-01-18T13:33:37;12707401;42.49355;13.2747;10.558;Spallarossa_et_al_2021;NF;None;5.43;Spallarossa_et_al_2021;5;TDMT-INGV;MN;AQU;;HL;0;Inside structure;Building;;42.354;13.405;710;Not analized;geology;B;;18.84908752688;145.281435223433;14.31134654413;16.4935031953788;0;E;N;Z;manual (Paolucci et al 2011);11.086225;-9.880864;6.451566;0.1;0.1;0.1;30;30;30;11.084784;-9.75223;5.923692;-0.409311;0.444465;-0.292042;15;14.29;20.245;0.117780189604;0.138769330809;0.0482489243313;17.5549;31.8346;29.7123;24.6469;12.9325;2.97574;3.00616;0.773827;0.158485;22.9875;28.0527;17.5702;22.4057;17.0419;3.928;2.68505;0.718593;0.218721;15.1363;16.1172;17.1461;10.4329;6.67744;5.00649;0.896861;0.342065;0.131613;http://webservices.rm.ingv.it/
EMSC-20170118_0000154;2017-01-18T15:16:11;12712641;42.61452;13.29747;4.706;Spallarossa_et_al_2021;NF;;4.23;Spallarossa_et_al_2021;4.3;TDMT-INGV;MN;AQU;;HL;0;Inside structure;Building;;42.354;13.405;710;Not analized;geology;B;;30.25962888226;162.975520132197;;;0;E;N;Z;manual (Paolucci et al 2011);-1.427524;1.8295;-0.869729;0.08;0.08;0.08;30;30;30;-1.439466;1.791291;-0.862952;0.092742;0.087486;-0.054919;18.45;16.475;24.455;0.0027353046861;0.00353354954172;0.00100700411537;2.03068;3.45044;4.03272;3.32512;3.00209;0.987965;0.398639;0.159451;0.053875;2.37893;3.88674;3.43219;4.63295;2.95403;0.89362;0.278457;0.101349;0.027116;1.06697;2.06636;1.5293;2.16395;1.1442;0.995358;0.184709;0.103783;0.033227;http://webservices.rm.ingv.it/
EMSC-20170118_0000199;2017-01-18T19:32:32;12723601;42.60063;13.23754;9.901;Spallarossa_et_al_2021;NF;;4.47;Spallarossa_et_al_2021;4.2;TDMT-INGV;MN;AQU;;HL;0;Inside structure;Building;;42.354;13.405;710;Not analized;geology;B;;30.66217869752;153.258244468517;;;0;E;N;Z;manual (Paolucci et al 2011);-2.034287;2.065988;1.607473;0.07;0.07;0.07;30;30;30;-1.960745;1.9904;1.446146;0.068401;0.083157;-0.050156;13.81;12.98;14.55;0.00409351283109;0.00556291569616;0.00156234060733;2.78815;5.78142;5.20788;5.18592;1.71928;0.843978;0.212167;0.069156;0.02522;5.12598;4.34179;6.0591;7.22368;1.77272;0.83699;0.184755;0.073813;0.027104;2.5385;2.41584;4.82899;1.87565;1.42848;0.500872;0.118269;0.056695;0.014059;http://webservices.rm.ingv.it/
EMSC-20170121_0000027;2017-01-21T09:35:57;12837731;42.72378;13.21611;3.298;Spallarossa_et_al_2021;NF;;3.9;Spallarossa_et_al_2021;3.7;TDMT-INGV;MN;AQU;;HL;0;Inside structure;Building;;42.354;13.405;710;Not analized;geology;B;;43.90963117685;159.241699531738;;;0;E;N;Z;manual (Paolucci et al 2011);0.176535;-0.267535;0.122006;0.15;0.15;0.15;30;30;30;0.177252;-0.263046;0.12045;0.016699;0.016562;-0.009831;26.34;23.165;27.545;0.000103652035184;0.000140760421399;4.98354282884e-05;0.223585;0.49468;0.453019;0.491465;0.346295;0.233902;0.080703;0.043608;0.010335;0.278164;0.64777;0.706821;0.637981;0.49862;0.213801;0.071292;0.028819;0.006524;0.162995;0.469337;0.297059;0.37737;0.214572;0.212729;0.050557;0.03692;0.006222;http://webservices.rm.ingv.it/
EMSC-20170203_0000016;2017-02-03T03:47:56;13274891;42.99229;13.02818;0.598;Spallarossa_et_al_2021;NF;;3.85;Spallarossa_et_al_2021;4;TDMT-INGV;MN;AQU;;HL;0;Inside structure;Building;;42.354;13.405;710;Not analized;geology;B;;77.34103286858;156.332623925831;;;0;E;N;Z;manual (Paolucci et al 2011);0.084644;-0.092824;0.057265;0.1;0.1;0.1;20;20;20;0.08358;-0.093272;0.056084;0.008852;0.008576;0.007087;42.55;42.8;44.105;2.18061007346e-05;2.50582549408e-05;1.16616880271e-05;0.09058;0.182169;0.156627;0.22263;0.136627;0.11908;0.113675;0.052511;0.006804;0.108112;0.210026;0.34014;0.231712;0.099523;0.143726;0.07933;0.017663;0.005001;0.0703;0.180546;0.10984;0.100648;0.094722;0.129882;0.05023;0.023162;0.003059;http://webservices.rm.ingv.it/
EMSC-20170203_0000018;2017-02-03T04:10:06;13276121;42.99351;13.02739;1.261;Spallarossa_et_al_2021;NF;;4.16;Spallarossa_et_al_2021;4.2;TDMT-INGV;MN;AQU;;HL;0;Inside structure;Building;;42.354;13.405;710;Not analized;geology;B;;77.49102829976;156.328685031934;;;0;E;N;Z;manual (Paolucci et al 2011);0.123867;-0.141228;0.096625;0.1;0.1;0.1;25;25;25;0.124103;-0.137897;0.096645;-0.021567;0.02016;-0.014871;50.45;46.545;44.465;8.78077985262e-05;9.35056929031e-05;4.60851370258e-05;0.132687;0.382344;0.323531;0.244052;0.225168;0.279112;0.312984;0.113305;0.016357;0.16232;0.335654;0.36157;0.299046;0.182714;0.340462;0.224277;0.043105;0.011905;0.098191;0.238297;0.160872;0.156329;0.134106;0.271542;0.118864;0.052908;0.007751;http://webservices.rm.ingv.it/
EMSC-20170203_0000032;2017-02-03T05:40:35;13280161;43.00414;13.03392;0.632;Spallarossa_et_al_2021;NF;;3.52;Spallarossa_et_al_2021;3.8;TDMT-INGV;MN;AQU;;HL;0;Inside structure;Building;;42.354;13.405;710;Not analized;geology;B;;78.3647430426;157.036307304186;;;0;E;N;Z;manual (Paolucci et al 2011);-0.085309;-0.090846;0.049231;0.2;0.2;0.2;30;30;30;-0.082567;-0.091192;0.049656;0.008062;0.006504;-0.00464;43.685;38.51;45.015;1.68560538472e-05;1.72042289132e-05;6.76742951668e-06;0.11231;0.265257;0.203726;0.180404;0.091105;0.072722;0.087538;0.044622;0.00597;0.100661;0.249103;0.161213;0.218492;0.094942;0.076492;0.072263;0.017937;0.003956;0.069606;0.119818;0.132636;0.097841;0.068446;0.0852;0.03277;0.020729;0.002241;http://webservices.rm.ingv.it/
EMSC-20170220_0000016;2017-02-20T03:13:31;13708811;42.51017;13.25519;6.196;Spallarossa_et_al_2021;NF;;3.95;Spallarossa_et_al_2021;3.9;TDMT-INGV;MN;AQU;;HL;0;Inside structure;Building;;42.354;13.405;710;Not analized;geology;B;;21.28164214459;144.551114392084;;;0;E;N;Z;manual (Paolucci et al 2011);1.682952;-2.429255;-1.304115;0.1;0.1;0.1;40;40;40;1.662756;-2.393835;-1.28587;-0.087795;-0.09421;-0.040707;10.51;11.67;15.165;0.00285783439973;0.00360553607711;0.00110223489238;1.99146;4.08562;6.27502;4.1441;2.95573;1.52633;0.284942;0.114978;0.026226;2.96942;5.77637;5.51373;2.55556;2.31486;1.19961;0.284233;0.063742;0.022859;1.74038;3.24146;3.42906;1.89657;1.11311;0.43892;0.078861;0.081257;0.017362;http://webservices.rm.ingv.it/
EMSC-20170409_0000007;2017-04-09T01:52:28;14672421;42.4851;13.26819;11.884;Spallarossa_et_al_2021;NF;;3.79;Spallarossa_et_al_2021;3.4;TDMT-INGV;MN;AQU;;HL;0;Inside structure;Building;;42.354;13.405;710;Not analized;geology;B;;18.40823194479;142.242363735087;;;0;E;N;Z;manual (Paolucci et al 2011);-0.288257;-0.334598;-0.14932;0.15;0.15;0.15;30;30;30;-0.263514;-0.317925;-0.134897;0.009624;0.012858;0.004921;19.2;15.845;18.99;6.98729175489e-05;9.05150871812e-05;2.6937849014e-05;0.62795;0.821765;0.410104;0.364168;0.352978;0.138764;0.048759;0.01391;0.003238;0.787583;0.644755;0.586042;0.545988;0.469717;0.104812;0.036218;0.008359;0.002749;0.427125;0.612782;0.236887;0.173687;0.152467;0.135629;0.012324;0.005128;0.001361;http://webservices.rm.ingv.it/
EMSC-20170427_0000114;2017-04-27T21:16:58;15023141;42.9572;13.0458;7.9;Spallarossa_et_al_2021;NF;;4;Spallarossa_et_al_2021;4;TDMT-INGV;MN;AQU;;HL;0;Inside structure;Building;;42.354;13.405;710;Not analized;geology;B;;73.19408860594;156.150535823071;;;0;E;N;Z;manual (Paolucci et al 2011);-0.080311;-0.10513;-0.051787;0.15;0.15;0.15;30;30;30;-0.078873;-0.075054;0.039584;0.018343;0.017597;-0.008084;40.63;46.67;50.29;3.91417398343e-05;3.61025773768e-05;1.30566554506e-05;0.082881;0.132924;0.201385;0.21703;0.142086;0.18015;0.246213;0.119288;0.018819;0.109083;0.188495;0.212411;0.234649;0.123902;0.145932;0.178058;0.059643;0.009383;0.045163;0.080461;0.092011;0.099863;0.065359;0.110679;0.079021;0.019737;0.003463;http://webservices.rm.ingv.it/
EMSC-20170624_0000039;2017-06-24T08:30:05;16031391;42.89277;13.12557;2.447;Spallarossa_et_al_2021;NF;;3.46;Spallarossa_et_al_2021;3.4;TDMT-INGV;MN;AQU;;HL;0;Inside structure;Building;;42.354;13.405;710;Not analized;geology;B;;64.08931612895;158.947351058532;;;0;E;N;Z;manual (Paolucci et al 2011);0.064118;0.07817;-0.037121;0.15;0.15;0.15;30;30;30;0.06323;0.077625;-0.036846;-0.003887;0.003271;-0.002039;34.055;31.37;35.605;1.08900179189e-05;1.15621716675e-05;3.95141318116e-06;0.11307;0.155755;0.216759;0.166831;0.089226;0.040829;0.019068;0.014327;0.0033;0.193713;0.154628;0.254635;0.208947;0.092798;0.03828;0.014594;0.008379;0.002778;0.125936;0.102093;0.136395;0.060982;0.048352;0.045546;0.010389;0.009494;0.001552;http://webservices.rm.ingv.it/
EMSC-20170630_0000001;2017-06-30T00:25:17;16119171;42.6312;13.2142;12.2;INGV-BULLETIN;NF;;3.9;INGV-BULLETIN;3.8;TDMT-INGV;MN;AQU;;HL;0;Inside structure;Building;;42.354;13.405;710;Not analized;geology;B;;34.55702898097;152.941383040998;;;0;E;N;Z;manual (Paolucci et al 2011);-0.630512;-0.753258;0.430991;0.15;0.15;0.15;30;30;30;-0.621249;-0.723463;0.400669;0.019946;0.021919;-0.013399;15.875;14.505;16.25;0.000539735951862;0.000610954820478;0.000232993261397;1.22957;3.52101;1.34606;0.855728;0.586454;0.249898;0.072287;0.019921;0.006801;1.36932;2.36796;2.28785;1.17796;0.490969;0.128209;0.055347;0.017251;0.003934;0.820692;1.67698;0.939245;0.641966;0.328021;0.171804;0.032659;0.011286;0.003524;http://webservices.rm.ingv.it/
EMSC-20170722_0000016;2017-07-22T02:13:08;16415301;42.5806;13.32583;11.904;Spallarossa_et_al_2021;NF;;4.37;Spallarossa_et_al_2021;4;TDMT-INGV;MN;AQU;;HL;0;Inside structure;Building;;42.354;13.405;710;Not analized;geology;B;;25.99974181132;165.470373396979;;;0;E;N;Z;manual (Paolucci et al 2011);-1.557497;1.65266;1.053896;0.1;0.1;0.1;30;30;30;-1.516971;1.662497;1.028254;0.07073;-0.05497;-0.044921;15.045;15.125;14.86;0.00336321902073;0.00306519718672;0.00121888041969;3.07664;3.35498;6.05486;2.93938;1.86283;0.609081;0.298072;0.070157;0.017786;3.42716;5.55138;4.58792;2.23142;1.22138;0.669136;0.265758;0.078457;0.022092;2.24207;2.92465;2.95192;1.43488;0.941952;0.919184;0.130944;0.042509;0.011056;http://webservices.rm.ingv.it/
EMSC-20170910_0000129;2017-09-10T19:58:09;17025201;42.0843;13.3242;8.1;INGV-BULLETIN;NF;;4;EMSC-CSEM;3.7;TDMT-INGV;MN;AQU;;HL;0;Inside structure;Building;;42.354;13.405;710;Not analized;geology;B;;30.69144550167;12.5273240886541;;;0;E;N;Z;manual (Paolucci et al 2011);0.460345;-0.402837;-0.308777;0.1;0.1;0.1;30;30;30;0.447911;-0.400629;-0.30736;0.035473;0.043855;-0.022864;23.765;20.325;25.185;0.000331141823506;0.000367664013044;0.000160395818885;0.610966;1.06106;0.949541;0.984442;0.574455;0.839047;0.192247;0.063615;0.01518;0.431815;1.05146;0.720095;1.0128;0.882628;0.579045;0.173407;0.092502;0.018085;0.32514;0.898593;0.523362;0.417554;0.471736;0.424979;0.098853;0.037077;0.012525;http://webservices.rm.ingv.it/
EMSC-20171203_0000085;2017-12-03T23:34:11;17769831;42.6242;13.3252;7.6;INGV-BULLETIN;NF;;4.2;INGV-BULLETIN;4;TDMT-INGV;MN;AQU;;HL;0;Inside structure;Building;;42.354;13.405;710;Not analized;geology;B;;30.72321365428;167.64318038877;;;0;E;N;Z;manual (Paolucci et al 2011);-0.960191;1.472596;-0.576242;0.1;0.1;0.1;30;30;30;-0.955603;1.477342;-0.575961;-0.081051;0.099453;-0.074046;21.855;17.665;24.615;0.00248099074022;0.00279616177866;0.000940479930209;0.984802;1.18912;2.39106;3.03658;2.80995;1.57687;1.02664;0.247632;0.057994;1.51595;1.8507;3.66134;4.48278;1.91723;1.73029;0.700809;0.156782;0.034913;0.643802;0.878958;1.84151;1.50298;1.33216;0.840145;0.418171;0.135802;0.030264;http://webservices.rm.ingv.it/
