esm_event_id;event_time;ingv_event_id;ev_latitude;ev_longitude;ev_depth_km;ev_hyp_ref;fm_type_code;fm_ref;ml;ml_ref;mw;mw_ref;network_code;station_code;location_code;channel_code;sensor_depth_m;proximity;housing;installation;st_latitude;st_longitude;st_elevation;reference_site;preferred_estimation_method_vs30_ec8;preferred_ec8_code;preferred_vs30_m_s;epi_dist;epi_az;jb_dist;rup_dist;late_triggered_event_01;u_channel_code;v_channel_code;w_channel_code;processing_type;u_un_pga;v_un_pga;w_un_pga;u_hp;v_hp;w_hp;u_lp;v_lp;w_lp;u_pga;v_pga;w_pga;u_pgv;v_pgv;w_pgv;u_t90;v_t90;w_t90;u_ia;v_ia;w_ia;u_t0_050;u_t0_100;u_t0_200;u_t0_300;u_t0_500;u_t1_000;u_t2_000;u_t3_000;u_t5_000;v_t0_050;v_t0_100;v_t0_200;v_t0_300;v_t0_500;v_t1_000;v_t2_000;v_t3_000;v_t5_000;w_t0_050;w_t0_100;w_t0_200;w_t0_300;w_t0_500;w_t1_000;w_t2_000;w_t3_000;w_t5_000;original_data_mediator
IT-2009-0153;2009-04-10T15:46:18;1926039;42.355;13.391;7.6;Chiaraluce_et_al_2011;NF;;4.2;EMSC-CSEM;3.2;INGV-CNT_Seismic_Bulletin;IT;AQK;00;HN;0;Close to structure;Tunnel;Building basement;42.344967;13.400949;726;NO;vs_profile;B;705;1.38348317474;143.660166651182;;;0;E;N;Z;manual (Paolucci et al 2011);-70.843094;-126.5746;-33.949425;0.2;0.2;0.2;40;40;40;-62.388854;-114.967571;33.873833;-0.737969;-1.236162;-0.546745;2.38;1.34;3.605;0.449326929885;1.42582410506;0.340015653017;163.053;111.087;26.1432;14.9692;5.38868;1.43083;0.473567;0.231989;0.103281;399.847;140.659;28.6421;15.4086;6.57171;1.66399;0.59709;0.334846;0.17466;109.435;74.2514;29.5231;13.8624;5.78632;1.1385;0.179117;0.104201;0.066124;brevi manu (DPC)
IT-2009-0170;2009-04-13T13:36:05;1938799;42.445;13.455;9.1;INGV-CNT_Seismic_Bulletin;SS;;3.3;EMSC-CSEM;3.6;INGV-CNT_Seismic_Bulletin;IT;AQK;00;HN;0;Close to structure;Tunnel;Building basement;42.344967;13.400949;726;NO;vs_profile;B;705;11.96983649219;201.844796297945;;;0;E;N;Z;manual (Paolucci et al 2011);-7.132737;-6.026058;-8.668112;0.2;0.2;0.2;40;40;40;-4.854306;-4.943504;-3.354853;-0.208523;0.156348;-0.188472;6.94;7.89;11.93;0.0125650995997;0.0142055462753;0.0121220151158;16.4221;9.62054;5.72578;6.5817;4.7915;1.06132;0.314079;0.12689;0.048578;19.1866;6.94033;3.87461;5.25093;5.96657;1.55503;0.309358;0.099654;0.033987;9.82513;7.19894;4.35725;8.51374;7.62891;2.89656;0.236893;0.083642;0.032855;brevi manu (DPC)
IT-2009-0171;2009-04-13T19:09:49;1939639;42.351;13.346;9.6;INGV-CNT_Seismic_Bulletin;NF;;4.3;EMSC-CSEM;3.7;INGV-CNT_Seismic_Bulletin;IT;AQK;00;HN;0;Close to structure;Tunnel;Building basement;42.344967;13.400949;726;NO;vs_profile;B;705;4.57700423842;98.4007673658305;;;0;E;N;Z;manual (Paolucci et al 2011);-20.273455;26.524717;-17.114313;0.2;0.2;0.2;40;40;40;18.246716;25.690456;12.751295;0.601756;-0.400427;0.291182;3.71;4.955;6.615;0.170867454106;0.188858750012;0.105519048138;46.7172;71.854;14.3456;14.1627;11.654;3.40177;1.03212;0.416363;0.152141;95.8062;72.3698;15.0439;8.62412;7.63901;1.75658;0.339658;0.136241;0.063191;35.3992;44.503;10.9033;11.2505;12.0564;3.47629;0.354047;0.139206;0.057305;brevi manu (DPC)
IT-2009-0172;2009-04-13T19:17:57;1939659;42.352;13.341;9.7;INGV-CNT_Seismic_Bulletin;NF;;3.9;EMSC-CSEM;3.4;INGV-CNT_Seismic_Bulletin;IT;AQK;00;HN;0;Close to structure;Tunnel;Building basement;42.344967;13.400949;726;NO;vs_profile;B;705;5.0010242335;98.9669719870726;;;0;E;N;Z;manual (Paolucci et al 2011);-17.031301;12.436232;-11.289895;0.2;0.2;0.2;40;40;40;-14.107707;13.01206;-5.876801;0.24178;-0.1647;0.169917;4.975;4.345;6.87;0.0388682856503;0.0636235895529;0.0287261299128;29.2512;14.7589;15.4809;5.47007;3.33124;1.33177;0.446851;0.170822;0.065446;48.3664;15.6948;14.3513;8.00865;3.81806;0.897429;0.18788;0.079067;0.036486;15.8405;10.0661;12.6624;5.94856;5.04772;1.28918;0.140649;0.063877;0.022845;brevi manu (DPC)
IT-2009-0174;2009-04-13T21:14:24;1940059;42.498;13.377;9;INGV-CNT_Seismic_Bulletin;NF;None;5;INGV-CNT_Seismic_Bulletin;5;Pondrelli_et_al_2002_dataset;IT;AQK;00;HN;0;Close to structure;Tunnel;Building basement;42.344967;13.400949;726;NO;vs_profile;B;705;17.11302066243;173.378022580794;15.40767038299;18.2919313125915;0;E;N;Z;manual (Paolucci et al 2011);16.096201;-19.868971;-14.25855;0.07;0.07;0.07;40;40;40;16.033368;-19.920925;-14.221906;-1.235064;-1.018766;-0.67731;11.815;14.645;15.61;0.416650334479;0.430341177312;0.292431305656;28.2742;44.3625;49.5579;32.3307;26.9547;20.1345;8.87597;1.66501;0.549136;35.6867;50.7884;37.0018;43.1451;24.0105;15.1732;5.06695;1.37492;0.456215;25.744;34.859;32.0702;37.7759;16.9178;10.318;1.21441;0.631138;0.262631;brevi manu (DPC)
IT-2009-0178;2009-04-14T17:27:30;1943349;42.528;13.313;7.8;INGV-CNT_Seismic_Bulletin;NF;;3.8;EMSC-CSEM;3.6;INGV-CNT_Seismic_Bulletin;IT;AQK;00;HN;0;Close to structure;Tunnel;Building basement;42.344967;13.400949;726;NO;vs_profile;B;705;21.58109904033;160.378154798034;;;0;E;N;Z;manual (Paolucci et al 2011);-4.110157;-3.380769;-7.377097;0.2;0.2;0.2;40;40;40;2.270571;2.867612;-1.626243;0.047947;-0.052484;0.040043;11.545;10.16;18.62;0.00263073717802;0.00420104075;0.00233849923403;8.71971;4.60373;2.84726;1.31362;1.54782;0.841213;0.167426;0.045665;0.015848;8.87506;3.35817;3.62514;1.41466;1.39647;0.556551;0.212938;0.051075;0.018797;6.21277;6.07354;5.3168;1.60624;1.23699;0.468003;0.066282;0.023105;0.008512;brevi manu (DPC)
IT-2009-0180;2009-04-14T20:17:27;1943879;42.543;13.31;8.9;Chiaraluce_et_al_2011;NF;;4.3;EMSC-CSEM;4;Pondrelli_et_al_2002_dataset;IT;AQK;00;HN;0;Close to structure;Tunnel;Building basement;42.344967;13.400949;726;NO;vs_profile;B;705;23.23565852472;161.183545513422;;;0;E;N;Z;manual (Paolucci et al 2011);-3.161246;-2.823546;-6.250001;0.2;0.2;0.2;40;40;40;1.528654;2.445894;-1.48317;-0.061801;0.09333;-0.065677;16.865;12.445;17.64;0.00260166642649;0.00443132307036;0.00302911111701;4.04885;3.20369;2.52566;1.89048;2.21199;1.26142;0.302979;0.057623;0.017003;10.8392;3.03037;2.60155;3.34736;3.0036;1.029;0.344463;0.069668;0.027852;3.41112;2.73244;4.1203;2.91089;2.46249;0.863217;0.101968;0.033403;0.012885;brevi manu (DPC)
IT-2009-0186;2009-04-15T22:53:07;1948769;42.515;13.33;9.8;INGV-CNT_Seismic_Bulletin;NF;;4.3;EMSC-CSEM;3.8;INGV-CNT_Seismic_Bulletin;IT;AQK;00;HN;0;Close to structure;Tunnel;Building basement;42.344967;13.400949;726;NO;vs_profile;B;705;19.76933553316;162.798848374388;;;0;E;N;Z;manual (Paolucci et al 2011);-4.152482;-3.129527;-6.559134;0.2;0.2;0.2;40;40;40;-2.249763;2.538956;-1.851095;0.083879;0.082017;0.047182;10.55;10.575;15.695;0.00390184553004;0.00527017386063;0.00340253057686;10.417;3.53889;3.63283;2.4092;1.19465;0.878269;0.223426;0.066786;0.020338;8.14397;5.23755;4.5176;3.06902;1.42603;0.754953;0.301107;0.074584;0.023638;3.98305;3.6205;5.86729;2.60595;1.28496;0.605616;0.081596;0.026741;0.011727;brevi manu (DPC)
IT-2009-0189;2009-04-16T17:49:30;1951619;42.545;13.299;8.9;Chiaraluce_et_al_2011;NF;;4.4;EMSC-CSEM;3.7;INGV-CNT_Seismic_Bulletin;IT;AQK;00;HN;0;Close to structure;Tunnel;Building basement;42.344967;13.400949;726;NO;vs_profile;B;705;23.75036349686;159.285461292812;;;0;E;N;Z;manual (Paolucci et al 2011);-5.006923;-3.288834;-8.261235;0.2;0.2;0.2;40;40;40;2.423348;3.143868;-2.072577;-0.052885;0.076698;-0.052878;11.125;9.78;12.47;0.00492518425429;0.00630389749061;0.00430455378603;8.95559;7.00832;3.62899;3.1638;1.82885;0.899651;0.203393;0.039754;0.012314;7.85862;6.10342;2.9949;2.91934;2.21858;0.782843;0.200985;0.075545;0.02452;4.39134;5.5054;5.41815;2.12557;1.44658;0.665414;0.076352;0.028361;0.010497;brevi manu (DPC)
IT-2009-0190;2009-04-18T09:05:56;1957099;42.446;13.359;11.1;Chiaraluce_et_al_2011;NF;;4.5;EMSC-CSEM;3.8;INGV-CNT_Seismic_Bulletin;IT;AQK;00;HN;0;Close to structure;Tunnel;Building basement;42.344967;13.400949;726;NO;vs_profile;B;705;11.74230188691;162.879765569033;;;0;E;N;Z;manual (Paolucci et al 2011);13.719932;14.175742;-10.420722;0.2;0.2;0.2;40;40;40;14.893906;14.400533;8.137143;-0.215229;-0.343153;-0.156283;6.45;7.26;11.865;0.0476671468212;0.0705102262749;0.0392257480955;35.9876;44.5589;12.7417;12.6435;6.39734;1.81034;0.366593;0.129101;0.044102;45.2123;23.7087;18.4284;10.8955;8.13508;1.99478;0.615075;0.170455;0.067726;21.9987;34.0546;12.6264;7.9888;6.51117;2.54319;0.164754;0.077667;0.032356;brevi manu (DPC)
IT-2009-0196;2009-04-21T15:44:36;1966529;42.324;13.371;10;INGV-CNT_Seismic_Bulletin;NF;;4;EMSC-CSEM;3.5;INGV-CNT_Seismic_Bulletin;IT;AQK;00;HN;0;Close to structure;Tunnel;Building basement;42.344967;13.400949;726;NO;vs_profile;B;705;3.39361121641;46.6525796986716;;;0;E;N;Z;manual (Paolucci et al 2011);-10.389388;-12.229671;-9.4358;0.2;0.2;0.2;40;40;40;-8.882433;-10.810251;5.047104;0.177673;0.180972;-0.083168;5.98;4.545;9.265;0.0202682854657;0.0379491910236;0.0161038548305;26.3579;11.1128;5.89655;3.15443;2.89215;1.11405;0.409951;0.146064;0.054955;54.872;13.4542;6.54309;3.29287;2.6179;0.769131;0.175641;0.066325;0.029553;15.2299;10.2406;4.42964;2.05604;3.56551;1.25718;0.094414;0.048349;0.019973;brevi manu (DPC)
IT-2009-0199;2009-04-23T15:14:08;1970519;42.247;13.484;10.3;INGV-CNT_Seismic_Bulletin;NF;;4.5;EMSC-CSEM;3.9;INGV-CNT_Seismic_Bulletin;IT;AQK;00;HN;0;Close to structure;Tunnel;Building basement;42.344967;13.400949;726;NO;vs_profile;B;705;12.85793511067;327.842837946249;;;0;E;N;Z;manual (Paolucci et al 2011);-6.498804;7.628251;-8.181497;0.2;0.2;0.2;40;40;40;-4.822978;8.071636;-3.565479;-0.186419;-0.165161;-0.155181;13.59;12.1;13.76;0.0208544185574;0.0298084525353;0.0216082007391;14.5733;15.2077;7.61209;6.52576;2.51278;2.03067;0.579792;0.18608;0.054673;23.41;21.3097;9.74947;5.67464;6.47804;3.76659;0.398191;0.142976;0.045014;10.7106;13.8909;8.11644;8.40419;5.46184;2.60623;0.238176;0.100963;0.037412;brevi manu (DPC)
IT-2009-0200;2009-04-23T21:49:00;1971139;42.228;13.486;9.7;INGV-CNT_Seismic_Bulletin;NF;;4.6;EMSC-CSEM;4.3;Pondrelli_et_al_2002_dataset;IT;AQK;00;HN;0;Close to structure;Tunnel;Building basement;42.344967;13.400949;726;NO;vs_profile;B;705;14.7653174494;331.663440689085;;;0;E;N;Z;manual (Paolucci et al 2011);-4.12863;-4.500596;-7.07077;0.2;0.2;0.2;40;40;40;3.335674;-3.934229;-3.473195;0.165272;0.152919;-0.130649;14.235;16.015;17.8;0.0121170292113;0.0152303973556;0.0134387792419;8.8538;12.3039;4.31445;4.58421;2.19958;2.0641;0.76956;0.212558;0.052601;12.2256;9.50537;6.48051;4.4728;5.26767;3.20443;0.592711;0.143171;0.044885;9.80306;8.43401;5.96554;5.43783;4.30815;2.42348;0.264908;0.091349;0.025736;brevi manu (DPC)
IT-2009-0212;2009-04-30T13:01:02;1982979;42.365;13.369;8.3;Chiaraluce_et_al_2011;NF;;3.9;EMSC-CSEM;3.5;INGV-CNT_Seismic_Bulletin;IT;AQK;00;HN;0;Close to structure;Tunnel;Building basement;42.344967;13.400949;726;NO;vs_profile;B;705;3.44680879656;130.200119505541;;;0;E;N;Z;manual (Paolucci et al 2011);-18.050364;-19.49954;-15.345568;0.2;0.2;0.2;40;40;40;-15.07985;18.358983;14.047302;0.452516;0.246163;-0.221146;4.025;4;5.165;0.0869636842591;0.115926909131;0.0712060530877;61.8736;39.1343;17.9548;9.48281;4.66603;1.61294;0.523492;0.198654;0.079625;71.521;38.1028;14.3572;7.86343;3.62727;0.901821;0.182596;0.074257;0.04089;26.6136;28.5353;13.4689;10.2276;4.52652;1.61797;0.145756;0.079458;0.031027;brevi manu (DPC)
IT-2009-0229;2009-05-01T05:12:51;1984189;42.287;13.462;9.6;INGV-CNT_Seismic_Bulletin;NF;;4.2;EMSC-CSEM;3.6;INGV-CNT_Seismic_Bulletin;IT;AQK;00;HN;0;Close to structure;Tunnel;Building basement;42.344967;13.400949;726;NO;vs_profile;B;705;8.17259134515;322.007460347376;;;0;E;N;Z;manual (Paolucci et al 2011);3.096716;4.876275;2.536489;0.2;0.2;0.2;40;40;40;3.027632;4.880113;2.50866;0.093436;-0.12775;-0.11087;16.09;15.11;15.925;0.0092845970782;0.0139874538081;0.00960386959479;11.7598;7.98499;3.67088;2.82812;2.99963;1.63872;0.218588;0.077002;0.024811;19.9457;10.9997;4.10083;3.98353;5.62828;1.58031;0.266921;0.117381;0.042587;8.38854;7.49229;4.30697;3.87818;3.59311;2.59674;0.190565;0.076431;0.028269;brevi manu (DPC)
IT-2009-0240;2009-05-09T09:09:40;1997639;42.356;13.371;8.8;Chiaraluce_et_al_2011;NF;;3.5;INGV-CNT_Seismic_Bulletin;;;IT;AQK;00;HN;0;Close to structure;Tunnel;Building basement;42.344967;13.400949;726;NO;vs_profile;B;705;2.75521082056;116.401126043767;;;0;E;N;Z;manual (Paolucci et al 2011);8.995755;11.943354;15.431694;0.3;0.3;0.3;40;40;40;7.154743;8.179654;12.718231;0.197847;0.1503;-0.113071;5.7;5.135;6.925;0.0278635962003;0.0385322418431;0.0280002038591;18.0665;13.0374;5.90709;6.64311;4.14108;1.02279;0.263353;0.118291;0.042919;33.8404;14.9962;7.11997;5.14067;3.36662;0.715211;0.137999;0.058323;0.027599;30.9623;10.5128;5.6984;3.50613;4.63708;1.07287;0.113598;0.058103;0.021125;brevi manu (DPC)
IT-2009-0242;2009-05-11T16:59:04;2001639;42.489;13.377;9.7;INGV-CNT_Seismic_Bulletin;;;3.5;INGV-CNT_Seismic_Bulletin;;;IT;AQK;00;HN;0;Close to structure;Tunnel;Building basement;42.344967;13.400949;726;NO;vs_profile;B;705;16.12035674744;172.968254553729;;;0;E;N;Z;manual (Paolucci et al 2011);-1.448615;-1.807309;-1.269079;0.2;0.2;0.2;40;40;40;1.442447;-1.624828;-1.240744;-0.028044;-0.043404;-0.028747;7.595;7.08;11.265;0.00138924011356;0.00204909246334;0.00152220436228;3.7971;3.53532;2.69465;1.36561;0.802391;0.22833;0.06118;0.015396;0.005134;5.3169;3.90561;2.46588;1.57348;1.14522;0.407986;0.068319;0.02029;0.007602;3.01533;3.0401;2.67625;2.08765;0.964776;0.385893;0.038968;0.015166;0.006164;brevi manu (DPC)
IT-2009-0243;2009-05-14T06:30:22;2004959;42.483;13.397;9.5;INGV-CNT_Seismic_Bulletin;NF;;3.5;ISC-webservice;3.4;INGV-CNT_Seismic_Bulletin;IT;AQK;00;HN;0;Close to structure;Tunnel;Building basement;42.344967;13.400949;726;NO;vs_profile;B;705;15.33633407518;178.784212227453;;;0;E;N;Z;manual (Paolucci et al 2011);3.612965;-3.005947;2.661399;0.2;0.2;0.2;40;40;40;3.531369;-2.99232;2.591847;0.074844;-0.091721;-0.070942;6.91;7.65;9.54;0.0063090662499;0.00709215258724;0.00585747334172;7.54937;13.333;5.91862;3.33102;2.06554;0.770022;0.17102;0.05038;0.015879;7.02682;8.38036;5.54765;5.13974;2.35975;0.680866;0.199463;0.054096;0.016847;4.8986;8.82332;5.71314;4.05149;2.65478;0.712372;0.075649;0.030558;0.011858;brevi manu (DPC)
IT-2009-0244;2009-05-14T06:32:33;2004969;42.488;13.405;9.1;INGV-CNT_Seismic_Bulletin;;;3.5;INGV-CNT_Seismic_Bulletin;;;IT;AQK;00;HN;0;Close to structure;Tunnel;Building basement;42.344967;13.400949;726;NO;vs_profile;B;705;15.89180093625;181.203595915197;;;0;E;N;Z;manual (Paolucci et al 2011);1.739202;-2.193873;1.568043;0.2;0.2;0.2;40;40;40;1.697698;-2.171155;1.496663;-0.042858;-0.059006;0.046152;9.155;8.47;11.125;0.00244589076074;0.00304857126402;0.00250542324998;5.48939;4.85277;3.2982;1.78714;1.25501;0.632197;0.10847;0.034113;0.010922;4.81532;4.70977;3.00654;2.96367;1.423;0.40313;0.099253;0.038133;0.011022;2.98688;4.83022;2.72393;2.21539;1.43039;0.550063;0.052331;0.021904;0.007722;brevi manu (DPC)
IT-2009-0245;2009-05-14T20:30:54;2005669;42.372;13.329;9.8;INGV-CNT_Seismic_Bulletin;;;3.5;INGV-CNT_Seismic_Bulletin;;;IT;AQK;00;HN;0;Close to structure;Tunnel;Building basement;42.344967;13.400949;726;NO;vs_profile;B;705;6.64467611438;116.842406341835;;;0;E;N;Z;manual (Paolucci et al 2011);14.593101;-15.670705;-11.276662;0.2;0.2;0.2;40;40;40;13.837044;14.508361;-10.46341;0.316924;-0.275584;-0.216578;3.855;3.92;5.92;0.0780888206811;0.102939420029;0.0572893872676;61.5668;32.2453;14.7882;8.05274;3.97355;0.659809;0.220892;0.119043;0.055397;63.4201;25.9046;18.0067;10.9918;5.05867;1.04973;0.213901;0.113027;0.051679;29.9781;33.2864;16.2169;7.42607;5.33862;0.606703;0.121044;0.058836;0.031195;brevi manu (DPC)
IT-2009-0249;2009-05-30T02:55:10;2021969;42.35;13.339;11;INGV-CNT_Seismic_Bulletin;NF;;4.2;EMSC-CSEM;3.6;INGV-CNT_Seismic_Bulletin;IT;AQK;00;HN;0;Close to structure;Tunnel;Building basement;42.344967;13.400949;726;NO;vs_profile;B;705;5.13502802001;96.2294861120311;;;0;E;N;Z;manual (Paolucci et al 2011);-19.434593;21.814491;18.160912;0.2;0.2;0.2;40;40;40;-19.147837;-19.760211;17.582775;0.63918;0.397099;-0.272572;3.65;4.17;6.225;0.141126184225;0.130900901336;0.106482136042;58.0764;45.4763;33.2799;16.0987;4.81758;1.50362;0.512868;0.25387;0.112299;44.2601;45.5226;24.0439;9.26432;3.99248;1.06458;0.276169;0.150907;0.074269;42.164;38.5967;24.9656;13.9365;5.39184;1.57086;0.152764;0.073763;0.038023;brevi manu (DPC)
IT-2009-0253;2009-06-07T19:21:34;2029709;42.338;13.476;10.7;INGV-CNT_Seismic_Bulletin;NF;;3.9;EMSC-CSEM;3.3;INGV-CNT_Seismic_Bulletin;IT;AQK;00;HN;0;Close to structure;Tunnel;Building basement;42.344967;13.400949;726;NO;vs_profile;B;705;6.23290756609;277.157671548539;;;0;E;N;Z;manual (Paolucci et al 2011);4.012564;4.707751;-3.945361;0.2;0.2;0.2;40;40;40;3.906417;4.64832;-3.864332;0.139474;-0.265086;-0.14731;12.06;9.88;12.4;0.0138382748547;0.0196951809967;0.017868101876;12.4497;11.3025;7.75985;5.83627;4.40235;1.3986;0.654015;0.145524;0.040744;17.4171;12.3953;9.31795;6.33632;5.71316;1.7194;0.625448;0.199924;0.064881;10.562;8.25375;8.39104;7.77785;7.22355;1.87953;0.224956;0.083966;0.031296;brevi manu (DPC)
IT-2009-0262;2009-06-22T20:58:40;2040909;42.454;13.354;10.8;Chiaraluce_et_al_2011;NF;None;4.6;INGV-CNT_Seismic_Bulletin;4.7;Pondrelli_et_al_2002_dataset;IT;AQK;00;HN;0;Close to structure;Tunnel;Building basement;42.344967;13.400949;726;NO;vs_profile;B;705;12.71334879532;162.283893134925;11.7867297879;16.340574153934;0;E;N;Z;manual (Paolucci et al 2011);24.435289;28.408119;-13.59638;0.2;0.2;0.2;40;40;40;23.925387;27.882557;-13.394707;-0.659292;0.968342;-0.581878;8.09;9.64;13.33;0.261834653659;0.338165946893;0.201253519373;30.5528;71.7484;22.8809;16.0262;13.3644;6.68349;2.5679;0.708486;0.218908;71.1274;57.6194;36.0111;25.2199;21.8956;9.32297;3.44595;0.863092;0.276879;26.9561;34.324;21.8886;20.8795;18.2787;9.96567;0.962448;0.339481;0.125774;brevi manu (DPC)
IT-2009-0264;2009-06-23T00:41:56;2041429;42.452;13.364;10.5;Chiaraluce_et_al_2011;NF;;4.4;EMSC-CSEM;3.7;INGV-CNT_Seismic_Bulletin;IT;AQK;00;HN;0;Close to structure;Tunnel;Building basement;42.344967;13.400949;726;NO;vs_profile;B;705;12.27234854949;165.635397161027;;;0;E;N;Z;manual (Paolucci et al 2011);-8.32968;-12.418574;-10.883787;0.25;0.25;0.25;40;40;40;-8.297344;-11.939758;-10.676421;-0.17855;-0.270607;-0.176535;8;6.2;10.46;0.0403714803028;0.0686367627699;0.054910371366;21.2158;27.6707;11.2725;6.97354;4.72404;1.42661;0.310727;0.088647;0.032088;29.5238;30.5156;18.6454;12.5661;8.52596;1.80623;0.34801;0.128783;0.048304;20.7333;19.5545;16.9436;7.8447;5.42526;2.81092;0.216891;0.079914;0.031369;brevi manu (DPC)
IT-2009-0265;2009-06-23T08:35:08;2042029;42.466;13.352;11;INGV-CNT_Seismic_Bulletin;;;3.6;INGV-CNT_Seismic_Bulletin;;;IT;AQK;00;HN;0;Close to structure;Tunnel;Building basement;42.344967;13.400949;726;NO;vs_profile;B;705;14.03538318694;163.298840168605;;;0;E;N;Z;manual (Paolucci et al 2011);-3.048968;2.96241;-2.489568;0.2;0.2;0.3;40;40;40;-2.8086;2.70025;-2.215069;0.075727;-0.104207;-0.070363;10.7;9.37;12.735;0.00334638742634;0.00594722102666;0.00383679993288;7.14529;4.02278;2.3598;2.53976;2.69489;0.546877;0.176191;0.041023;0.014248;12.0732;5.59088;2.9433;3.30928;3.47343;0.670119;0.139252;0.047294;0.018313;5.3128;4.24007;2.72299;2.8584;2.27575;1.10546;0.090891;0.037694;0.014423;brevi manu (DPC)
IT-2009-0277;2009-07-03T01:14:07;2054309;42.337;13.38;9.7;Chiaraluce_et_al_2011;SS;;3.6;INGV-CNT_Seismic_Bulletin;;;IT;AQK;00;HN;0;Close to structure;Tunnel;Building basement;42.344967;13.400949;726;NO;vs_profile;B;705;1.93995899847;62.8519579296375;;;0;E;N;Z;manual (Paolucci et al 2011);-15.235613;-16.114273;-11.624813;0.2;0.2;0.2;40;40;40;-14.801648;-15.141022;-10.769751;-0.312459;0.209159;0.197733;4.595;5.295;7.04;0.061652374502;0.0699974210351;0.0497613374478;47.436;42.2932;14.6955;10.2858;3.86026;1.12024;0.390821;0.144263;0.057073;57.3462;18.0631;12.2666;9.48588;5.0107;0.822685;0.1768;0.083023;0.034701;31.9402;19.7838;12.3617;8.50574;3.76564;1.06298;0.138931;0.058668;0.027935;brevi manu (DPC)
